"","Files","Name","LLcode","Lat","NS","dex","LatMin","LatMax","LonMin","LonMax"
"1","G:\BerkeleyEarthFunctions\Data\GlobeLand30_ATS2010_1/GlobeLand30_ATS2010_1/N25_35_2010LC030/N25_35_2010LC030_ATS.TIF","N25_35_2010LC030_ATS.TIF","N25_35",35,"N",25,35,40,-36,-30
"2","G:\BerkeleyEarthFunctions\Data\GlobeLand30_ATS2010_1/GlobeLand30_ATS2010_1/N26_35_2010LC030/N26_35_2010LC030_ATS.TIF","N26_35_2010LC030_ATS.TIF","N26_35",35,"N",26,35,40,-30,-24
"3","G:\BerkeleyEarthFunctions\Data\GlobeLand30_ATS2010_1/GlobeLand30_ATS2010_1/N27_60_2010LC030/N27_60_2010LC030_ATS.TIF","N27_60_2010LC030_ATS.TIF","N27_60",60,"N",27,60,65,-24,-12
"4","G:\BerkeleyEarthFunctions\Data\GlobeLand30_ATS2010_1/GlobeLand30_ATS2010_1/N27_65_2010LC030/N27_65_2010LC030_ATS.TIF","N27_65_2010LC030_ATS.TIF","N27_65",65,"N",27,65,70,-24,-12
"5","G:\BerkeleyEarthFunctions\Data\GlobeLand30_ATS2010_1/GlobeLand30_ATS2010_1/N29_40_2010LC030/N29_40_2010LC030_ATS.TIF","N29_40_2010LC030_ATS.TIF","N29_40",40,"N",29,40,45,-12,-6
"6","G:\BerkeleyEarthFunctions\Data\GlobeLand30_ATS2010_1/GlobeLand30_ATS2010_1/N29_45_2010LC030/N29_45_2010LC030_ATS.TIF","N29_45_2010LC030_ATS.TIF","N29_45",45,"N",29,45,50,-12,-6
"7","G:\BerkeleyEarthFunctions\Data\GlobeLand30_ATS2010_1/GlobeLand30_ATS2010_1/N29_50_2010LC030/N29_50_2010LC030_ATS.TIF","N29_50_2010LC030_ATS.TIF","N29_50",50,"N",29,50,55,-12,-6
"8","G:\BerkeleyEarthFunctions\Data\GlobeLand30_ATS2010_1/GlobeLand30_ATS2010_1/N29_55_2010LC030/N29_55_2010LC030_ATS.TIF","N29_55_2010LC030_ATS.TIF","N29_55",55,"N",29,55,60,-12,-6
"9","G:\BerkeleyEarthFunctions\Data\GlobeLand30_ATS2010_1/GlobeLand30_ATS2010_1/N29_60_2010LC030/N29_60_2010LC030_ATS.TIF","N29_60_2010LC030_ATS.TIF","N29_60",60,"N",29,60,65,-12,0
"10","G:\BerkeleyEarthFunctions\Data\GlobeLand30_ATS2010_1/GlobeLand30_ATS2010_1/N30_40_2010LC030/N30_40_2010LC030_ATS.TIF","N30_40_2010LC030_ATS.TIF","N30_40",40,"N",30,40,45,-6,0
"11","G:\BerkeleyEarthFunctions\Data\GlobeLand30_ATS2010_1/GlobeLand30_ATS2010_1/N30_45_2010LC030/N30_45_2010LC030_ATS.TIF","N30_45_2010LC030_ATS.TIF","N30_45",45,"N",30,45,50,-6,0
"12","G:\BerkeleyEarthFunctions\Data\GlobeLand30_ATS2010_1/GlobeLand30_ATS2010_1/N30_50_2010LC030/N30_50_2010LC030_ATS.TIF","N30_50_2010LC030_ATS.TIF","N30_50",50,"N",30,50,55,-6,0
"13","G:\BerkeleyEarthFunctions\Data\GlobeLand30_ATS2010_1/GlobeLand30_ATS2010_1/N30_55_2010LC030/N30_55_2010LC030_ATS.TIF","N30_55_2010LC030_ATS.TIF","N30_55",55,"N",30,55,60,-6,0
"14","G:\BerkeleyEarthFunctions\Data\GlobeLand30_ATS2010_1/GlobeLand30_ATS2010_1/N31_40_2010LC030/N31_40_2010LC030_ATS.TIF","N31_40_2010LC030_ATS.TIF","N31_40",40,"N",31,40,45,0,6
"15","G:\BerkeleyEarthFunctions\Data\GlobeLand30_ATS2010_1/GlobeLand30_ATS2010_1/N31_45_2010LC030/N31_45_2010LC030_ATS.TIF","N31_45_2010LC030_ATS.TIF","N31_45",45,"N",31,45,50,0,6
"16","G:\BerkeleyEarthFunctions\Data\GlobeLand30_ATS2010_1/GlobeLand30_ATS2010_1/N31_50_2010LC030/N31_50_2010LC030_ATS.TIF","N31_50_2010LC030_ATS.TIF","N31_50",50,"N",31,50,55,0,6
"17","G:\BerkeleyEarthFunctions\Data\GlobeLand30_ATS2010_1/GlobeLand30_ATS2010_1/N31_55_2010LC030/N31_55_2010LC030_ATS.TIF","N31_55_2010LC030_ATS.TIF","N31_55",55,"N",31,55,60,0,6
"18","G:\BerkeleyEarthFunctions\Data\GlobeLand30_ATS2010_1/GlobeLand30_ATS2010_1/N31_60_2010LC030/N31_60_2010LC030_ATS.TIF","N31_60_2010LC030_ATS.TIF","N31_60",60,"N",31,60,65,0,12
"19","G:\BerkeleyEarthFunctions\Data\GlobeLand30_ATS2010_1/GlobeLand30_ATS2010_1/N31_65_2010LC030/N31_65_2010LC030_ATS.TIF","N31_65_2010LC030_ATS.TIF","N31_65",65,"N",31,65,70,0,12
"20","G:\BerkeleyEarthFunctions\Data\GlobeLand30_ATS2010_1/GlobeLand30_ATS2010_1/N32_35_2010LC030/N32_35_2010LC030_ATS.TIF","N32_35_2010LC030_ATS.TIF","N32_35",35,"N",32,35,40,6,12
"21","G:\BerkeleyEarthFunctions\Data\GlobeLand30_ATS2010_1/GlobeLand30_ATS2010_1/N32_40_2010LC030/N32_40_2010LC030_ATS.TIF","N32_40_2010LC030_ATS.TIF","N32_40",40,"N",32,40,45,6,12
"22","G:\BerkeleyEarthFunctions\Data\GlobeLand30_ATS2010_1/GlobeLand30_ATS2010_1/N32_45_2010LC030/N32_45_2010LC030_ATS.TIF","N32_45_2010LC030_ATS.TIF","N32_45",45,"N",32,45,50,6,12
"23","G:\BerkeleyEarthFunctions\Data\GlobeLand30_ATS2010_1/GlobeLand30_ATS2010_1/N32_50_2010LC030/N32_50_2010LC030_ATS.TIF","N32_50_2010LC030_ATS.TIF","N32_50",50,"N",32,50,55,6,12
"24","G:\BerkeleyEarthFunctions\Data\GlobeLand30_ATS2010_1/GlobeLand30_ATS2010_1/N32_55_2010LC030/N32_55_2010LC030_ATS.TIF","N32_55_2010LC030_ATS.TIF","N32_55",55,"N",32,55,60,6,12
"25","G:\BerkeleyEarthFunctions\Data\GlobeLand30_ATS2010_1/GlobeLand30_ATS2010_1/N33_35_2010LC030/N33_35_2010LC030_ATS.TIF","N33_35_2010LC030_ATS.TIF","N33_35",35,"N",33,35,40,12,18
"26","G:\BerkeleyEarthFunctions\Data\GlobeLand30_ATS2010_1/GlobeLand30_ATS2010_1/N33_40_2010LC030/N33_40_2010LC030_ATS.TIF","N33_40_2010LC030_ATS.TIF","N33_40",40,"N",33,40,45,12,18
"27","G:\BerkeleyEarthFunctions\Data\GlobeLand30_ATS2010_1/GlobeLand30_ATS2010_1/N33_45_2010LC030/N33_45_2010LC030_ATS.TIF","N33_45_2010LC030_ATS.TIF","N33_45",45,"N",33,45,50,12,18
"28","G:\BerkeleyEarthFunctions\Data\GlobeLand30_ATS2010_1/GlobeLand30_ATS2010_1/N33_50_2010LC030/N33_50_2010LC030_ATS.TIF","N33_50_2010LC030_ATS.TIF","N33_50",50,"N",33,50,55,12,18
"29","G:\BerkeleyEarthFunctions\Data\GlobeLand30_ATS2010_1/GlobeLand30_ATS2010_1/N33_55_2010LC030/N33_55_2010LC030_ATS.TIF","N33_55_2010LC030_ATS.TIF","N33_55",55,"N",33,55,60,12,18
"30","G:\BerkeleyEarthFunctions\Data\GlobeLand30_ATS2010_1/GlobeLand30_ATS2010_1/N33_60_2010LC030/N33_60_2010LC030_ATS.TIF","N33_60_2010LC030_ATS.TIF","N33_60",60,"N",33,60,65,12,24
"31","G:\BerkeleyEarthFunctions\Data\GlobeLand30_ATS2010_1/GlobeLand30_ATS2010_1/N33_65_2010LC030/N33_65_2010LC030_ATS.TIF","N33_65_2010LC030_ATS.TIF","N33_65",65,"N",33,65,70,12,24
"32","G:\BerkeleyEarthFunctions\Data\GlobeLand30_ATS2010_1/GlobeLand30_ATS2010_1/N33_70_2010LC030/N33_70_2010LC030_ATS.TIF","N33_70_2010LC030_ATS.TIF","N33_70",70,"N",33,70,75,12,24
"33","G:\BerkeleyEarthFunctions\Data\GlobeLand30_ATS2010_1/GlobeLand30_ATS2010_1/N34_30_2010LC030/N34_30_2010LC030_ATS.TIF","N34_30_2010LC030_ATS.TIF","N34_30",30,"N",34,30,35,18,24
"34","G:\BerkeleyEarthFunctions\Data\GlobeLand30_ATS2010_1/GlobeLand30_ATS2010_1/N34_35_2010LC030/N34_35_2010LC030_ATS.TIF","N34_35_2010LC030_ATS.TIF","N34_35",35,"N",34,35,40,18,24
"35","G:\BerkeleyEarthFunctions\Data\GlobeLand30_ATS2010_1/GlobeLand30_ATS2010_1/N34_40_2010LC030/N34_40_2010LC030_ATS.TIF","N34_40_2010LC030_ATS.TIF","N34_40",40,"N",34,40,45,18,24
"36","G:\BerkeleyEarthFunctions\Data\GlobeLand30_ATS2010_1/GlobeLand30_ATS2010_1/N34_45_2010LC030/N34_45_2010LC030_ATS.TIF","N34_45_2010LC030_ATS.TIF","N34_45",45,"N",34,45,50,18,24
"37","G:\BerkeleyEarthFunctions\Data\GlobeLand30_ATS2010_1/GlobeLand30_ATS2010_1/N34_50_2010LC030/N34_50_2010LC030_ATS.TIF","N34_50_2010LC030_ATS.TIF","N34_50",50,"N",34,50,55,18,24
"38","G:\BerkeleyEarthFunctions\Data\GlobeLand30_ATS2010_1/GlobeLand30_ATS2010_1/N34_55_2010LC030/N34_55_2010LC030_ATS.TIF","N34_55_2010LC030_ATS.TIF","N34_55",55,"N",34,55,60,18,24
"39","G:\BerkeleyEarthFunctions\Data\GlobeLand30_ATS2010_1/GlobeLand30_ATS2010_1/N35_30_2010LC030/N35_30_2010LC030_ATS.TIF","N35_30_2010LC030_ATS.TIF","N35_30",30,"N",35,30,35,24,30
"40","G:\BerkeleyEarthFunctions\Data\GlobeLand30_ATS2010_1/GlobeLand30_ATS2010_1/N35_35_2010LC030/N35_35_2010LC030_ATS.TIF","N35_35_2010LC030_ATS.TIF","N35_35",35,"N",35,35,40,24,30
"41","G:\BerkeleyEarthFunctions\Data\GlobeLand30_ATS2010_1/GlobeLand30_ATS2010_1/N35_40_2010LC030/N35_40_2010LC030_ATS.TIF","N35_40_2010LC030_ATS.TIF","N35_40",40,"N",35,40,45,24,30
"42","G:\BerkeleyEarthFunctions\Data\GlobeLand30_ATS2010_1/GlobeLand30_ATS2010_1/N35_45_2010LC030/N35_45_2010LC030_ATS.TIF","N35_45_2010LC030_ATS.TIF","N35_45",45,"N",35,45,50,24,30
"43","G:\BerkeleyEarthFunctions\Data\GlobeLand30_ATS2010_1/GlobeLand30_ATS2010_1/N35_50_2010LC030/N35_50_2010LC030_ATS.TIF","N35_50_2010LC030_ATS.TIF","N35_50",50,"N",35,50,55,24,30
"44","G:\BerkeleyEarthFunctions\Data\GlobeLand30_ATS2010_1/GlobeLand30_ATS2010_1/N35_55_2010LC030/N35_55_2010LC030_ATS.TIF","N35_55_2010LC030_ATS.TIF","N35_55",55,"N",35,55,60,24,30
"45","G:\BerkeleyEarthFunctions\Data\GlobeLand30_ATS2010_1/GlobeLand30_ATS2010_1/N35_60_2010LC030/N35_60_2010LC030_ATS.TIF","N35_60_2010LC030_ATS.TIF","N35_60",60,"N",35,60,65,24,36
"46","G:\BerkeleyEarthFunctions\Data\GlobeLand30_ATS2010_1/GlobeLand30_ATS2010_1/N35_65_2010LC030/N35_65_2010LC030_ATS.TIF","N35_65_2010LC030_ATS.TIF","N35_65",65,"N",35,65,70,24,36
"47","G:\BerkeleyEarthFunctions\Data\GlobeLand30_ATS2010_1/GlobeLand30_ATS2010_1/N35_70_2010LC030/N35_70_2010LC030_ATS.TIF","N35_70_2010LC030_ATS.TIF","N35_70",70,"N",35,70,75,24,36
"48","G:\BerkeleyEarthFunctions\Data\GlobeLand30_ATS2010_1/GlobeLand30_ATS2010_1/N36_35_2010LC030/N36_35_2010LC030_ATS.TIF","N36_35_2010LC030_ATS.TIF","N36_35",35,"N",36,35,40,30,36
"49","G:\BerkeleyEarthFunctions\Data\GlobeLand30_ATS2010_1/GlobeLand30_ATS2010_1/N36_40_2010LC030/N36_40_2010LC030_ATS.TIF","N36_40_2010LC030_ATS.TIF","N36_40",40,"N",36,40,45,30,36
"50","G:\BerkeleyEarthFunctions\Data\GlobeLand30_ATS2010_1/GlobeLand30_ATS2010_1/N36_45_2010LC030/N36_45_2010LC030_ATS.TIF","N36_45_2010LC030_ATS.TIF","N36_45",45,"N",36,45,50,30,36
"51","G:\BerkeleyEarthFunctions\Data\GlobeLand30_ATS2010_1/GlobeLand30_ATS2010_1/N36_50_2010LC030/N36_50_2010LC030_ATS.TIF","N36_50_2010LC030_ATS.TIF","N36_50",50,"N",36,50,55,30,36
"52","G:\BerkeleyEarthFunctions\Data\GlobeLand30_ATS2010_1/GlobeLand30_ATS2010_1/N36_55_2010LC030/N36_55_2010LC030_ATS.TIF","N36_55_2010LC030_ATS.TIF","N36_55",55,"N",36,55,60,30,36
"53","G:\BerkeleyEarthFunctions\Data\GlobeLand30_ATS2010_1/GlobeLand30_ATS2010_1/N37_20_2010LC030/N37_20_2010LC030_ATS.TIF","N37_20_2010LC030_ATS.TIF","N37_20",20,"N",37,20,25,36,42
"54","G:\BerkeleyEarthFunctions\Data\GlobeLand30_ATS2010_1/GlobeLand30_ATS2010_1/N37_25_2010LC030/N37_25_2010LC030_ATS.TIF","N37_25_2010LC030_ATS.TIF","N37_25",25,"N",37,25,30,36,42
"55","G:\BerkeleyEarthFunctions\Data\GlobeLand30_ATS2010_1/GlobeLand30_ATS2010_1/N37_30_2010LC030/N37_30_2010LC030_ATS.TIF","N37_30_2010LC030_ATS.TIF","N37_30",30,"N",37,30,35,36,42
"56","G:\BerkeleyEarthFunctions\Data\GlobeLand30_ATS2010_1/GlobeLand30_ATS2010_1/N37_35_2010LC030/N37_35_2010LC030_ATS.TIF","N37_35_2010LC030_ATS.TIF","N37_35",35,"N",37,35,40,36,42
"57","G:\BerkeleyEarthFunctions\Data\GlobeLand30_ATS2010_1/GlobeLand30_ATS2010_1/N37_40_2010LC030/N37_40_2010LC030_ATS.TIF","N37_40_2010LC030_ATS.TIF","N37_40",40,"N",37,40,45,36,42
"58","G:\BerkeleyEarthFunctions\Data\GlobeLand30_ATS2010_1/GlobeLand30_ATS2010_1/N37_45_2010LC030/N37_45_2010LC030_ATS.TIF","N37_45_2010LC030_ATS.TIF","N37_45",45,"N",37,45,50,36,42
"59","G:\BerkeleyEarthFunctions\Data\GlobeLand30_ATS2010_1/GlobeLand30_ATS2010_1/N37_50_2010LC030/N37_50_2010LC030_ATS.TIF","N37_50_2010LC030_ATS.TIF","N37_50",50,"N",37,50,55,36,42
"60","G:\BerkeleyEarthFunctions\Data\GlobeLand30_ATS2010_1/GlobeLand30_ATS2010_1/N37_55_2010LC030/N37_55_2010LC030_ATS.TIF","N37_55_2010LC030_ATS.TIF","N37_55",55,"N",37,55,60,36,42
"61","G:\BerkeleyEarthFunctions\Data\GlobeLand30_ATS2010_1/GlobeLand30_ATS2010_1/N37_60_2010LC030/N37_60_2010LC030_ATS.TIF","N37_60_2010LC030_ATS.TIF","N37_60",60,"N",37,60,65,36,48
"62","G:\BerkeleyEarthFunctions\Data\GlobeLand30_ATS2010_1/GlobeLand30_ATS2010_1/N37_65_2010LC030/N37_65_2010LC030_ATS.TIF","N37_65_2010LC030_ATS.TIF","N37_65",65,"N",37,65,70,36,48
"63","G:\BerkeleyEarthFunctions\Data\GlobeLand30_ATS2010_1/GlobeLand30_ATS2010_1/N38_10_2010LC030/N38_10_2010LC030_ATS.TIF","N38_10_2010LC030_ATS.TIF","N38_10",10,"N",38,10,15,42,48
"64","G:\BerkeleyEarthFunctions\Data\GlobeLand30_ATS2010_1/GlobeLand30_ATS2010_1/N38_15_2010LC030/N38_15_2010LC030_ATS.TIF","N38_15_2010LC030_ATS.TIF","N38_15",15,"N",38,15,20,42,48
"65","G:\BerkeleyEarthFunctions\Data\GlobeLand30_ATS2010_1/GlobeLand30_ATS2010_1/N38_20_2010LC030/N38_20_2010LC030_ATS.TIF","N38_20_2010LC030_ATS.TIF","N38_20",20,"N",38,20,25,42,48
"66","G:\BerkeleyEarthFunctions\Data\GlobeLand30_ATS2010_1/GlobeLand30_ATS2010_1/N38_25_2010LC030/N38_25_2010LC030_ATS.TIF","N38_25_2010LC030_ATS.TIF","N38_25",25,"N",38,25,30,42,48
"67","G:\BerkeleyEarthFunctions\Data\GlobeLand30_ATS2010_1/GlobeLand30_ATS2010_1/N38_30_2010LC030/N38_30_2010LC030_ATS.TIF","N38_30_2010LC030_ATS.TIF","N38_30",30,"N",38,30,35,42,48
"68","G:\BerkeleyEarthFunctions\Data\GlobeLand30_ATS2010_1/GlobeLand30_ATS2010_1/N38_35_2010LC030/N38_35_2010LC030_ATS.TIF","N38_35_2010LC030_ATS.TIF","N38_35",35,"N",38,35,40,42,48
"69","G:\BerkeleyEarthFunctions\Data\GlobeLand30_ATS2010_1/GlobeLand30_ATS2010_1/N38_40_2010LC030/N38_40_2010LC030_ATS.TIF","N38_40_2010LC030_ATS.TIF","N38_40",40,"N",38,40,45,42,48
"70","G:\BerkeleyEarthFunctions\Data\GlobeLand30_ATS2010_1/GlobeLand30_ATS2010_1/N38_45_2010LC030/N38_45_2010LC030_ATS.TIF","N38_45_2010LC030_ATS.TIF","N38_45",45,"N",38,45,50,42,48
"71","G:\BerkeleyEarthFunctions\Data\GlobeLand30_ATS2010_1/GlobeLand30_ATS2010_1/N38_50_2010LC030/N38_50_2010LC030_ATS.TIF","N38_50_2010LC030_ATS.TIF","N38_50",50,"N",38,50,55,42,48
"72","G:\BerkeleyEarthFunctions\Data\GlobeLand30_ATS2010_1/GlobeLand30_ATS2010_1/N38_55_2010LC030/N38_55_2010LC030_ATS.TIF","N38_55_2010LC030_ATS.TIF","N38_55",55,"N",38,55,60,42,48
"73","G:\BerkeleyEarthFunctions\Data\GlobeLand30_ATS2010_1/GlobeLand30_ATS2010_1/N39_10_2010LC030/N39_10_2010LC030_ATS.TIF","N39_10_2010LC030_ATS.TIF","N39_10",10,"N",39,10,15,48,54
"74","G:\BerkeleyEarthFunctions\Data\GlobeLand30_ATS2010_1/GlobeLand30_ATS2010_1/N39_15_2010LC030/N39_15_2010LC030_ATS.TIF","N39_15_2010LC030_ATS.TIF","N39_15",15,"N",39,15,20,48,54
"75","G:\BerkeleyEarthFunctions\Data\GlobeLand30_ATS2010_1/GlobeLand30_ATS2010_1/N39_20_2010LC030/N39_20_2010LC030_ATS.TIF","N39_20_2010LC030_ATS.TIF","N39_20",20,"N",39,20,25,48,54
"76","G:\BerkeleyEarthFunctions\Data\GlobeLand30_ATS2010_1/GlobeLand30_ATS2010_1/N39_25_2010LC030/N39_25_2010LC030_ATS.TIF","N39_25_2010LC030_ATS.TIF","N39_25",25,"N",39,25,30,48,54
"77","G:\BerkeleyEarthFunctions\Data\GlobeLand30_ATS2010_1/GlobeLand30_ATS2010_1/N39_30_2010LC030/N39_30_2010LC030_ATS.TIF","N39_30_2010LC030_ATS.TIF","N39_30",30,"N",39,30,35,48,54
"78","G:\BerkeleyEarthFunctions\Data\GlobeLand30_ATS2010_1/GlobeLand30_ATS2010_1/N39_35_2010LC030/N39_35_2010LC030_ATS.TIF","N39_35_2010LC030_ATS.TIF","N39_35",35,"N",39,35,40,48,54
"79","G:\BerkeleyEarthFunctions\Data\GlobeLand30_ATS2010_1/GlobeLand30_ATS2010_1/N39_40_2010LC030/N39_40_2010LC030_ATS.TIF","N39_40_2010LC030_ATS.TIF","N39_40",40,"N",39,40,45,48,54
"80","G:\BerkeleyEarthFunctions\Data\GlobeLand30_ATS2010_1/GlobeLand30_ATS2010_1/N39_45_2010LC030/N39_45_2010LC030_ATS.TIF","N39_45_2010LC030_ATS.TIF","N39_45",45,"N",39,45,50,48,54
"81","G:\BerkeleyEarthFunctions\Data\GlobeLand30_ATS2010_1/GlobeLand30_ATS2010_1/N39_50_2010LC030/N39_50_2010LC030_ATS.TIF","N39_50_2010LC030_ATS.TIF","N39_50",50,"N",39,50,55,48,54
"82","G:\BerkeleyEarthFunctions\Data\GlobeLand30_ATS2010_1/GlobeLand30_ATS2010_1/N39_55_2010LC030/N39_55_2010LC030_ATS.TIF","N39_55_2010LC030_ATS.TIF","N39_55",55,"N",39,55,60,48,54
"83","G:\BerkeleyEarthFunctions\Data\GlobeLand30_ATS2010_1/GlobeLand30_ATS2010_1/N39_60_2010LC030/N39_60_2010LC030_ATS.TIF","N39_60_2010LC030_ATS.TIF","N39_60",60,"N",39,60,65,48,60
"84","G:\BerkeleyEarthFunctions\Data\GlobeLand30_ATS2010_1/GlobeLand30_ATS2010_1/N39_65_2010LC030/N39_65_2010LC030_ATS.TIF","N39_65_2010LC030_ATS.TIF","N39_65",65,"N",39,65,70,48,60
"85","G:\BerkeleyEarthFunctions\Data\GlobeLand30_ATS2010_1/GlobeLand30_ATS2010_1/N39_70_2010LC030/N39_70_2010LC030_ATS.TIF","N39_70_2010LC030_ATS.TIF","N39_70",70,"N",39,70,75,48,60
"86","G:\BerkeleyEarthFunctions\Data\GlobeLand30_ATS2010_1/GlobeLand30_ATS2010_1/N40_10_2010LC030/N40_10_2010LC030_ATS.TIF","N40_10_2010LC030_ATS.TIF","N40_10",10,"N",40,10,15,54,60
"87","G:\BerkeleyEarthFunctions\Data\GlobeLand30_ATS2010_1/GlobeLand30_ATS2010_1/N40_15_2010LC030/N40_15_2010LC030_ATS.TIF","N40_15_2010LC030_ATS.TIF","N40_15",15,"N",40,15,20,54,60
"88","G:\BerkeleyEarthFunctions\Data\GlobeLand30_ATS2010_1/GlobeLand30_ATS2010_1/N40_20_2010LC030/N40_20_2010LC030_ATS.TIF","N40_20_2010LC030_ATS.TIF","N40_20",20,"N",40,20,25,54,60
"89","G:\BerkeleyEarthFunctions\Data\GlobeLand30_ATS2010_1/GlobeLand30_ATS2010_1/N40_25_2010LC030/N40_25_2010LC030_ATS.TIF","N40_25_2010LC030_ATS.TIF","N40_25",25,"N",40,25,30,54,60
"90","G:\BerkeleyEarthFunctions\Data\GlobeLand30_ATS2010_1/GlobeLand30_ATS2010_1/N40_30_2010LC030/N40_30_2010LC030_ATS.TIF","N40_30_2010LC030_ATS.TIF","N40_30",30,"N",40,30,35,54,60
"91","G:\BerkeleyEarthFunctions\Data\GlobeLand30_ATS2010_1/GlobeLand30_ATS2010_1/N40_35_2010LC030/N40_35_2010LC030_ATS.TIF","N40_35_2010LC030_ATS.TIF","N40_35",35,"N",40,35,40,54,60
"92","G:\BerkeleyEarthFunctions\Data\GlobeLand30_ATS2010_1/GlobeLand30_ATS2010_1/N40_40_2010LC030/N40_40_2010LC030_ATS.TIF","N40_40_2010LC030_ATS.TIF","N40_40",40,"N",40,40,45,54,60
"93","G:\BerkeleyEarthFunctions\Data\GlobeLand30_ATS2010_1/GlobeLand30_ATS2010_1/N40_45_2010LC030/N40_45_2010LC030_ATS.TIF","N40_45_2010LC030_ATS.TIF","N40_45",45,"N",40,45,50,54,60
"94","G:\BerkeleyEarthFunctions\Data\GlobeLand30_ATS2010_1/GlobeLand30_ATS2010_1/N40_50_2010LC030/N40_50_2010LC030_ATS.TIF","N40_50_2010LC030_ATS.TIF","N40_50",50,"N",40,50,55,54,60
"95","G:\BerkeleyEarthFunctions\Data\GlobeLand30_ATS2010_1/GlobeLand30_ATS2010_1/N40_55_2010LC030/N40_55_2010LC030_ATS.TIF","N40_55_2010LC030_ATS.TIF","N40_55",55,"N",40,55,60,54,60
"96","G:\BerkeleyEarthFunctions\Data\GlobeLand30_ATS2010_1/GlobeLand30_ATS2010_1/N41_25_2010LC030/N41_25_2010LC030_ATS.TIF","N41_25_2010LC030_ATS.TIF","N41_25",25,"N",41,25,30,60,66
"97","G:\BerkeleyEarthFunctions\Data\GlobeLand30_ATS2010_1/GlobeLand30_ATS2010_1/N41_30_2010LC030/N41_30_2010LC030_ATS.TIF","N41_30_2010LC030_ATS.TIF","N41_30",30,"N",41,30,35,60,66
"98","G:\BerkeleyEarthFunctions\Data\GlobeLand30_ATS2010_1/GlobeLand30_ATS2010_1/N41_35_2010LC030/N41_35_2010LC030_ATS.TIF","N41_35_2010LC030_ATS.TIF","N41_35",35,"N",41,35,40,60,66
"99","G:\BerkeleyEarthFunctions\Data\GlobeLand30_ATS2010_1/GlobeLand30_ATS2010_1/N41_40_2010LC030/N41_40_2010LC030_ATS.TIF","N41_40_2010LC030_ATS.TIF","N41_40",40,"N",41,40,45,60,66
"100","G:\BerkeleyEarthFunctions\Data\GlobeLand30_ATS2010_1/GlobeLand30_ATS2010_1/N41_45_2010LC030/N41_45_2010LC030_ATS.TIF","N41_45_2010LC030_ATS.TIF","N41_45",45,"N",41,45,50,60,66
"101","G:\BerkeleyEarthFunctions\Data\GlobeLand30_ATS2010_1/GlobeLand30_ATS2010_1/N41_50_2010LC030/N41_50_2010LC030_ATS.TIF","N41_50_2010LC030_ATS.TIF","N41_50",50,"N",41,50,55,60,66
"102","G:\BerkeleyEarthFunctions\Data\GlobeLand30_ATS2010_1/GlobeLand30_ATS2010_1/N41_55_2010LC030/N41_55_2010LC030_ATS.TIF","N41_55_2010LC030_ATS.TIF","N41_55",55,"N",41,55,60,60,66
"103","G:\BerkeleyEarthFunctions\Data\GlobeLand30_ATS2010_1/GlobeLand30_ATS2010_1/N41_60_2010LC030/N41_60_2010LC030_ATS.TIF","N41_60_2010LC030_ATS.TIF","N41_60",60,"N",41,60,65,60,72
"104","G:\BerkeleyEarthFunctions\Data\GlobeLand30_ATS2010_1/GlobeLand30_ATS2010_1/N41_65_2010LC030/N41_65_2010LC030_ATS.TIF","N41_65_2010LC030_ATS.TIF","N41_65",65,"N",41,65,70,60,72
"105","G:\BerkeleyEarthFunctions\Data\GlobeLand30_ATS2010_1/GlobeLand30_ATS2010_1/N41_70_2010LC030/N41_70_2010LC030_ATS.TIF","N41_70_2010LC030_ATS.TIF","N41_70",70,"N",41,70,75,60,72
"106","G:\BerkeleyEarthFunctions\Data\GlobeLand30_ATS2010_1/GlobeLand30_ATS2010_1/N42_20_2010LC030/N42_20_2010LC030_ATS.TIF","N42_20_2010LC030_ATS.TIF","N42_20",20,"N",42,20,25,66,72
"107","G:\BerkeleyEarthFunctions\Data\GlobeLand30_ATS2010_1/GlobeLand30_ATS2010_1/N42_25_2010LC030/N42_25_2010LC030_ATS.TIF","N42_25_2010LC030_ATS.TIF","N42_25",25,"N",42,25,30,66,72
"108","G:\BerkeleyEarthFunctions\Data\GlobeLand30_ATS2010_1/GlobeLand30_ATS2010_1/N42_30_2010LC030/N42_30_2010LC030_ATS.TIF","N42_30_2010LC030_ATS.TIF","N42_30",30,"N",42,30,35,66,72
"109","G:\BerkeleyEarthFunctions\Data\GlobeLand30_ATS2010_1/GlobeLand30_ATS2010_1/N42_35_2010LC030/N42_35_2010LC030_ATS.TIF","N42_35_2010LC030_ATS.TIF","N42_35",35,"N",42,35,40,66,72
"110","G:\BerkeleyEarthFunctions\Data\GlobeLand30_ATS2010_1/GlobeLand30_ATS2010_1/N42_40_2010LC030/N42_40_2010LC030_ATS.TIF","N42_40_2010LC030_ATS.TIF","N42_40",40,"N",42,40,45,66,72
"111","G:\BerkeleyEarthFunctions\Data\GlobeLand30_ATS2010_1/GlobeLand30_ATS2010_1/N42_45_2010LC030/N42_45_2010LC030_ATS.TIF","N42_45_2010LC030_ATS.TIF","N42_45",45,"N",42,45,50,66,72
"112","G:\BerkeleyEarthFunctions\Data\GlobeLand30_ATS2010_1/GlobeLand30_ATS2010_1/N42_50_2010LC030/N42_50_2010LC030_ATS.TIF","N42_50_2010LC030_ATS.TIF","N42_50",50,"N",42,50,55,66,72
"113","G:\BerkeleyEarthFunctions\Data\GlobeLand30_ATS2010_1/GlobeLand30_ATS2010_1/N42_55_2010LC030/N42_55_2010LC030_ATS.TIF","N42_55_2010LC030_ATS.TIF","N42_55",55,"N",42,55,60,66,72
"114","G:\BerkeleyEarthFunctions\Data\GlobeLand30_ATS2010_1/GlobeLand30_ATS2010_1/N43_00_2010LC030/N43_00_2010LC030_ATS.TIF","N43_00_2010LC030_ATS.TIF","N43_00",0,"N",43,0,5,72,78
"115","G:\BerkeleyEarthFunctions\Data\GlobeLand30_ATS2010_1/GlobeLand30_ATS2010_1/N43_05_2010LC030/N43_05_2010LC030_ATS.TIF","N43_05_2010LC030_ATS.TIF","N43_05",5,"N",43,5,10,72,78
"116","G:\BerkeleyEarthFunctions\Data\GlobeLand30_ATS2010_1/GlobeLand30_ATS2010_1/N43_10_2010LC030/N43_10_2010LC030_ATS.TIF","N43_10_2010LC030_ATS.TIF","N43_10",10,"N",43,10,15,72,78
"117","G:\BerkeleyEarthFunctions\Data\GlobeLand30_ATS2010_1/GlobeLand30_ATS2010_1/N43_15_2010LC030/N43_15_2010LC030_ATS.TIF","N43_15_2010LC030_ATS.TIF","N43_15",15,"N",43,15,20,72,78
"118","G:\BerkeleyEarthFunctions\Data\GlobeLand30_ATS2010_1/GlobeLand30_ATS2010_1/N43_20_2010LC030/N43_20_2010LC030_ATS.TIF","N43_20_2010LC030_ATS.TIF","N43_20",20,"N",43,20,25,72,78
"119","G:\BerkeleyEarthFunctions\Data\GlobeLand30_ATS2010_1/GlobeLand30_ATS2010_1/N43_25_2010LC030/N43_25_2010LC030_ATS.TIF","N43_25_2010LC030_ATS.TIF","N43_25",25,"N",43,25,30,72,78
"120","G:\BerkeleyEarthFunctions\Data\GlobeLand30_ATS2010_1/GlobeLand30_ATS2010_1/N43_30_2010LC030/N43_30_2010LC030_ATS.TIF","N43_30_2010LC030_ATS.TIF","N43_30",30,"N",43,30,35,72,78
"121","G:\BerkeleyEarthFunctions\Data\GlobeLand30_ATS2010_1/GlobeLand30_ATS2010_1/N43_35_2010LC030/N43_35_2010LC030_ATS.TIF","N43_35_2010LC030_ATS.TIF","N43_35",35,"N",43,35,40,72,78
"122","G:\BerkeleyEarthFunctions\Data\GlobeLand30_ATS2010_1/GlobeLand30_ATS2010_1/N43_40_2010LC030/N43_40_2010LC030_ATS.TIF","N43_40_2010LC030_ATS.TIF","N43_40",40,"N",43,40,45,72,78
"123","G:\BerkeleyEarthFunctions\Data\GlobeLand30_ATS2010_1/GlobeLand30_ATS2010_1/N43_45_2010LC030/N43_45_2010LC030_ATS.TIF","N43_45_2010LC030_ATS.TIF","N43_45",45,"N",43,45,50,72,78
"124","G:\BerkeleyEarthFunctions\Data\GlobeLand30_ATS2010_1/GlobeLand30_ATS2010_1/N43_50_2010LC030/N43_50_2010LC030_ATS.TIF","N43_50_2010LC030_ATS.TIF","N43_50",50,"N",43,50,55,72,78
"125","G:\BerkeleyEarthFunctions\Data\GlobeLand30_ATS2010_1/GlobeLand30_ATS2010_1/N43_55_2010LC030/N43_55_2010LC030_ATS.TIF","N43_55_2010LC030_ATS.TIF","N43_55",55,"N",43,55,60,72,78
"126","G:\BerkeleyEarthFunctions\Data\GlobeLand30_ATS2010_1/GlobeLand30_ATS2010_1/N43_60_2010LC030/N43_60_2010LC030_ATS.TIF","N43_60_2010LC030_ATS.TIF","N43_60",60,"N",43,60,65,72,84
"127","G:\BerkeleyEarthFunctions\Data\GlobeLand30_ATS2010_1/GlobeLand30_ATS2010_1/N43_65_2010LC030/N43_65_2010LC030_ATS.TIF","N43_65_2010LC030_ATS.TIF","N43_65",65,"N",43,65,70,72,84
"128","G:\BerkeleyEarthFunctions\Data\GlobeLand30_ATS2010_1/GlobeLand30_ATS2010_1/N43_70_2010LC030/N43_70_2010LC030_ATS.TIF","N43_70_2010LC030_ATS.TIF","N43_70",70,"N",43,70,75,72,84
"129","G:\BerkeleyEarthFunctions\Data\GlobeLand30_ATS2010_1/GlobeLand30_ATS2010_1/N44_05_2010LC030/N44_05_2010LC030_ATS.TIF","N44_05_2010LC030_ATS.TIF","N44_05",5,"N",44,5,10,78,84
"130","G:\BerkeleyEarthFunctions\Data\GlobeLand30_ATS2010_1/GlobeLand30_ATS2010_1/N44_10_2010LC030/N44_10_2010LC030_ATS.TIF","N44_10_2010LC030_ATS.TIF","N44_10",10,"N",44,10,15,78,84
"131","G:\BerkeleyEarthFunctions\Data\GlobeLand30_ATS2010_1/GlobeLand30_ATS2010_1/N44_15_2010LC030/N44_15_2010LC030_ATS.TIF","N44_15_2010LC030_ATS.TIF","N44_15",15,"N",44,15,20,78,84
"132","G:\BerkeleyEarthFunctions\Data\GlobeLand30_ATS2010_1/GlobeLand30_ATS2010_1/N44_20_2010LC030/N44_20_2010LC030_ATS.TIF","N44_20_2010LC030_ATS.TIF","N44_20",20,"N",44,20,25,78,84
"133","G:\BerkeleyEarthFunctions\Data\GlobeLand30_ATS2010_1/GlobeLand30_ATS2010_1/N44_25_2010LC030/N44_25_2010LC030_ATS.TIF","N44_25_2010LC030_ATS.TIF","N44_25",25,"N",44,25,30,78,84
"134","G:\BerkeleyEarthFunctions\Data\GlobeLand30_ATS2010_1/GlobeLand30_ATS2010_1/N44_30_2010LC030/N44_30_2010LC030_ATS.TIF","N44_30_2010LC030_ATS.TIF","N44_30",30,"N",44,30,35,78,84
"135","G:\BerkeleyEarthFunctions\Data\GlobeLand30_ATS2010_1/GlobeLand30_ATS2010_1/N44_35_2010LC030/N44_35_2010LC030_ATS.TIF","N44_35_2010LC030_ATS.TIF","N44_35",35,"N",44,35,40,78,84
"136","G:\BerkeleyEarthFunctions\Data\GlobeLand30_ATS2010_1/GlobeLand30_ATS2010_1/N44_40_2010LC030/N44_40_2010LC030_ATS.TIF","N44_40_2010LC030_ATS.TIF","N44_40",40,"N",44,40,45,78,84
"137","G:\BerkeleyEarthFunctions\Data\GlobeLand30_ATS2010_1/GlobeLand30_ATS2010_1/N44_45_2010LC030/N44_45_2010LC030_ATS.TIF","N44_45_2010LC030_ATS.TIF","N44_45",45,"N",44,45,50,78,84
"138","G:\BerkeleyEarthFunctions\Data\GlobeLand30_ATS2010_1/GlobeLand30_ATS2010_1/N44_50_2010LC030/N44_50_2010LC030_ATS.TIF","N44_50_2010LC030_ATS.TIF","N44_50",50,"N",44,50,55,78,84
"139","G:\BerkeleyEarthFunctions\Data\GlobeLand30_ATS2010_1/GlobeLand30_ATS2010_1/N44_55_2010LC030/N44_55_2010LC030_ATS.TIF","N44_55_2010LC030_ATS.TIF","N44_55",55,"N",44,55,60,78,84
"140","G:\BerkeleyEarthFunctions\Data\GlobeLand30_ATS2010_1/GlobeLand30_ATS2010_1/N45_15_2010LC030/N45_15_2010LC030_ATS.TIF","N45_15_2010LC030_ATS.TIF","N45_15",15,"N",45,15,20,84,90
"141","G:\BerkeleyEarthFunctions\Data\GlobeLand30_ATS2010_1/GlobeLand30_ATS2010_1/N45_20_2010LC030/N45_20_2010LC030_ATS.TIF","N45_20_2010LC030_ATS.TIF","N45_20",20,"N",45,20,25,84,90
"142","G:\BerkeleyEarthFunctions\Data\GlobeLand30_ATS2010_1/GlobeLand30_ATS2010_1/N45_25_2010LC030/N45_25_2010LC030_ATS.TIF","N45_25_2010LC030_ATS.TIF","N45_25",25,"N",45,25,30,84,90
"143","G:\BerkeleyEarthFunctions\Data\GlobeLand30_ATS2010_1/GlobeLand30_ATS2010_1/N45_30_2010LC030/N45_30_2010LC030_ATS.TIF","N45_30_2010LC030_ATS.TIF","N45_30",30,"N",45,30,35,84,90
"144","G:\BerkeleyEarthFunctions\Data\GlobeLand30_ATS2010_1/GlobeLand30_ATS2010_1/N45_35_2010LC030/N45_35_2010LC030_ATS.TIF","N45_35_2010LC030_ATS.TIF","N45_35",35,"N",45,35,40,84,90
"145","G:\BerkeleyEarthFunctions\Data\GlobeLand30_ATS2010_1/GlobeLand30_ATS2010_1/N45_40_2010LC030/N45_40_2010LC030_ATS.TIF","N45_40_2010LC030_ATS.TIF","N45_40",40,"N",45,40,45,84,90
"146","G:\BerkeleyEarthFunctions\Data\GlobeLand30_ATS2010_1/GlobeLand30_ATS2010_1/N45_45_2010LC030/N45_45_2010LC030_ATS.TIF","N45_45_2010LC030_ATS.TIF","N45_45",45,"N",45,45,50,84,90
"147","G:\BerkeleyEarthFunctions\Data\GlobeLand30_ATS2010_1/GlobeLand30_ATS2010_1/N45_50_2010LC030/N45_50_2010LC030_ATS.TIF","N45_50_2010LC030_ATS.TIF","N45_50",50,"N",45,50,55,84,90
"148","G:\BerkeleyEarthFunctions\Data\GlobeLand30_ATS2010_1/GlobeLand30_ATS2010_1/N45_55_2010LC030/N45_55_2010LC030_ATS.TIF","N45_55_2010LC030_ATS.TIF","N45_55",55,"N",45,55,60,84,90
"149","G:\BerkeleyEarthFunctions\Data\GlobeLand30_ATS2010_1/GlobeLand30_ATS2010_1/N45_60_2010LC030/N45_60_2010LC030_ATS.TIF","N45_60_2010LC030_ATS.TIF","N45_60",60,"N",45,60,65,84,96
"150","G:\BerkeleyEarthFunctions\Data\GlobeLand30_ATS2010_1/GlobeLand30_ATS2010_1/N45_65_2010LC030/N45_65_2010LC030_ATS.TIF","N45_65_2010LC030_ATS.TIF","N45_65",65,"N",45,65,70,84,96
"151","G:\BerkeleyEarthFunctions\Data\GlobeLand30_ATS2010_1/GlobeLand30_ATS2010_1/N46_00_2010LC030/N46_00_2010LC030_ATS.TIF","N46_00_2010LC030_ATS.TIF","N46_00",0,"N",46,0,5,90,96
"152","G:\BerkeleyEarthFunctions\Data\GlobeLand30_ATS2010_1/GlobeLand30_ATS2010_1/N46_05_2010LC030/N46_05_2010LC030_ATS.TIF","N46_05_2010LC030_ATS.TIF","N46_05",5,"N",46,5,10,90,96
"153","G:\BerkeleyEarthFunctions\Data\GlobeLand30_ATS2010_1/GlobeLand30_ATS2010_1/N46_10_2010LC030/N46_10_2010LC030_ATS.TIF","N46_10_2010LC030_ATS.TIF","N46_10",10,"N",46,10,15,90,96
"154","G:\BerkeleyEarthFunctions\Data\GlobeLand30_ATS2010_1/GlobeLand30_ATS2010_1/N46_15_2010LC030/N46_15_2010LC030_ATS.TIF","N46_15_2010LC030_ATS.TIF","N46_15",15,"N",46,15,20,90,96
"155","G:\BerkeleyEarthFunctions\Data\GlobeLand30_ATS2010_1/GlobeLand30_ATS2010_1/N46_20_2010LC030/N46_20_2010LC030_ATS.TIF","N46_20_2010LC030_ATS.TIF","N46_20",20,"N",46,20,25,90,96
"156","G:\BerkeleyEarthFunctions\Data\GlobeLand30_ATS2010_1/GlobeLand30_ATS2010_1/N46_25_2010LC030/N46_25_2010LC030_ATS.TIF","N46_25_2010LC030_ATS.TIF","N46_25",25,"N",46,25,30,90,96
"157","G:\BerkeleyEarthFunctions\Data\GlobeLand30_ATS2010_1/GlobeLand30_ATS2010_1/N46_30_2010LC030/N46_30_2010LC030_ATS.TIF","N46_30_2010LC030_ATS.TIF","N46_30",30,"N",46,30,35,90,96
"158","G:\BerkeleyEarthFunctions\Data\GlobeLand30_ATS2010_1/GlobeLand30_ATS2010_1/N46_35_2010LC030/N46_35_2010LC030_ATS.TIF","N46_35_2010LC030_ATS.TIF","N46_35",35,"N",46,35,40,90,96
"159","G:\BerkeleyEarthFunctions\Data\GlobeLand30_ATS2010_1/GlobeLand30_ATS2010_1/N46_40_2010LC030/N46_40_2010LC030_ATS.TIF","N46_40_2010LC030_ATS.TIF","N46_40",40,"N",46,40,45,90,96
"160","G:\BerkeleyEarthFunctions\Data\GlobeLand30_ATS2010_1/GlobeLand30_ATS2010_1/N46_45_2010LC030/N46_45_2010LC030_ATS.TIF","N46_45_2010LC030_ATS.TIF","N46_45",45,"N",46,45,50,90,96
"161","G:\BerkeleyEarthFunctions\Data\GlobeLand30_ATS2010_1/GlobeLand30_ATS2010_1/N46_50_2010LC030/N46_50_2010LC030_ATS.TIF","N46_50_2010LC030_ATS.TIF","N46_50",50,"N",46,50,55,90,96
"162","G:\BerkeleyEarthFunctions\Data\GlobeLand30_ATS2010_1/GlobeLand30_ATS2010_1/N46_55_2010LC030/N46_55_2010LC030_ATS.TIF","N46_55_2010LC030_ATS.TIF","N46_55",55,"N",46,55,60,90,96
"163","G:\BerkeleyEarthFunctions\Data\GlobeLand30_ATS2010_1/GlobeLand30_ATS2010_1/N47_00_2010LC030/N47_00_2010LC030_ATS.TIF","N47_00_2010LC030_ATS.TIF","N47_00",0,"N",47,0,5,96,102
"164","G:\BerkeleyEarthFunctions\Data\GlobeLand30_ATS2010_1/GlobeLand30_ATS2010_1/N47_05_2010LC030/N47_05_2010LC030_ATS.TIF","N47_05_2010LC030_ATS.TIF","N47_05",5,"N",47,5,10,96,102
"165","G:\BerkeleyEarthFunctions\Data\GlobeLand30_ATS2010_1/GlobeLand30_ATS2010_1/N47_10_2010LC030/N47_10_2010LC030_ATS.TIF","N47_10_2010LC030_ATS.TIF","N47_10",10,"N",47,10,15,96,102
"166","G:\BerkeleyEarthFunctions\Data\GlobeLand30_ATS2010_1/GlobeLand30_ATS2010_1/N47_15_2010LC030/N47_15_2010LC030_ATS.TIF","N47_15_2010LC030_ATS.TIF","N47_15",15,"N",47,15,20,96,102
"167","G:\BerkeleyEarthFunctions\Data\GlobeLand30_ATS2010_1/GlobeLand30_ATS2010_1/N47_20_2010LC030/N47_20_2010LC030_ATS.TIF","N47_20_2010LC030_ATS.TIF","N47_20",20,"N",47,20,25,96,102
"168","G:\BerkeleyEarthFunctions\Data\GlobeLand30_ATS2010_1/GlobeLand30_ATS2010_1/N47_25_2010LC030/N47_25_2010LC030_ATS.TIF","N47_25_2010LC030_ATS.TIF","N47_25",25,"N",47,25,30,96,102
"169","G:\BerkeleyEarthFunctions\Data\GlobeLand30_ATS2010_1/GlobeLand30_ATS2010_1/N47_30_2010LC030/N47_30_2010LC030_ATS.TIF","N47_30_2010LC030_ATS.TIF","N47_30",30,"N",47,30,35,96,102
"170","G:\BerkeleyEarthFunctions\Data\GlobeLand30_ATS2010_1/GlobeLand30_ATS2010_1/N47_35_2010LC030/N47_35_2010LC030_ATS.TIF","N47_35_2010LC030_ATS.TIF","N47_35",35,"N",47,35,40,96,102
"171","G:\BerkeleyEarthFunctions\Data\GlobeLand30_ATS2010_1/GlobeLand30_ATS2010_1/N47_40_2010LC030/N47_40_2010LC030_ATS.TIF","N47_40_2010LC030_ATS.TIF","N47_40",40,"N",47,40,45,96,102
"172","G:\BerkeleyEarthFunctions\Data\GlobeLand30_ATS2010_1/GlobeLand30_ATS2010_1/N47_45_2010LC030/N47_45_2010LC030_ATS.TIF","N47_45_2010LC030_ATS.TIF","N47_45",45,"N",47,45,50,96,102
"173","G:\BerkeleyEarthFunctions\Data\GlobeLand30_ATS2010_1/GlobeLand30_ATS2010_1/N47_50_2010LC030/N47_50_2010LC030_ATS.TIF","N47_50_2010LC030_ATS.TIF","N47_50",50,"N",47,50,55,96,102
"174","G:\BerkeleyEarthFunctions\Data\GlobeLand30_ATS2010_1/GlobeLand30_ATS2010_1/N47_55_2010LC030/N47_55_2010LC030_ATS.TIF","N47_55_2010LC030_ATS.TIF","N47_55",55,"N",47,55,60,96,102
"175","G:\BerkeleyEarthFunctions\Data\GlobeLand30_ATS2010_1/GlobeLand30_ATS2010_1/N47_60_2010LC030/N47_60_2010LC030_ATS.TIF","N47_60_2010LC030_ATS.TIF","N47_60",60,"N",47,60,65,96,108
"176","G:\BerkeleyEarthFunctions\Data\GlobeLand30_ATS2010_1/GlobeLand30_ATS2010_1/N47_65_2010LC030/N47_65_2010LC030_ATS.TIF","N47_65_2010LC030_ATS.TIF","N47_65",65,"N",47,65,70,96,108
"177","G:\BerkeleyEarthFunctions\Data\GlobeLand30_ATS2010_1/GlobeLand30_ATS2010_1/N47_70_2010LC030/N47_70_2010LC030_ATS.TIF","N47_70_2010LC030_ATS.TIF","N47_70",70,"N",47,70,75,96,108
"178","G:\BerkeleyEarthFunctions\Data\GlobeLand30_ATS2010_1/GlobeLand30_ATS2010_1/N48_00_2010LC030/N48_00_2010LC030_ATS.TIF","N48_00_2010LC030_ATS.TIF","N48_00",0,"N",48,0,5,102,108
"179","G:\BerkeleyEarthFunctions\Data\GlobeLand30_ATS2010_1/GlobeLand30_ATS2010_1/N48_05_2010LC030/N48_05_2010LC030_ATS.TIF","N48_05_2010LC030_ATS.TIF","N48_05",5,"N",48,5,10,102,108
"180","G:\BerkeleyEarthFunctions\Data\GlobeLand30_ATS2010_1/GlobeLand30_ATS2010_1/N48_10_2010LC030/N48_10_2010LC030_ATS.TIF","N48_10_2010LC030_ATS.TIF","N48_10",10,"N",48,10,15,102,108
"181","G:\BerkeleyEarthFunctions\Data\GlobeLand30_ATS2010_1/GlobeLand30_ATS2010_1/N48_15_2010LC030/N48_15_2010LC030_ATS.TIF","N48_15_2010LC030_ATS.TIF","N48_15",15,"N",48,15,20,102,108
"182","G:\BerkeleyEarthFunctions\Data\GlobeLand30_ATS2010_1/GlobeLand30_ATS2010_1/N48_20_2010LC030/N48_20_2010LC030_ATS.TIF","N48_20_2010LC030_ATS.TIF","N48_20",20,"N",48,20,25,102,108
"183","G:\BerkeleyEarthFunctions\Data\GlobeLand30_ATS2010_1/GlobeLand30_ATS2010_1/N48_25_2010LC030/N48_25_2010LC030_ATS.TIF","N48_25_2010LC030_ATS.TIF","N48_25",25,"N",48,25,30,102,108
"184","G:\BerkeleyEarthFunctions\Data\GlobeLand30_ATS2010_1/GlobeLand30_ATS2010_1/N48_30_2010LC030/N48_30_2010LC030_ATS.TIF","N48_30_2010LC030_ATS.TIF","N48_30",30,"N",48,30,35,102,108
"185","G:\BerkeleyEarthFunctions\Data\GlobeLand30_ATS2010_1/GlobeLand30_ATS2010_1/N48_35_2010LC030/N48_35_2010LC030_ATS.TIF","N48_35_2010LC030_ATS.TIF","N48_35",35,"N",48,35,40,102,108
"186","G:\BerkeleyEarthFunctions\Data\GlobeLand30_ATS2010_1/GlobeLand30_ATS2010_1/N48_40_2010LC030/N48_40_2010LC030_ATS.TIF","N48_40_2010LC030_ATS.TIF","N48_40",40,"N",48,40,45,102,108
"187","G:\BerkeleyEarthFunctions\Data\GlobeLand30_ATS2010_1/GlobeLand30_ATS2010_1/N48_45_2010LC030/N48_45_2010LC030_ATS.TIF","N48_45_2010LC030_ATS.TIF","N48_45",45,"N",48,45,50,102,108
"188","G:\BerkeleyEarthFunctions\Data\GlobeLand30_ATS2010_1/GlobeLand30_ATS2010_1/N48_50_2010LC030/N48_50_2010LC030_ATS.TIF","N48_50_2010LC030_ATS.TIF","N48_50",50,"N",48,50,55,102,108
"189","G:\BerkeleyEarthFunctions\Data\GlobeLand30_ATS2010_1/GlobeLand30_ATS2010_1/N48_55_2010LC030/N48_55_2010LC030_ATS.TIF","N48_55_2010LC030_ATS.TIF","N48_55",55,"N",48,55,60,102,108
"190","G:\BerkeleyEarthFunctions\Data\GlobeLand30_ATS2010_1/GlobeLand30_ATS2010_1/N49_00_2010LC030/N49_00_2010LC030_ATS.TIF","N49_00_2010LC030_ATS.TIF","N49_00",0,"N",49,0,5,108,114
"191","G:\BerkeleyEarthFunctions\Data\GlobeLand30_ATS2010_1/GlobeLand30_ATS2010_1/N49_10_2010LC030/N49_10_2010LC030_ATS.TIF","N49_10_2010LC030_ATS.TIF","N49_10",10,"N",49,10,15,108,114
"192","G:\BerkeleyEarthFunctions\Data\GlobeLand30_ATS2010_1/GlobeLand30_ATS2010_1/N49_15_2010LC030/N49_15_2010LC030_ATS.TIF","N49_15_2010LC030_ATS.TIF","N49_15",15,"N",49,15,20,108,114
"193","G:\BerkeleyEarthFunctions\Data\GlobeLand30_ATS2010_1/GlobeLand30_ATS2010_1/N49_20_2010LC030/N49_20_2010LC030_ATS.TIF","N49_20_2010LC030_ATS.TIF","N49_20",20,"N",49,20,25,108,114
"194","G:\BerkeleyEarthFunctions\Data\GlobeLand30_ATS2010_1/GlobeLand30_ATS2010_1/N49_25_2010LC030/N49_25_2010LC030_ATS.TIF","N49_25_2010LC030_ATS.TIF","N49_25",25,"N",49,25,30,108,114
"195","G:\BerkeleyEarthFunctions\Data\GlobeLand30_ATS2010_1/GlobeLand30_ATS2010_1/N49_30_2010LC030/N49_30_2010LC030_ATS.TIF","N49_30_2010LC030_ATS.TIF","N49_30",30,"N",49,30,35,108,114
"196","G:\BerkeleyEarthFunctions\Data\GlobeLand30_ATS2010_1/GlobeLand30_ATS2010_1/N49_35_2010LC030/N49_35_2010LC030_ATS.TIF","N49_35_2010LC030_ATS.TIF","N49_35",35,"N",49,35,40,108,114
"197","G:\BerkeleyEarthFunctions\Data\GlobeLand30_ATS2010_1/GlobeLand30_ATS2010_1/N49_40_2010LC030/N49_40_2010LC030_ATS.TIF","N49_40_2010LC030_ATS.TIF","N49_40",40,"N",49,40,45,108,114
"198","G:\BerkeleyEarthFunctions\Data\GlobeLand30_ATS2010_1/GlobeLand30_ATS2010_1/N49_45_2010LC030/N49_45_2010LC030_ATS.TIF","N49_45_2010LC030_ATS.TIF","N49_45",45,"N",49,45,50,108,114
"199","G:\BerkeleyEarthFunctions\Data\GlobeLand30_ATS2010_1/GlobeLand30_ATS2010_1/N49_50_2010LC030/N49_50_2010LC030_ATS.TIF","N49_50_2010LC030_ATS.TIF","N49_50",50,"N",49,50,55,108,114
"200","G:\BerkeleyEarthFunctions\Data\GlobeLand30_ATS2010_1/GlobeLand30_ATS2010_1/N49_55_2010LC030/N49_55_2010LC030_ATS.TIF","N49_55_2010LC030_ATS.TIF","N49_55",55,"N",49,55,60,108,114
"201","G:\BerkeleyEarthFunctions\Data\GlobeLand30_ATS2010_1/GlobeLand30_ATS2010_1/N49_60_2010LC030/N49_60_2010LC030_ATS.TIF","N49_60_2010LC030_ATS.TIF","N49_60",60,"N",49,60,65,108,120
"202","G:\BerkeleyEarthFunctions\Data\GlobeLand30_ATS2010_1/GlobeLand30_ATS2010_1/N49_65_2010LC030/N49_65_2010LC030_ATS.TIF","N49_65_2010LC030_ATS.TIF","N49_65",65,"N",49,65,70,108,120
"203","G:\BerkeleyEarthFunctions\Data\GlobeLand30_ATS2010_1/GlobeLand30_ATS2010_1/N49_70_2010LC030/N49_70_2010LC030_ATS.TIF","N49_70_2010LC030_ATS.TIF","N49_70",70,"N",49,70,75,108,120
"204","G:\BerkeleyEarthFunctions\Data\GlobeLand30_ATS2010_1/GlobeLand30_ATS2010_1/N50_00_2010LC030/N50_00_2010LC030_ATS.TIF","N50_00_2010LC030_ATS.TIF","N50_00",0,"N",50,0,5,114,120
"205","G:\BerkeleyEarthFunctions\Data\GlobeLand30_ATS2010_1/GlobeLand30_ATS2010_1/N50_05_2010LC030/N50_05_2010LC030_ATS.TIF","N50_05_2010LC030_ATS.TIF","N50_05",5,"N",50,5,10,114,120
"206","G:\BerkeleyEarthFunctions\Data\GlobeLand30_ATS2010_1/GlobeLand30_ATS2010_1/N50_10_2010LC030/N50_10_2010LC030_ATS.TIF","N50_10_2010LC030_ATS.TIF","N50_10",10,"N",50,10,15,114,120
"207","G:\BerkeleyEarthFunctions\Data\GlobeLand30_ATS2010_1/GlobeLand30_ATS2010_1/N50_15_2010LC030/N50_15_2010LC030_ATS.TIF","N50_15_2010LC030_ATS.TIF","N50_15",15,"N",50,15,20,114,120
"208","G:\BerkeleyEarthFunctions\Data\GlobeLand30_ATS2010_1/GlobeLand30_ATS2010_1/N50_20_2010LC030/N50_20_2010LC030_ATS.TIF","N50_20_2010LC030_ATS.TIF","N50_20",20,"N",50,20,25,114,120
"209","G:\BerkeleyEarthFunctions\Data\GlobeLand30_ATS2010_1/GlobeLand30_ATS2010_1/N50_25_2010LC030/N50_25_2010LC030_ATS.TIF","N50_25_2010LC030_ATS.TIF","N50_25",25,"N",50,25,30,114,120
"210","G:\BerkeleyEarthFunctions\Data\GlobeLand30_ATS2010_1/GlobeLand30_ATS2010_1/N50_30_2010LC030/N50_30_2010LC030_ATS.TIF","N50_30_2010LC030_ATS.TIF","N50_30",30,"N",50,30,35,114,120
"211","G:\BerkeleyEarthFunctions\Data\GlobeLand30_ATS2010_1/GlobeLand30_ATS2010_1/N50_35_2010LC030/N50_35_2010LC030_ATS.TIF","N50_35_2010LC030_ATS.TIF","N50_35",35,"N",50,35,40,114,120
"212","G:\BerkeleyEarthFunctions\Data\GlobeLand30_ATS2010_1/GlobeLand30_ATS2010_1/N50_40_2010LC030/N50_40_2010LC030_ATS.TIF","N50_40_2010LC030_ATS.TIF","N50_40",40,"N",50,40,45,114,120
"213","G:\BerkeleyEarthFunctions\Data\GlobeLand30_ATS2010_1/GlobeLand30_ATS2010_1/N50_45_2010LC030/N50_45_2010LC030_ATS.TIF","N50_45_2010LC030_ATS.TIF","N50_45",45,"N",50,45,50,114,120
"214","G:\BerkeleyEarthFunctions\Data\GlobeLand30_ATS2010_1/GlobeLand30_ATS2010_1/N50_50_2010LC030/N50_50_2010LC030_ATS.TIF","N50_50_2010LC030_ATS.TIF","N50_50",50,"N",50,50,55,114,120
"215","G:\BerkeleyEarthFunctions\Data\GlobeLand30_ATS2010_1/GlobeLand30_ATS2010_1/N50_55_2010LC030/N50_55_2010LC030_ATS.TIF","N50_55_2010LC030_ATS.TIF","N50_55",55,"N",50,55,60,114,120
"216","G:\BerkeleyEarthFunctions\Data\GlobeLand30_ATS2010_1/GlobeLand30_ATS2010_1/N51_00_2010LC030/N51_00_2010LC030_ATS.TIF","N51_00_2010LC030_ATS.TIF","N51_00",0,"N",51,0,5,120,126
"217","G:\BerkeleyEarthFunctions\Data\GlobeLand30_ATS2010_1/GlobeLand30_ATS2010_1/N51_05_2010LC030/N51_05_2010LC030_ATS.TIF","N51_05_2010LC030_ATS.TIF","N51_05",5,"N",51,5,10,120,126
"218","G:\BerkeleyEarthFunctions\Data\GlobeLand30_ATS2010_1/GlobeLand30_ATS2010_1/N51_10_2010LC030/N51_10_2010LC030_ATS.TIF","N51_10_2010LC030_ATS.TIF","N51_10",10,"N",51,10,15,120,126
"219","G:\BerkeleyEarthFunctions\Data\GlobeLand30_ATS2010_1/GlobeLand30_ATS2010_1/N51_15_2010LC030/N51_15_2010LC030_ATS.TIF","N51_15_2010LC030_ATS.TIF","N51_15",15,"N",51,15,20,120,126
"220","G:\BerkeleyEarthFunctions\Data\GlobeLand30_ATS2010_1/GlobeLand30_ATS2010_1/N51_20_2010LC030/N51_20_2010LC030_ATS.TIF","N51_20_2010LC030_ATS.TIF","N51_20",20,"N",51,20,25,120,126
"221","G:\BerkeleyEarthFunctions\Data\GlobeLand30_ATS2010_1/GlobeLand30_ATS2010_1/N51_25_2010LC030/N51_25_2010LC030_ATS.TIF","N51_25_2010LC030_ATS.TIF","N51_25",25,"N",51,25,30,120,126
"222","G:\BerkeleyEarthFunctions\Data\GlobeLand30_ATS2010_1/GlobeLand30_ATS2010_1/N51_30_2010LC030/N51_30_2010LC030_ATS.TIF","N51_30_2010LC030_ATS.TIF","N51_30",30,"N",51,30,35,120,126
"223","G:\BerkeleyEarthFunctions\Data\GlobeLand30_ATS2010_1/GlobeLand30_ATS2010_1/N51_35_2010LC030/N51_35_2010LC030_ATS.TIF","N51_35_2010LC030_ATS.TIF","N51_35",35,"N",51,35,40,120,126
"224","G:\BerkeleyEarthFunctions\Data\GlobeLand30_ATS2010_1/GlobeLand30_ATS2010_1/N51_40_2010LC030/N51_40_2010LC030_ATS.TIF","N51_40_2010LC030_ATS.TIF","N51_40",40,"N",51,40,45,120,126
"225","G:\BerkeleyEarthFunctions\Data\GlobeLand30_ATS2010_1/GlobeLand30_ATS2010_1/N51_45_2010LC030/N51_45_2010LC030_ATS.TIF","N51_45_2010LC030_ATS.TIF","N51_45",45,"N",51,45,50,120,126
"226","G:\BerkeleyEarthFunctions\Data\GlobeLand30_ATS2010_1/GlobeLand30_ATS2010_1/N51_50_2010LC030/N51_50_2010LC030_ATS.TIF","N51_50_2010LC030_ATS.TIF","N51_50",50,"N",51,50,55,120,126
"227","G:\BerkeleyEarthFunctions\Data\GlobeLand30_ATS2010_1/GlobeLand30_ATS2010_1/N51_55_2010LC030/N51_55_2010LC030_ATS.TIF","N51_55_2010LC030_ATS.TIF","N51_55",55,"N",51,55,60,120,126
"228","G:\BerkeleyEarthFunctions\Data\GlobeLand30_ATS2010_1/GlobeLand30_ATS2010_1/N51_60_2010LC030/N51_60_2010LC030_ATS.TIF","N51_60_2010LC030_ATS.TIF","N51_60",60,"N",51,60,65,120,132
"229","G:\BerkeleyEarthFunctions\Data\GlobeLand30_ATS2010_1/GlobeLand30_ATS2010_1/N51_65_2010LC030/N51_65_2010LC030_ATS.TIF","N51_65_2010LC030_ATS.TIF","N51_65",65,"N",51,65,70,120,132
"230","G:\BerkeleyEarthFunctions\Data\GlobeLand30_ATS2010_1/GlobeLand30_ATS2010_1/N51_70_2010LC030/N51_70_2010LC030_ATS.TIF","N51_70_2010LC030_ATS.TIF","N51_70",70,"N",51,70,75,120,132
"231","G:\BerkeleyEarthFunctions\Data\GlobeLand30_ATS2010_1/GlobeLand30_ATS2010_1/N52_00_2010LC030/N52_00_2010LC030_ATS.TIF","N52_00_2010LC030_ATS.TIF","N52_00",0,"N",52,0,5,126,132
"232","G:\BerkeleyEarthFunctions\Data\GlobeLand30_ATS2010_1/GlobeLand30_ATS2010_1/N52_05_2010LC030/N52_05_2010LC030_ATS.TIF","N52_05_2010LC030_ATS.TIF","N52_05",5,"N",52,5,10,126,132
"233","G:\BerkeleyEarthFunctions\Data\GlobeLand30_ATS2010_1/GlobeLand30_ATS2010_1/N52_25_2010LC030/N52_25_2010LC030_ATS.TIF","N52_25_2010LC030_ATS.TIF","N52_25",25,"N",52,25,30,126,132
"234","G:\BerkeleyEarthFunctions\Data\GlobeLand30_ATS2010_1/GlobeLand30_ATS2010_1/N52_30_2010LC030/N52_30_2010LC030_ATS.TIF","N52_30_2010LC030_ATS.TIF","N52_30",30,"N",52,30,35,126,132
"235","G:\BerkeleyEarthFunctions\Data\GlobeLand30_ATS2010_1/GlobeLand30_ATS2010_1/N52_35_2010LC030/N52_35_2010LC030_ATS.TIF","N52_35_2010LC030_ATS.TIF","N52_35",35,"N",52,35,40,126,132
"236","G:\BerkeleyEarthFunctions\Data\GlobeLand30_ATS2010_1/GlobeLand30_ATS2010_1/N52_40_2010LC030/N52_40_2010LC030_ATS.TIF","N52_40_2010LC030_ATS.TIF","N52_40",40,"N",52,40,45,126,132
"237","G:\BerkeleyEarthFunctions\Data\GlobeLand30_ATS2010_1/GlobeLand30_ATS2010_1/N52_45_2010LC030/N52_45_2010LC030_ATS.TIF","N52_45_2010LC030_ATS.TIF","N52_45",45,"N",52,45,50,126,132
"238","G:\BerkeleyEarthFunctions\Data\GlobeLand30_ATS2010_1/GlobeLand30_ATS2010_1/N52_50_2010LC030/N52_50_2010LC030_ATS.TIF","N52_50_2010LC030_ATS.TIF","N52_50",50,"N",52,50,55,126,132
"239","G:\BerkeleyEarthFunctions\Data\GlobeLand30_ATS2010_1/GlobeLand30_ATS2010_1/N52_55_2010LC030/N52_55_2010LC030_ATS.TIF","N52_55_2010LC030_ATS.TIF","N52_55",55,"N",52,55,60,126,132
"240","G:\BerkeleyEarthFunctions\Data\GlobeLand30_ATS2010_1/GlobeLand30_ATS2010_1/N53_30_2010LC030/N53_30_2010LC030_ATS.TIF","N53_30_2010LC030_ATS.TIF","N53_30",30,"N",53,30,35,132,138
"241","G:\BerkeleyEarthFunctions\Data\GlobeLand30_ATS2010_1/GlobeLand30_ATS2010_1/N53_35_2010LC030/N53_35_2010LC030_ATS.TIF","N53_35_2010LC030_ATS.TIF","N53_35",35,"N",53,35,40,132,138
"242","G:\BerkeleyEarthFunctions\Data\GlobeLand30_ATS2010_1/GlobeLand30_ATS2010_1/N53_40_2010LC030/N53_40_2010LC030_ATS.TIF","N53_40_2010LC030_ATS.TIF","N53_40",40,"N",53,40,45,132,138
"243","G:\BerkeleyEarthFunctions\Data\GlobeLand30_ATS2010_1/GlobeLand30_ATS2010_1/N53_45_2010LC030/N53_45_2010LC030_ATS.TIF","N53_45_2010LC030_ATS.TIF","N53_45",45,"N",53,45,50,132,138
"244","G:\BerkeleyEarthFunctions\Data\GlobeLand30_ATS2010_1/GlobeLand30_ATS2010_1/N53_50_2010LC030/N53_50_2010LC030_ATS.TIF","N53_50_2010LC030_ATS.TIF","N53_50",50,"N",53,50,55,132,138
"245","G:\BerkeleyEarthFunctions\Data\GlobeLand30_ATS2010_1/GlobeLand30_ATS2010_1/N53_55_2010LC030/N53_55_2010LC030_ATS.TIF","N53_55_2010LC030_ATS.TIF","N53_55",55,"N",53,55,60,132,138
"246","G:\BerkeleyEarthFunctions\Data\GlobeLand30_ATS2010_1/GlobeLand30_ATS2010_1/N53_60_2010LC030/N53_60_2010LC030_ATS.TIF","N53_60_2010LC030_ATS.TIF","N53_60",60,"N",53,60,65,132,144
"247","G:\BerkeleyEarthFunctions\Data\GlobeLand30_ATS2010_1/GlobeLand30_ATS2010_1/N53_65_2010LC030/N53_65_2010LC030_ATS.TIF","N53_65_2010LC030_ATS.TIF","N53_65",65,"N",53,65,70,132,144
"248","G:\BerkeleyEarthFunctions\Data\GlobeLand30_ATS2010_1/GlobeLand30_ATS2010_1/N54_20_2010LC030/N54_20_2010LC030_ATS.TIF","N54_20_2010LC030_ATS.TIF","N54_20",20,"N",54,20,25,138,144
"249","G:\BerkeleyEarthFunctions\Data\GlobeLand30_ATS2010_1/GlobeLand30_ATS2010_1/N54_25_2010LC030/N54_25_2010LC030_ATS.TIF","N54_25_2010LC030_ATS.TIF","N54_25",25,"N",54,25,30,138,144
"250","G:\BerkeleyEarthFunctions\Data\GlobeLand30_ATS2010_1/GlobeLand30_ATS2010_1/N54_30_2010LC030/N54_30_2010LC030_ATS.TIF","N54_30_2010LC030_ATS.TIF","N54_30",30,"N",54,30,35,138,144
"251","G:\BerkeleyEarthFunctions\Data\GlobeLand30_ATS2010_1/GlobeLand30_ATS2010_1/N54_35_2010LC030/N54_35_2010LC030_ATS.TIF","N54_35_2010LC030_ATS.TIF","N54_35",35,"N",54,35,40,138,144
"252","G:\BerkeleyEarthFunctions\Data\GlobeLand30_ATS2010_1/GlobeLand30_ATS2010_1/N54_40_2010LC030/N54_40_2010LC030_ATS.TIF","N54_40_2010LC030_ATS.TIF","N54_40",40,"N",54,40,45,138,144
"253","G:\BerkeleyEarthFunctions\Data\GlobeLand30_ATS2010_1/GlobeLand30_ATS2010_1/N54_45_2010LC030/N54_45_2010LC030_ATS.TIF","N54_45_2010LC030_ATS.TIF","N54_45",45,"N",54,45,50,138,144
"254","G:\BerkeleyEarthFunctions\Data\GlobeLand30_ATS2010_1/GlobeLand30_ATS2010_1/N54_50_2010LC030/N54_50_2010LC030_ATS.TIF","N54_50_2010LC030_ATS.TIF","N54_50",50,"N",54,50,55,138,144
"255","G:\BerkeleyEarthFunctions\Data\GlobeLand30_ATS2010_1/GlobeLand30_ATS2010_1/N54_55_2010LC030/N54_55_2010LC030_ATS.TIF","N54_55_2010LC030_ATS.TIF","N54_55",55,"N",54,55,60,138,144
"256","G:\BerkeleyEarthFunctions\Data\GlobeLand30_ATS2010_1/GlobeLand30_ATS2010_1/N55_40_2010LC030/N55_40_2010LC030_ATS.TIF","N55_40_2010LC030_ATS.TIF","N55_40",40,"N",55,40,45,144,150
"257","G:\BerkeleyEarthFunctions\Data\GlobeLand30_ATS2010_1/GlobeLand30_ATS2010_1/N55_45_2010LC030/N55_45_2010LC030_ATS.TIF","N55_45_2010LC030_ATS.TIF","N55_45",45,"N",55,45,50,144,150
"258","G:\BerkeleyEarthFunctions\Data\GlobeLand30_ATS2010_1/GlobeLand30_ATS2010_1/N55_55_2010LC030/N55_55_2010LC030_ATS.TIF","N55_55_2010LC030_ATS.TIF","N55_55",55,"N",55,55,60,144,150
"259","G:\BerkeleyEarthFunctions\Data\GlobeLand30_ATS2010_1/GlobeLand30_ATS2010_1/N55_60_2010LC030/N55_60_2010LC030_ATS.TIF","N55_60_2010LC030_ATS.TIF","N55_60",60,"N",55,60,65,144,156
"260","G:\BerkeleyEarthFunctions\Data\GlobeLand30_ATS2010_1/GlobeLand30_ATS2010_1/N55_65_2010LC030/N55_65_2010LC030_ATS.TIF","N55_65_2010LC030_ATS.TIF","N55_65",65,"N",55,65,70,144,156
"261","G:\BerkeleyEarthFunctions\Data\GlobeLand30_ATS2010_1/GlobeLand30_ATS2010_1/N55_70_2010LC030/N55_70_2010LC030_ATS.TIF","N55_70_2010LC030_ATS.TIF","N55_70",70,"N",55,70,75,144,156
"262","G:\BerkeleyEarthFunctions\Data\GlobeLand30_ATS2010_1/GlobeLand30_ATS2010_1/N56_50_2010LC030/N56_50_2010LC030_ATS.TIF","N56_50_2010LC030_ATS.TIF","N56_50",50,"N",56,50,55,150,156
"263","G:\BerkeleyEarthFunctions\Data\GlobeLand30_ATS2010_1/GlobeLand30_ATS2010_1/N56_55_2010LC030/N56_55_2010LC030_ATS.TIF","N56_55_2010LC030_ATS.TIF","N56_55",55,"N",56,55,60,150,156
"264","G:\BerkeleyEarthFunctions\Data\GlobeLand30_ATS2010_1/GlobeLand30_ATS2010_1/N57_50_2010LC030/N57_50_2010LC030_ATS.TIF","N57_50_2010LC030_ATS.TIF","N57_50",50,"N",57,50,55,156,162
"265","G:\BerkeleyEarthFunctions\Data\GlobeLand30_ATS2010_1/GlobeLand30_ATS2010_1/N57_55_2010LC030/N57_55_2010LC030_ATS.TIF","N57_55_2010LC030_ATS.TIF","N57_55",55,"N",57,55,60,156,162
"266","G:\BerkeleyEarthFunctions\Data\GlobeLand30_ATS2010_1/GlobeLand30_ATS2010_1/N57_60_2010LC030/N57_60_2010LC030_ATS.TIF","N57_60_2010LC030_ATS.TIF","N57_60",60,"N",57,60,65,156,168
"267","G:\BerkeleyEarthFunctions\Data\GlobeLand30_ATS2010_1/GlobeLand30_ATS2010_1/N57_65_2010LC030/N57_65_2010LC030_ATS.TIF","N57_65_2010LC030_ATS.TIF","N57_65",65,"N",57,65,70,156,168
"268","G:\BerkeleyEarthFunctions\Data\GlobeLand30_ATS2010_1/GlobeLand30_ATS2010_1/N58_55_2010LC030/N58_55_2010LC030_ATS.TIF","N58_55_2010LC030_ATS.TIF","N58_55",55,"N",58,55,60,162,168
"269","G:\BerkeleyEarthFunctions\Data\GlobeLand30_ATS2010_1/GlobeLand30_ATS2010_1/N59_60_2010LC030/N59_60_2010LC030_ATS.TIF","N59_60_2010LC030_ATS.TIF","N59_60",60,"N",59,60,65,168,180
"270","G:\BerkeleyEarthFunctions\Data\GlobeLand30_ATS2010_1/GlobeLand30_ATS2010_1/N59_65_2010LC030/N59_65_2010LC030_ATS.TIF","N59_65_2010LC030_ATS.TIF","N59_65",65,"N",59,65,70,168,180
"271","G:\BerkeleyEarthFunctions\Data\GlobeLand30_ATS2010_1/GlobeLand30_ATS2010_1/S43_00_2010LC030/S43_00_2010LC030_ATS.TIF","S43_00_2010LC030_ATS.TIF","S43_00",0,"S",43,-5,0,72,78
"272","G:\BerkeleyEarthFunctions\Data\GlobeLand30_ATS2010_1/GlobeLand30_ATS2010_1/S43_05_2010LC030/S43_05_2010LC030_ATS.TIF","S43_05_2010LC030_ATS.TIF","S43_05",-5,"S",43,-10,-5,72,78
"273","G:\BerkeleyEarthFunctions\Data\GlobeLand30_ATS2010_1/GlobeLand30_ATS2010_1/S47_00_2010LC030/S47_00_2010LC030_ATS.TIF","S47_00_2010LC030_ATS.TIF","S47_00",0,"S",47,-5,0,96,102
"274","G:\BerkeleyEarthFunctions\Data\GlobeLand30_ATS2010_1/GlobeLand30_ATS2010_1/S48_00_2010LC030/S48_00_2010LC030_ATS.TIF","S48_00_2010LC030_ATS.TIF","S48_00",0,"S",48,-5,0,102,108
"275","G:\BerkeleyEarthFunctions\Data\GlobeLand30_ATS2010_1/GlobeLand30_ATS2010_1/S48_05_2010LC030/S48_05_2010LC030_ATS.TIF","S48_05_2010LC030_ATS.TIF","S48_05",-5,"S",48,-10,-5,102,108
"276","G:\BerkeleyEarthFunctions\Data\GlobeLand30_ATS2010_1/GlobeLand30_ATS2010_1/S48_10_2010LC030/S48_10_2010LC030_ATS.TIF","S48_10_2010LC030_ATS.TIF","S48_10",-10,"S",48,-15,-10,102,108
"277","G:\BerkeleyEarthFunctions\Data\GlobeLand30_ATS2010_1/GlobeLand30_ATS2010_1/S49_00_2010LC030/S49_00_2010LC030_ATS.TIF","S49_00_2010LC030_ATS.TIF","S49_00",0,"S",49,-5,0,108,114
"278","G:\BerkeleyEarthFunctions\Data\GlobeLand30_ATS2010_1/GlobeLand30_ATS2010_1/S49_05_2010LC030/S49_05_2010LC030_ATS.TIF","S49_05_2010LC030_ATS.TIF","S49_05",-5,"S",49,-10,-5,108,114
"279","G:\BerkeleyEarthFunctions\Data\GlobeLand30_ATS2010_1/GlobeLand30_ATS2010_1/S50_00_2010LC030/S50_00_2010LC030_ATS.TIF","S50_00_2010LC030_ATS.TIF","S50_00",0,"S",50,-5,0,114,120
"280","G:\BerkeleyEarthFunctions\Data\GlobeLand30_ATS2010_1/GlobeLand30_ATS2010_1/S50_05_2010LC030/S50_05_2010LC030_ATS.TIF","S50_05_2010LC030_ATS.TIF","S50_05",-5,"S",50,-10,-5,114,120
"281","G:\BerkeleyEarthFunctions\Data\GlobeLand30_ATS2010_1/GlobeLand30_ATS2010_1/S51_00_2010LC030/S51_00_2010LC030_ATS.TIF","S51_00_2010LC030_ATS.TIF","S51_00",0,"S",51,-5,0,120,126
"282","G:\BerkeleyEarthFunctions\Data\GlobeLand30_ATS2010_1/GlobeLand30_ATS2010_1/S51_05_2010LC030/S51_05_2010LC030_ATS.TIF","S51_05_2010LC030_ATS.TIF","S51_05",-5,"S",51,-10,-5,120,126
"283","G:\BerkeleyEarthFunctions\Data\GlobeLand30_ATS2010_1/GlobeLand30_ATS2010_1/S52_00_2010LC030/S52_00_2010LC030_ATS.TIF","S52_00_2010LC030_ATS.TIF","S52_00",0,"S",52,-5,0,126,132
"284","G:\BerkeleyEarthFunctions\Data\GlobeLand30_ATS2010_1/GlobeLand30_ATS2010_1/S52_05_2010LC030/S52_05_2010LC030_ATS.TIF","S52_05_2010LC030_ATS.TIF","S52_05",-5,"S",52,-10,-5,126,132
"285","G:\BerkeleyEarthFunctions\Data\GlobeLand30_ATS2010_1/GlobeLand30_ATS2010_1/S53_00_2010LC030/S53_00_2010LC030_ATS.TIF","S53_00_2010LC030_ATS.TIF","S53_00",0,"S",53,-5,0,132,138
"286","G:\BerkeleyEarthFunctions\Data\GlobeLand30_ATS2010_1/GlobeLand30_ATS2010_1/S53_05_2010LC030/S53_05_2010LC030_ATS.TIF","S53_05_2010LC030_ATS.TIF","S53_05",-5,"S",53,-10,-5,132,138
"287","G:\BerkeleyEarthFunctions\Data\GlobeLand30_ATS2010_2/GlobeLand30_ATS2010_2/N01_25_2010LC030/N01_25_2010LC030_ATS.TIF","N01_25_2010LC030_ATS.TIF","N01_25",25,"N",1,25,30,-180,-174
"288","G:\BerkeleyEarthFunctions\Data\GlobeLand30_ATS2010_2/GlobeLand30_ATS2010_2/N01_50_2010LC030/N01_50_2010LC030_ATS.TIF","N01_50_2010LC030_ATS.TIF","N01_50",50,"N",1,50,55,-180,-174
"289","G:\BerkeleyEarthFunctions\Data\GlobeLand30_ATS2010_2/GlobeLand30_ATS2010_2/N01_60_2010LC030/N01_60_2010LC030_ATS.TIF","N01_60_2010LC030_ATS.TIF","N01_60",60,"N",1,60,65,-180,-168
"290","G:\BerkeleyEarthFunctions\Data\GlobeLand30_ATS2010_2/GlobeLand30_ATS2010_2/N02_50_2010LC030/N02_50_2010LC030_ATS.TIF","N02_50_2010LC030_ATS.TIF","N02_50",50,"N",2,50,55,-174,-168
"291","G:\BerkeleyEarthFunctions\Data\GlobeLand30_ATS2010_2/GlobeLand30_ATS2010_2/N02_55_2010LC030/N02_55_2010LC030_ATS.TIF","N02_55_2010LC030_ATS.TIF","N02_55",55,"N",2,55,60,-174,-168
"292","G:\BerkeleyEarthFunctions\Data\GlobeLand30_ATS2010_2/GlobeLand30_ATS2010_2/N03_20_2010LC030/N03_20_2010LC030_ATS.TIF","N03_20_2010LC030_ATS.TIF","N03_20",20,"N",3,20,25,-168,-162
"293","G:\BerkeleyEarthFunctions\Data\GlobeLand30_ATS2010_2/GlobeLand30_ATS2010_2/N03_50_2010LC030/N03_50_2010LC030_ATS.TIF","N03_50_2010LC030_ATS.TIF","N03_50",50,"N",3,50,55,-168,-162
"294","G:\BerkeleyEarthFunctions\Data\GlobeLand30_ATS2010_2/GlobeLand30_ATS2010_2/N03_55_2010LC030/N03_55_2010LC030_ATS.TIF","N03_55_2010LC030_ATS.TIF","N03_55",55,"N",3,55,60,-168,-162
"295","G:\BerkeleyEarthFunctions\Data\GlobeLand30_ATS2010_2/GlobeLand30_ATS2010_2/N03_60_2010LC030/N03_60_2010LC030_ATS.TIF","N03_60_2010LC030_ATS.TIF","N03_60",60,"N",3,60,65,-168,-156
"296","G:\BerkeleyEarthFunctions\Data\GlobeLand30_ATS2010_2/GlobeLand30_ATS2010_2/N03_65_2010LC030/N03_65_2010LC030_ATS.TIF","N03_65_2010LC030_ATS.TIF","N03_65",65,"N",3,65,70,-168,-156
"297","G:\BerkeleyEarthFunctions\Data\GlobeLand30_ATS2010_2/GlobeLand30_ATS2010_2/N03_70_2010LC030/N03_70_2010LC030_ATS.TIF","N03_70_2010LC030_ATS.TIF","N03_70",70,"N",3,70,75,-168,-156
"298","G:\BerkeleyEarthFunctions\Data\GlobeLand30_ATS2010_2/GlobeLand30_ATS2010_2/N04_15_2010LC030/N04_15_2010LC030_ATS.TIF","N04_15_2010LC030_ATS.TIF","N04_15",15,"N",4,15,20,-162,-156
"299","G:\BerkeleyEarthFunctions\Data\GlobeLand30_ATS2010_2/GlobeLand30_ATS2010_2/N04_20_2010LC030/N04_20_2010LC030_ATS.TIF","N04_20_2010LC030_ATS.TIF","N04_20",20,"N",4,20,25,-162,-156
"300","G:\BerkeleyEarthFunctions\Data\GlobeLand30_ATS2010_2/GlobeLand30_ATS2010_2/N04_55_2010LC030/N04_55_2010LC030_ATS.TIF","N04_55_2010LC030_ATS.TIF","N04_55",55,"N",4,55,60,-162,-156
"301","G:\BerkeleyEarthFunctions\Data\GlobeLand30_ATS2010_2/GlobeLand30_ATS2010_2/N05_15_2010LC030/N05_15_2010LC030_ATS.TIF","N05_15_2010LC030_ATS.TIF","N05_15",15,"N",5,15,20,-156,-150
"302","G:\BerkeleyEarthFunctions\Data\GlobeLand30_ATS2010_2/GlobeLand30_ATS2010_2/N05_20_2010LC030/N05_20_2010LC030_ATS.TIF","N05_20_2010LC030_ATS.TIF","N05_20",20,"N",5,20,25,-156,-150
"303","G:\BerkeleyEarthFunctions\Data\GlobeLand30_ATS2010_2/GlobeLand30_ATS2010_2/N05_55_2010LC030/N05_55_2010LC030_ATS.TIF","N05_55_2010LC030_ATS.TIF","N05_55",55,"N",5,55,60,-156,-150
"304","G:\BerkeleyEarthFunctions\Data\GlobeLand30_ATS2010_2/GlobeLand30_ATS2010_2/N05_60_2010LC030/N05_60_2010LC030_ATS.TIF","N05_60_2010LC030_ATS.TIF","N05_60",60,"N",5,60,65,-156,-144
"305","G:\BerkeleyEarthFunctions\Data\GlobeLand30_ATS2010_2/GlobeLand30_ATS2010_2/N05_65_2010LC030/N05_65_2010LC030_ATS.TIF","N05_65_2010LC030_ATS.TIF","N05_65",65,"N",5,65,70,-156,-144
"306","G:\BerkeleyEarthFunctions\Data\GlobeLand30_ATS2010_2/GlobeLand30_ATS2010_2/N05_70_2010LC030/N05_70_2010LC030_ATS.TIF","N05_70_2010LC030_ATS.TIF","N05_70",70,"N",5,70,75,-156,-144
"307","G:\BerkeleyEarthFunctions\Data\GlobeLand30_ATS2010_2/GlobeLand30_ATS2010_2/N07_55_2010LC030/N07_55_2010LC030_ATS.TIF","N07_55_2010LC030_ATS.TIF","N07_55",55,"N",7,55,60,-144,-138
"308","G:\BerkeleyEarthFunctions\Data\GlobeLand30_ATS2010_2/GlobeLand30_ATS2010_2/N07_60_2010LC030/N07_60_2010LC030_ATS.TIF","N07_60_2010LC030_ATS.TIF","N07_60",60,"N",7,60,65,-144,-132
"309","G:\BerkeleyEarthFunctions\Data\GlobeLand30_ATS2010_2/GlobeLand30_ATS2010_2/N07_65_2010LC030/N07_65_2010LC030_ATS.TIF","N07_65_2010LC030_ATS.TIF","N07_65",65,"N",7,65,70,-144,-132
"310","G:\BerkeleyEarthFunctions\Data\GlobeLand30_ATS2010_2/GlobeLand30_ATS2010_2/N07_70_2010LC030/N07_70_2010LC030_ATS.TIF","N07_70_2010LC030_ATS.TIF","N07_70",70,"N",7,70,75,-144,-132
"311","G:\BerkeleyEarthFunctions\Data\GlobeLand30_ATS2010_2/GlobeLand30_ATS2010_2/N08_50_2010LC030/N08_50_2010LC030_ATS.TIF","N08_50_2010LC030_ATS.TIF","N08_50",50,"N",8,50,55,-138,-132
"312","G:\BerkeleyEarthFunctions\Data\GlobeLand30_ATS2010_2/GlobeLand30_ATS2010_2/N08_55_2010LC030/N08_55_2010LC030_ATS.TIF","N08_55_2010LC030_ATS.TIF","N08_55",55,"N",8,55,60,-138,-132
"313","G:\BerkeleyEarthFunctions\Data\GlobeLand30_ATS2010_2/GlobeLand30_ATS2010_2/N09_45_2010LC030/N09_45_2010LC030_ATS.TIF","N09_45_2010LC030_ATS.TIF","N09_45",45,"N",9,45,50,-132,-126
"314","G:\BerkeleyEarthFunctions\Data\GlobeLand30_ATS2010_2/GlobeLand30_ATS2010_2/N09_50_2010LC030/N09_50_2010LC030_ATS.TIF","N09_50_2010LC030_ATS.TIF","N09_50",50,"N",9,50,55,-132,-126
"315","G:\BerkeleyEarthFunctions\Data\GlobeLand30_ATS2010_2/GlobeLand30_ATS2010_2/N09_55_2010LC030/N09_55_2010LC030_ATS.TIF","N09_55_2010LC030_ATS.TIF","N09_55",55,"N",9,55,60,-132,-126
"316","G:\BerkeleyEarthFunctions\Data\GlobeLand30_ATS2010_2/GlobeLand30_ATS2010_2/N09_60_2010LC030/N09_60_2010LC030_ATS.TIF","N09_60_2010LC030_ATS.TIF","N09_60",60,"N",9,60,65,-132,-120
"317","G:\BerkeleyEarthFunctions\Data\GlobeLand30_ATS2010_2/GlobeLand30_ATS2010_2/N09_65_2010LC030/N09_65_2010LC030_ATS.TIF","N09_65_2010LC030_ATS.TIF","N09_65",65,"N",9,65,70,-132,-120
"318","G:\BerkeleyEarthFunctions\Data\GlobeLand30_ATS2010_2/GlobeLand30_ATS2010_2/N09_70_2010LC030/N09_70_2010LC030_ATS.TIF","N09_70_2010LC030_ATS.TIF","N09_70",70,"N",9,70,75,-132,-120
"319","G:\BerkeleyEarthFunctions\Data\GlobeLand30_ATS2010_2/GlobeLand30_ATS2010_2/N10_30_2010LC030/N10_30_2010LC030_ATS.TIF","N10_30_2010LC030_ATS.TIF","N10_30",30,"N",10,30,35,-126,-120
"320","G:\BerkeleyEarthFunctions\Data\GlobeLand30_ATS2010_2/GlobeLand30_ATS2010_2/N10_35_2010LC030/N10_35_2010LC030_ATS.TIF","N10_35_2010LC030_ATS.TIF","N10_35",35,"N",10,35,40,-126,-120
"321","G:\BerkeleyEarthFunctions\Data\GlobeLand30_ATS2010_2/GlobeLand30_ATS2010_2/N10_40_2010LC030/N10_40_2010LC030_ATS.TIF","N10_40_2010LC030_ATS.TIF","N10_40",40,"N",10,40,45,-126,-120
"322","G:\BerkeleyEarthFunctions\Data\GlobeLand30_ATS2010_2/GlobeLand30_ATS2010_2/N10_45_2010LC030/N10_45_2010LC030_ATS.TIF","N10_45_2010LC030_ATS.TIF","N10_45",45,"N",10,45,50,-126,-120
"323","G:\BerkeleyEarthFunctions\Data\GlobeLand30_ATS2010_2/GlobeLand30_ATS2010_2/N10_50_2010LC030/N10_50_2010LC030_ATS.TIF","N10_50_2010LC030_ATS.TIF","N10_50",50,"N",10,50,55,-126,-120
"324","G:\BerkeleyEarthFunctions\Data\GlobeLand30_ATS2010_2/GlobeLand30_ATS2010_2/N10_55_2010LC030/N10_55_2010LC030_ATS.TIF","N10_55_2010LC030_ATS.TIF","N10_55",55,"N",10,55,60,-126,-120
"325","G:\BerkeleyEarthFunctions\Data\GlobeLand30_ATS2010_2/GlobeLand30_ATS2010_2/N11_25_2010LC030/N11_25_2010LC030_ATS.TIF","N11_25_2010LC030_ATS.TIF","N11_25",25,"N",11,25,30,-120,-114
"326","G:\BerkeleyEarthFunctions\Data\GlobeLand30_ATS2010_2/GlobeLand30_ATS2010_2/N11_30_2010LC030/N11_30_2010LC030_ATS.TIF","N11_30_2010LC030_ATS.TIF","N11_30",30,"N",11,30,35,-120,-114
"327","G:\BerkeleyEarthFunctions\Data\GlobeLand30_ATS2010_2/GlobeLand30_ATS2010_2/N11_35_2010LC030/N11_35_2010LC030_ATS.TIF","N11_35_2010LC030_ATS.TIF","N11_35",35,"N",11,35,40,-120,-114
"328","G:\BerkeleyEarthFunctions\Data\GlobeLand30_ATS2010_2/GlobeLand30_ATS2010_2/N11_40_2010LC030/N11_40_2010LC030_ATS.TIF","N11_40_2010LC030_ATS.TIF","N11_40",40,"N",11,40,45,-120,-114
"329","G:\BerkeleyEarthFunctions\Data\GlobeLand30_ATS2010_2/GlobeLand30_ATS2010_2/N11_45_2010LC030/N11_45_2010LC030_ATS.TIF","N11_45_2010LC030_ATS.TIF","N11_45",45,"N",11,45,50,-120,-114
"330","G:\BerkeleyEarthFunctions\Data\GlobeLand30_ATS2010_2/GlobeLand30_ATS2010_2/N11_50_2010LC030/N11_50_2010LC030_ATS.TIF","N11_50_2010LC030_ATS.TIF","N11_50",50,"N",11,50,55,-120,-114
"331","G:\BerkeleyEarthFunctions\Data\GlobeLand30_ATS2010_2/GlobeLand30_ATS2010_2/N11_55_2010LC030/N11_55_2010LC030_ATS.TIF","N11_55_2010LC030_ATS.TIF","N11_55",55,"N",11,55,60,-120,-114
"332","G:\BerkeleyEarthFunctions\Data\GlobeLand30_ATS2010_2/GlobeLand30_ATS2010_2/N11_60_2010LC030/N11_60_2010LC030_ATS.TIF","N11_60_2010LC030_ATS.TIF","N11_60",60,"N",11,60,65,-120,-108
"333","G:\BerkeleyEarthFunctions\Data\GlobeLand30_ATS2010_2/GlobeLand30_ATS2010_2/N11_65_2010LC030/N11_65_2010LC030_ATS.TIF","N11_65_2010LC030_ATS.TIF","N11_65",65,"N",11,65,70,-120,-108
"334","G:\BerkeleyEarthFunctions\Data\GlobeLand30_ATS2010_2/GlobeLand30_ATS2010_2/N11_70_2010LC030/N11_70_2010LC030_ATS.TIF","N11_70_2010LC030_ATS.TIF","N11_70",70,"N",11,70,75,-120,-108
"335","G:\BerkeleyEarthFunctions\Data\GlobeLand30_ATS2010_2/GlobeLand30_ATS2010_2/N11_75_2010LC030/N11_75_2010LC030_ATS.TIF","N11_75_2010LC030_ATS.TIF","N11_75",75,"N",11,75,80,-120,-108
"336","G:\BerkeleyEarthFunctions\Data\GlobeLand30_ATS2010_2/GlobeLand30_ATS2010_2/N12_20_2010LC030/N12_20_2010LC030_ATS.TIF","N12_20_2010LC030_ATS.TIF","N12_20",20,"N",12,20,25,-114,-108
"337","G:\BerkeleyEarthFunctions\Data\GlobeLand30_ATS2010_2/GlobeLand30_ATS2010_2/N12_25_2010LC030/N12_25_2010LC030_ATS.TIF","N12_25_2010LC030_ATS.TIF","N12_25",25,"N",12,25,30,-114,-108
"338","G:\BerkeleyEarthFunctions\Data\GlobeLand30_ATS2010_2/GlobeLand30_ATS2010_2/N12_30_2010LC030/N12_30_2010LC030_ATS.TIF","N12_30_2010LC030_ATS.TIF","N12_30",30,"N",12,30,35,-114,-108
"339","G:\BerkeleyEarthFunctions\Data\GlobeLand30_ATS2010_2/GlobeLand30_ATS2010_2/N12_35_2010LC030/N12_35_2010LC030_ATS.TIF","N12_35_2010LC030_ATS.TIF","N12_35",35,"N",12,35,40,-114,-108
"340","G:\BerkeleyEarthFunctions\Data\GlobeLand30_ATS2010_2/GlobeLand30_ATS2010_2/N12_40_2010LC030/N12_40_2010LC030_ATS.TIF","N12_40_2010LC030_ATS.TIF","N12_40",40,"N",12,40,45,-114,-108
"341","G:\BerkeleyEarthFunctions\Data\GlobeLand30_ATS2010_2/GlobeLand30_ATS2010_2/N12_45_2010LC030/N12_45_2010LC030_ATS.TIF","N12_45_2010LC030_ATS.TIF","N12_45",45,"N",12,45,50,-114,-108
"342","G:\BerkeleyEarthFunctions\Data\GlobeLand30_ATS2010_2/GlobeLand30_ATS2010_2/N12_50_2010LC030/N12_50_2010LC030_ATS.TIF","N12_50_2010LC030_ATS.TIF","N12_50",50,"N",12,50,55,-114,-108
"343","G:\BerkeleyEarthFunctions\Data\GlobeLand30_ATS2010_2/GlobeLand30_ATS2010_2/N12_55_2010LC030/N12_55_2010LC030_ATS.TIF","N12_55_2010LC030_ATS.TIF","N12_55",55,"N",12,55,60,-114,-108
"344","G:\BerkeleyEarthFunctions\Data\GlobeLand30_ATS2010_2/GlobeLand30_ATS2010_2/N13_15_2010LC030/N13_15_2010LC030_ATS.TIF","N13_15_2010LC030_ATS.TIF","N13_15",15,"N",13,15,20,-108,-102
"345","G:\BerkeleyEarthFunctions\Data\GlobeLand30_ATS2010_2/GlobeLand30_ATS2010_2/N13_20_2010LC030/N13_20_2010LC030_ATS.TIF","N13_20_2010LC030_ATS.TIF","N13_20",20,"N",13,20,25,-108,-102
"346","G:\BerkeleyEarthFunctions\Data\GlobeLand30_ATS2010_2/GlobeLand30_ATS2010_2/N13_25_2010LC030/N13_25_2010LC030_ATS.TIF","N13_25_2010LC030_ATS.TIF","N13_25",25,"N",13,25,30,-108,-102
"347","G:\BerkeleyEarthFunctions\Data\GlobeLand30_ATS2010_2/GlobeLand30_ATS2010_2/N13_30_2010LC030/N13_30_2010LC030_ATS.TIF","N13_30_2010LC030_ATS.TIF","N13_30",30,"N",13,30,35,-108,-102
"348","G:\BerkeleyEarthFunctions\Data\GlobeLand30_ATS2010_2/GlobeLand30_ATS2010_2/N13_35_2010LC030/N13_35_2010LC030_ATS.TIF","N13_35_2010LC030_ATS.TIF","N13_35",35,"N",13,35,40,-108,-102
"349","G:\BerkeleyEarthFunctions\Data\GlobeLand30_ATS2010_2/GlobeLand30_ATS2010_2/N13_40_2010LC030/N13_40_2010LC030_ATS.TIF","N13_40_2010LC030_ATS.TIF","N13_40",40,"N",13,40,45,-108,-102
"350","G:\BerkeleyEarthFunctions\Data\GlobeLand30_ATS2010_2/GlobeLand30_ATS2010_2/N13_45_2010LC030/N13_45_2010LC030_ATS.TIF","N13_45_2010LC030_ATS.TIF","N13_45",45,"N",13,45,50,-108,-102
"351","G:\BerkeleyEarthFunctions\Data\GlobeLand30_ATS2010_2/GlobeLand30_ATS2010_2/N13_50_2010LC030/N13_50_2010LC030_ATS.TIF","N13_50_2010LC030_ATS.TIF","N13_50",50,"N",13,50,55,-108,-102
"352","G:\BerkeleyEarthFunctions\Data\GlobeLand30_ATS2010_2/GlobeLand30_ATS2010_2/N13_55_2010LC030/N13_55_2010LC030_ATS.TIF","N13_55_2010LC030_ATS.TIF","N13_55",55,"N",13,55,60,-108,-102
"353","G:\BerkeleyEarthFunctions\Data\GlobeLand30_ATS2010_2/GlobeLand30_ATS2010_2/N13_60_2010LC030/N13_60_2010LC030_ATS.TIF","N13_60_2010LC030_ATS.TIF","N13_60",60,"N",13,60,65,-108,-96
"354","G:\BerkeleyEarthFunctions\Data\GlobeLand30_ATS2010_2/GlobeLand30_ATS2010_2/N13_65_2010LC030/N13_65_2010LC030_ATS.TIF","N13_65_2010LC030_ATS.TIF","N13_65",65,"N",13,65,70,-108,-96
"355","G:\BerkeleyEarthFunctions\Data\GlobeLand30_ATS2010_2/GlobeLand30_ATS2010_2/N14_15_2010LC030/N14_15_2010LC030_ATS.TIF","N14_15_2010LC030_ATS.TIF","N14_15",15,"N",14,15,20,-102,-96
"356","G:\BerkeleyEarthFunctions\Data\GlobeLand30_ATS2010_2/GlobeLand30_ATS2010_2/N14_20_2010LC030/N14_20_2010LC030_ATS.TIF","N14_20_2010LC030_ATS.TIF","N14_20",20,"N",14,20,25,-102,-96
"357","G:\BerkeleyEarthFunctions\Data\GlobeLand30_ATS2010_2/GlobeLand30_ATS2010_2/N14_25_2010LC030/N14_25_2010LC030_ATS.TIF","N14_25_2010LC030_ATS.TIF","N14_25",25,"N",14,25,30,-102,-96
"358","G:\BerkeleyEarthFunctions\Data\GlobeLand30_ATS2010_2/GlobeLand30_ATS2010_2/N14_30_2010LC030/N14_30_2010LC030_ATS.TIF","N14_30_2010LC030_ATS.TIF","N14_30",30,"N",14,30,35,-102,-96
"359","G:\BerkeleyEarthFunctions\Data\GlobeLand30_ATS2010_2/GlobeLand30_ATS2010_2/N14_35_2010LC030/N14_35_2010LC030_ATS.TIF","N14_35_2010LC030_ATS.TIF","N14_35",35,"N",14,35,40,-102,-96
"360","G:\BerkeleyEarthFunctions\Data\GlobeLand30_ATS2010_2/GlobeLand30_ATS2010_2/N14_40_2010LC030/N14_40_2010LC030_ATS.TIF","N14_40_2010LC030_ATS.TIF","N14_40",40,"N",14,40,45,-102,-96
"361","G:\BerkeleyEarthFunctions\Data\GlobeLand30_ATS2010_2/GlobeLand30_ATS2010_2/N14_45_2010LC030/N14_45_2010LC030_ATS.TIF","N14_45_2010LC030_ATS.TIF","N14_45",45,"N",14,45,50,-102,-96
"362","G:\BerkeleyEarthFunctions\Data\GlobeLand30_ATS2010_2/GlobeLand30_ATS2010_2/N14_50_2010LC030/N14_50_2010LC030_ATS.TIF","N14_50_2010LC030_ATS.TIF","N14_50",50,"N",14,50,55,-102,-96
"363","G:\BerkeleyEarthFunctions\Data\GlobeLand30_ATS2010_2/GlobeLand30_ATS2010_2/N14_55_2010LC030/N14_55_2010LC030_ATS.TIF","N14_55_2010LC030_ATS.TIF","N14_55",55,"N",14,55,60,-102,-96
"364","G:\BerkeleyEarthFunctions\Data\GlobeLand30_ATS2010_2/GlobeLand30_ATS2010_2/N15_10_2010LC030/N15_10_2010LC030_ATS.TIF","N15_10_2010LC030_ATS.TIF","N15_10",10,"N",15,10,15,-96,-90
"365","G:\BerkeleyEarthFunctions\Data\GlobeLand30_ATS2010_2/GlobeLand30_ATS2010_2/N15_15_2010LC030/N15_15_2010LC030_ATS.TIF","N15_15_2010LC030_ATS.TIF","N15_15",15,"N",15,15,20,-96,-90
"366","G:\BerkeleyEarthFunctions\Data\GlobeLand30_ATS2010_2/GlobeLand30_ATS2010_2/N15_20_2010LC030/N15_20_2010LC030_ATS.TIF","N15_20_2010LC030_ATS.TIF","N15_20",20,"N",15,20,25,-96,-90
"367","G:\BerkeleyEarthFunctions\Data\GlobeLand30_ATS2010_2/GlobeLand30_ATS2010_2/N15_25_2010LC030/N15_25_2010LC030_ATS.TIF","N15_25_2010LC030_ATS.TIF","N15_25",25,"N",15,25,30,-96,-90
"368","G:\BerkeleyEarthFunctions\Data\GlobeLand30_ATS2010_2/GlobeLand30_ATS2010_2/N15_30_2010LC030/N15_30_2010LC030_ATS.TIF","N15_30_2010LC030_ATS.TIF","N15_30",30,"N",15,30,35,-96,-90
"369","G:\BerkeleyEarthFunctions\Data\GlobeLand30_ATS2010_2/GlobeLand30_ATS2010_2/N15_35_2010LC030/N15_35_2010LC030_ATS.TIF","N15_35_2010LC030_ATS.TIF","N15_35",35,"N",15,35,40,-96,-90
"370","G:\BerkeleyEarthFunctions\Data\GlobeLand30_ATS2010_2/GlobeLand30_ATS2010_2/N15_40_2010LC030/N15_40_2010LC030_ATS.TIF","N15_40_2010LC030_ATS.TIF","N15_40",40,"N",15,40,45,-96,-90
"371","G:\BerkeleyEarthFunctions\Data\GlobeLand30_ATS2010_2/GlobeLand30_ATS2010_2/N15_45_2010LC030/N15_45_2010LC030_ATS.TIF","N15_45_2010LC030_ATS.TIF","N15_45",45,"N",15,45,50,-96,-90
"372","G:\BerkeleyEarthFunctions\Data\GlobeLand30_ATS2010_2/GlobeLand30_ATS2010_2/N15_50_2010LC030/N15_50_2010LC030_ATS.TIF","N15_50_2010LC030_ATS.TIF","N15_50",50,"N",15,50,55,-96,-90
"373","G:\BerkeleyEarthFunctions\Data\GlobeLand30_ATS2010_2/GlobeLand30_ATS2010_2/N15_55_2010LC030/N15_55_2010LC030_ATS.TIF","N15_55_2010LC030_ATS.TIF","N15_55",55,"N",15,55,60,-96,-90
"374","G:\BerkeleyEarthFunctions\Data\GlobeLand30_ATS2010_2/GlobeLand30_ATS2010_2/N15_60_2010LC030/N15_60_2010LC030_ATS.TIF","N15_60_2010LC030_ATS.TIF","N15_60",60,"N",15,60,65,-96,-84
"375","G:\BerkeleyEarthFunctions\Data\GlobeLand30_ATS2010_2/GlobeLand30_ATS2010_2/N15_65_2010LC030/N15_65_2010LC030_ATS.TIF","N15_65_2010LC030_ATS.TIF","N15_65",65,"N",15,65,70,-96,-84
"376","G:\BerkeleyEarthFunctions\Data\GlobeLand30_ATS2010_2/GlobeLand30_ATS2010_2/N15_70_2010LC030/N15_70_2010LC030_ATS.TIF","N15_70_2010LC030_ATS.TIF","N15_70",70,"N",15,70,75,-96,-84
"377","G:\BerkeleyEarthFunctions\Data\GlobeLand30_ATS2010_2/GlobeLand30_ATS2010_2/N15_75_2010LC030/N15_75_2010LC030_ATS.TIF","N15_75_2010LC030_ATS.TIF","N15_75",75,"N",15,75,80,-96,-84
"378","G:\BerkeleyEarthFunctions\Data\GlobeLand30_ATS2010_2/GlobeLand30_ATS2010_2/N15_80_2010LC030/N15_80_2010LC030_ATS.TIF","N15_80_2010LC030_ATS.TIF","N15_80",80,"N",15,80,85,-96,-84
"379","G:\BerkeleyEarthFunctions\Data\GlobeLand30_ATS2010_2/GlobeLand30_ATS2010_2/N16_05_2010LC030/N16_05_2010LC030_ATS.TIF","N16_05_2010LC030_ATS.TIF","N16_05",5,"N",16,5,10,-90,-84
"380","G:\BerkeleyEarthFunctions\Data\GlobeLand30_ATS2010_2/GlobeLand30_ATS2010_2/N16_10_2010LC030/N16_10_2010LC030_ATS.TIF","N16_10_2010LC030_ATS.TIF","N16_10",10,"N",16,10,15,-90,-84
"381","G:\BerkeleyEarthFunctions\Data\GlobeLand30_ATS2010_2/GlobeLand30_ATS2010_2/N16_15_2010LC030/N16_15_2010LC030_ATS.TIF","N16_15_2010LC030_ATS.TIF","N16_15",15,"N",16,15,20,-90,-84
"382","G:\BerkeleyEarthFunctions\Data\GlobeLand30_ATS2010_2/GlobeLand30_ATS2010_2/N16_20_2010LC030/N16_20_2010LC030_ATS.TIF","N16_20_2010LC030_ATS.TIF","N16_20",20,"N",16,20,25,-90,-84
"383","G:\BerkeleyEarthFunctions\Data\GlobeLand30_ATS2010_2/GlobeLand30_ATS2010_2/N16_25_2010LC030/N16_25_2010LC030_ATS.TIF","N16_25_2010LC030_ATS.TIF","N16_25",25,"N",16,25,30,-90,-84
"384","G:\BerkeleyEarthFunctions\Data\GlobeLand30_ATS2010_2/GlobeLand30_ATS2010_2/N16_30_2010LC030/N16_30_2010LC030_ATS.TIF","N16_30_2010LC030_ATS.TIF","N16_30",30,"N",16,30,35,-90,-84
"385","G:\BerkeleyEarthFunctions\Data\GlobeLand30_ATS2010_2/GlobeLand30_ATS2010_2/N16_35_2010LC030/N16_35_2010LC030_ATS.TIF","N16_35_2010LC030_ATS.TIF","N16_35",35,"N",16,35,40,-90,-84
"386","G:\BerkeleyEarthFunctions\Data\GlobeLand30_ATS2010_2/GlobeLand30_ATS2010_2/N16_40_2010LC030/N16_40_2010LC030_ATS.TIF","N16_40_2010LC030_ATS.TIF","N16_40",40,"N",16,40,45,-90,-84
"387","G:\BerkeleyEarthFunctions\Data\GlobeLand30_ATS2010_2/GlobeLand30_ATS2010_2/N16_45_2010LC030/N16_45_2010LC030_ATS.TIF","N16_45_2010LC030_ATS.TIF","N16_45",45,"N",16,45,50,-90,-84
"388","G:\BerkeleyEarthFunctions\Data\GlobeLand30_ATS2010_2/GlobeLand30_ATS2010_2/N16_50_2010LC030/N16_50_2010LC030_ATS.TIF","N16_50_2010LC030_ATS.TIF","N16_50",50,"N",16,50,55,-90,-84
"389","G:\BerkeleyEarthFunctions\Data\GlobeLand30_ATS2010_2/GlobeLand30_ATS2010_2/N16_55_2010LC030/N16_55_2010LC030_ATS.TIF","N16_55_2010LC030_ATS.TIF","N16_55",55,"N",16,55,60,-90,-84
"390","G:\BerkeleyEarthFunctions\Data\GlobeLand30_ATS2010_2/GlobeLand30_ATS2010_2/N17_00_2010LC030/N17_00_2010LC030_ATS.TIF","N17_00_2010LC030_ATS.TIF","N17_00",0,"N",17,0,5,-84,-78
"391","G:\BerkeleyEarthFunctions\Data\GlobeLand30_ATS2010_2/GlobeLand30_ATS2010_2/N17_05_2010LC030/N17_05_2010LC030_ATS.TIF","N17_05_2010LC030_ATS.TIF","N17_05",5,"N",17,5,10,-84,-78
"392","G:\BerkeleyEarthFunctions\Data\GlobeLand30_ATS2010_2/GlobeLand30_ATS2010_2/N17_10_2010LC030/N17_10_2010LC030_ATS.TIF","N17_10_2010LC030_ATS.TIF","N17_10",10,"N",17,10,15,-84,-78
"393","G:\BerkeleyEarthFunctions\Data\GlobeLand30_ATS2010_2/GlobeLand30_ATS2010_2/N17_15_2010LC030/N17_15_2010LC030_ATS.TIF","N17_15_2010LC030_ATS.TIF","N17_15",15,"N",17,15,20,-84,-78
"394","G:\BerkeleyEarthFunctions\Data\GlobeLand30_ATS2010_2/GlobeLand30_ATS2010_2/N17_20_2010LC030/N17_20_2010LC030_ATS.TIF","N17_20_2010LC030_ATS.TIF","N17_20",20,"N",17,20,25,-84,-78
"395","G:\BerkeleyEarthFunctions\Data\GlobeLand30_ATS2010_2/GlobeLand30_ATS2010_2/N17_25_2010LC030/N17_25_2010LC030_ATS.TIF","N17_25_2010LC030_ATS.TIF","N17_25",25,"N",17,25,30,-84,-78
"396","G:\BerkeleyEarthFunctions\Data\GlobeLand30_ATS2010_2/GlobeLand30_ATS2010_2/N17_30_2010LC030/N17_30_2010LC030_ATS.TIF","N17_30_2010LC030_ATS.TIF","N17_30",30,"N",17,30,35,-84,-78
"397","G:\BerkeleyEarthFunctions\Data\GlobeLand30_ATS2010_2/GlobeLand30_ATS2010_2/N17_35_2010LC030/N17_35_2010LC030_ATS.TIF","N17_35_2010LC030_ATS.TIF","N17_35",35,"N",17,35,40,-84,-78
"398","G:\BerkeleyEarthFunctions\Data\GlobeLand30_ATS2010_2/GlobeLand30_ATS2010_2/N17_40_2010LC030/N17_40_2010LC030_ATS.TIF","N17_40_2010LC030_ATS.TIF","N17_40",40,"N",17,40,45,-84,-78
"399","G:\BerkeleyEarthFunctions\Data\GlobeLand30_ATS2010_2/GlobeLand30_ATS2010_2/N17_45_2010LC030/N17_45_2010LC030_ATS.TIF","N17_45_2010LC030_ATS.TIF","N17_45",45,"N",17,45,50,-84,-78
"400","G:\BerkeleyEarthFunctions\Data\GlobeLand30_ATS2010_2/GlobeLand30_ATS2010_2/N17_50_2010LC030/N17_50_2010LC030_ATS.TIF","N17_50_2010LC030_ATS.TIF","N17_50",50,"N",17,50,55,-84,-78
"401","G:\BerkeleyEarthFunctions\Data\GlobeLand30_ATS2010_2/GlobeLand30_ATS2010_2/N17_55_2010LC030/N17_55_2010LC030_ATS.TIF","N17_55_2010LC030_ATS.TIF","N17_55",55,"N",17,55,60,-84,-78
"402","G:\BerkeleyEarthFunctions\Data\GlobeLand30_ATS2010_2/GlobeLand30_ATS2010_2/N17_60_2010LC030/N17_60_2010LC030_ATS.TIF","N17_60_2010LC030_ATS.TIF","N17_60",60,"N",17,60,65,-84,-72
"403","G:\BerkeleyEarthFunctions\Data\GlobeLand30_ATS2010_2/GlobeLand30_ATS2010_2/N17_65_2010LC030/N17_65_2010LC030_ATS.TIF","N17_65_2010LC030_ATS.TIF","N17_65",65,"N",17,65,70,-84,-72
"404","G:\BerkeleyEarthFunctions\Data\GlobeLand30_ATS2010_2/GlobeLand30_ATS2010_2/N17_70_2010LC030/N17_70_2010LC030_ATS.TIF","N17_70_2010LC030_ATS.TIF","N17_70",70,"N",17,70,75,-84,-72
"405","G:\BerkeleyEarthFunctions\Data\GlobeLand30_ATS2010_2/GlobeLand30_ATS2010_2/N17_75_2010LC030/N17_75_2010LC030_ATS.TIF","N17_75_2010LC030_ATS.TIF","N17_75",75,"N",17,75,80,-84,-72
"406","G:\BerkeleyEarthFunctions\Data\GlobeLand30_ATS2010_2/GlobeLand30_ATS2010_2/N18_00_2010LC030/N18_00_2010LC030_ATS.TIF","N18_00_2010LC030_ATS.TIF","N18_00",0,"N",18,0,5,-78,-72
"407","G:\BerkeleyEarthFunctions\Data\GlobeLand30_ATS2010_2/GlobeLand30_ATS2010_2/N18_05_2010LC030/N18_05_2010LC030_ATS.TIF","N18_05_2010LC030_ATS.TIF","N18_05",5,"N",18,5,10,-78,-72
"408","G:\BerkeleyEarthFunctions\Data\GlobeLand30_ATS2010_2/GlobeLand30_ATS2010_2/N18_10_2010LC030/N18_10_2010LC030_ATS.TIF","N18_10_2010LC030_ATS.TIF","N18_10",10,"N",18,10,15,-78,-72
"409","G:\BerkeleyEarthFunctions\Data\GlobeLand30_ATS2010_2/GlobeLand30_ATS2010_2/N18_15_2010LC030/N18_15_2010LC030_ATS.TIF","N18_15_2010LC030_ATS.TIF","N18_15",15,"N",18,15,20,-78,-72
"410","G:\BerkeleyEarthFunctions\Data\GlobeLand30_ATS2010_2/GlobeLand30_ATS2010_2/N18_20_2010LC030/N18_20_2010LC030_ATS.TIF","N18_20_2010LC030_ATS.TIF","N18_20",20,"N",18,20,25,-78,-72
"411","G:\BerkeleyEarthFunctions\Data\GlobeLand30_ATS2010_2/GlobeLand30_ATS2010_2/N18_25_2010LC030/N18_25_2010LC030_ATS.TIF","N18_25_2010LC030_ATS.TIF","N18_25",25,"N",18,25,30,-78,-72
"412","G:\BerkeleyEarthFunctions\Data\GlobeLand30_ATS2010_2/GlobeLand30_ATS2010_2/N18_30_2010LC030/N18_30_2010LC030_ATS.TIF","N18_30_2010LC030_ATS.TIF","N18_30",30,"N",18,30,35,-78,-72
"413","G:\BerkeleyEarthFunctions\Data\GlobeLand30_ATS2010_2/GlobeLand30_ATS2010_2/N18_35_2010LC030/N18_35_2010LC030_ATS.TIF","N18_35_2010LC030_ATS.TIF","N18_35",35,"N",18,35,40,-78,-72
"414","G:\BerkeleyEarthFunctions\Data\GlobeLand30_ATS2010_2/GlobeLand30_ATS2010_2/N18_40_2010LC030/N18_40_2010LC030_ATS.TIF","N18_40_2010LC030_ATS.TIF","N18_40",40,"N",18,40,45,-78,-72
"415","G:\BerkeleyEarthFunctions\Data\GlobeLand30_ATS2010_2/GlobeLand30_ATS2010_2/N18_45_2010LC030/N18_45_2010LC030_ATS.TIF","N18_45_2010LC030_ATS.TIF","N18_45",45,"N",18,45,50,-78,-72
"416","G:\BerkeleyEarthFunctions\Data\GlobeLand30_ATS2010_2/GlobeLand30_ATS2010_2/N18_50_2010LC030/N18_50_2010LC030_ATS.TIF","N18_50_2010LC030_ATS.TIF","N18_50",50,"N",18,50,55,-78,-72
"417","G:\BerkeleyEarthFunctions\Data\GlobeLand30_ATS2010_2/GlobeLand30_ATS2010_2/N18_55_2010LC030/N18_55_2010LC030_ATS.TIF","N18_55_2010LC030_ATS.TIF","N18_55",55,"N",18,55,60,-78,-72
"418","G:\BerkeleyEarthFunctions\Data\GlobeLand30_ATS2010_2/GlobeLand30_ATS2010_2/N19_00_2010LC030/N19_00_2010LC030_ATS.TIF","N19_00_2010LC030_ATS.TIF","N19_00",0,"N",19,0,5,-72,-66
"419","G:\BerkeleyEarthFunctions\Data\GlobeLand30_ATS2010_2/GlobeLand30_ATS2010_2/N19_05_2010LC030/N19_05_2010LC030_ATS.TIF","N19_05_2010LC030_ATS.TIF","N19_05",5,"N",19,5,10,-72,-66
"420","G:\BerkeleyEarthFunctions\Data\GlobeLand30_ATS2010_2/GlobeLand30_ATS2010_2/N19_10_2010LC030/N19_10_2010LC030_ATS.TIF","N19_10_2010LC030_ATS.TIF","N19_10",10,"N",19,10,15,-72,-66
"421","G:\BerkeleyEarthFunctions\Data\GlobeLand30_ATS2010_2/GlobeLand30_ATS2010_2/N19_15_2010LC030/N19_15_2010LC030_ATS.TIF","N19_15_2010LC030_ATS.TIF","N19_15",15,"N",19,15,20,-72,-66
"422","G:\BerkeleyEarthFunctions\Data\GlobeLand30_ATS2010_2/GlobeLand30_ATS2010_2/N19_20_2010LC030/N19_20_2010LC030_ATS.TIF","N19_20_2010LC030_ATS.TIF","N19_20",20,"N",19,20,25,-72,-66
"423","G:\BerkeleyEarthFunctions\Data\GlobeLand30_ATS2010_2/GlobeLand30_ATS2010_2/N19_40_2010LC030/N19_40_2010LC030_ATS.TIF","N19_40_2010LC030_ATS.TIF","N19_40",40,"N",19,40,45,-72,-66
"424","G:\BerkeleyEarthFunctions\Data\GlobeLand30_ATS2010_2/GlobeLand30_ATS2010_2/N19_45_2010LC030/N19_45_2010LC030_ATS.TIF","N19_45_2010LC030_ATS.TIF","N19_45",45,"N",19,45,50,-72,-66
"425","G:\BerkeleyEarthFunctions\Data\GlobeLand30_ATS2010_2/GlobeLand30_ATS2010_2/N19_50_2010LC030/N19_50_2010LC030_ATS.TIF","N19_50_2010LC030_ATS.TIF","N19_50",50,"N",19,50,55,-72,-66
"426","G:\BerkeleyEarthFunctions\Data\GlobeLand30_ATS2010_2/GlobeLand30_ATS2010_2/N19_55_2010LC030/N19_55_2010LC030_ATS.TIF","N19_55_2010LC030_ATS.TIF","N19_55",55,"N",19,55,60,-72,-66
"427","G:\BerkeleyEarthFunctions\Data\GlobeLand30_ATS2010_2/GlobeLand30_ATS2010_2/N19_60_2010LC030/N19_60_2010LC030_ATS.TIF","N19_60_2010LC030_ATS.TIF","N19_60",60,"N",19,60,65,-72,-60
"428","G:\BerkeleyEarthFunctions\Data\GlobeLand30_ATS2010_2/GlobeLand30_ATS2010_2/N19_65_2010LC030/N19_65_2010LC030_ATS.TIF","N19_65_2010LC030_ATS.TIF","N19_65",65,"N",19,65,70,-72,-60
"429","G:\BerkeleyEarthFunctions\Data\GlobeLand30_ATS2010_2/GlobeLand30_ATS2010_2/N19_70_2010LC030/N19_70_2010LC030_ATS.TIF","N19_70_2010LC030_ATS.TIF","N19_70",70,"N",19,70,75,-72,-60
"430","G:\BerkeleyEarthFunctions\Data\GlobeLand30_ATS2010_2/GlobeLand30_ATS2010_2/N19_75_2010LC030/N19_75_2010LC030_ATS.TIF","N19_75_2010LC030_ATS.TIF","N19_75",75,"N",19,75,80,-72,-60
"431","G:\BerkeleyEarthFunctions\Data\GlobeLand30_ATS2010_2/GlobeLand30_ATS2010_2/N20_00_2010LC030/N20_00_2010LC030_ATS.TIF","N20_00_2010LC030_ATS.TIF","N20_00",0,"N",20,0,5,-66,-60
"432","G:\BerkeleyEarthFunctions\Data\GlobeLand30_ATS2010_2/GlobeLand30_ATS2010_2/N20_05_2010LC030/N20_05_2010LC030_ATS.TIF","N20_05_2010LC030_ATS.TIF","N20_05",5,"N",20,5,10,-66,-60
"433","G:\BerkeleyEarthFunctions\Data\GlobeLand30_ATS2010_2/GlobeLand30_ATS2010_2/N20_10_2010LC030/N20_10_2010LC030_ATS.TIF","N20_10_2010LC030_ATS.TIF","N20_10",10,"N",20,10,15,-66,-60
"434","G:\BerkeleyEarthFunctions\Data\GlobeLand30_ATS2010_2/GlobeLand30_ATS2010_2/N20_15_2010LC030/N20_15_2010LC030_ATS.TIF","N20_15_2010LC030_ATS.TIF","N20_15",15,"N",20,15,20,-66,-60
"435","G:\BerkeleyEarthFunctions\Data\GlobeLand30_ATS2010_2/GlobeLand30_ATS2010_2/N20_30_2010LC030/N20_30_2010LC030_ATS.TIF","N20_30_2010LC030_ATS.TIF","N20_30",30,"N",20,30,35,-66,-60
"436","G:\BerkeleyEarthFunctions\Data\GlobeLand30_ATS2010_2/GlobeLand30_ATS2010_2/N20_40_2010LC030/N20_40_2010LC030_ATS.TIF","N20_40_2010LC030_ATS.TIF","N20_40",40,"N",20,40,45,-66,-60
"437","G:\BerkeleyEarthFunctions\Data\GlobeLand30_ATS2010_2/GlobeLand30_ATS2010_2/N20_45_2010LC030/N20_45_2010LC030_ATS.TIF","N20_45_2010LC030_ATS.TIF","N20_45",45,"N",20,45,50,-66,-60
"438","G:\BerkeleyEarthFunctions\Data\GlobeLand30_ATS2010_2/GlobeLand30_ATS2010_2/N20_50_2010LC030/N20_50_2010LC030_ATS.TIF","N20_50_2010LC030_ATS.TIF","N20_50",50,"N",20,50,55,-66,-60
"439","G:\BerkeleyEarthFunctions\Data\GlobeLand30_ATS2010_2/GlobeLand30_ATS2010_2/N20_55_2010LC030/N20_55_2010LC030_ATS.TIF","N20_55_2010LC030_ATS.TIF","N20_55",55,"N",20,55,60,-66,-60
"440","G:\BerkeleyEarthFunctions\Data\GlobeLand30_ATS2010_2/GlobeLand30_ATS2010_2/N21_00_2010LC030/N21_00_2010LC030_ATS.TIF","N21_00_2010LC030_ATS.TIF","N21_00",0,"N",21,0,5,-60,-54
"441","G:\BerkeleyEarthFunctions\Data\GlobeLand30_ATS2010_2/GlobeLand30_ATS2010_2/N21_05_2010LC030/N21_05_2010LC030_ATS.TIF","N21_05_2010LC030_ATS.TIF","N21_05",5,"N",21,5,10,-60,-54
"442","G:\BerkeleyEarthFunctions\Data\GlobeLand30_ATS2010_2/GlobeLand30_ATS2010_2/N21_10_2010LC030/N21_10_2010LC030_ATS.TIF","N21_10_2010LC030_ATS.TIF","N21_10",10,"N",21,10,15,-60,-54
"443","G:\BerkeleyEarthFunctions\Data\GlobeLand30_ATS2010_2/GlobeLand30_ATS2010_2/N21_45_2010LC030/N21_45_2010LC030_ATS.TIF","N21_45_2010LC030_ATS.TIF","N21_45",45,"N",21,45,50,-60,-54
"444","G:\BerkeleyEarthFunctions\Data\GlobeLand30_ATS2010_2/GlobeLand30_ATS2010_2/N21_50_2010LC030/N21_50_2010LC030_ATS.TIF","N21_50_2010LC030_ATS.TIF","N21_50",50,"N",21,50,55,-60,-54
"445","G:\BerkeleyEarthFunctions\Data\GlobeLand30_ATS2010_2/GlobeLand30_ATS2010_2/N21_55_2010LC030/N21_55_2010LC030_ATS.TIF","N21_55_2010LC030_ATS.TIF","N21_55",55,"N",21,55,60,-60,-54
"446","G:\BerkeleyEarthFunctions\Data\GlobeLand30_ATS2010_2/GlobeLand30_ATS2010_2/N21_60_2010LC030/N21_60_2010LC030_ATS.TIF","N21_60_2010LC030_ATS.TIF","N21_60",60,"N",21,60,65,-60,-48
"447","G:\BerkeleyEarthFunctions\Data\GlobeLand30_ATS2010_2/GlobeLand30_ATS2010_2/N21_65_2010LC030/N21_65_2010LC030_ATS.TIF","N21_65_2010LC030_ATS.TIF","N21_65",65,"N",21,65,70,-60,-48
"448","G:\BerkeleyEarthFunctions\Data\GlobeLand30_ATS2010_2/GlobeLand30_ATS2010_2/N22_00_2010LC030/N22_00_2010LC030_ATS.TIF","N22_00_2010LC030_ATS.TIF","N22_00",0,"N",22,0,5,-54,-48
"449","G:\BerkeleyEarthFunctions\Data\GlobeLand30_ATS2010_2/GlobeLand30_ATS2010_2/N22_05_2010LC030/N22_05_2010LC030_ATS.TIF","N22_05_2010LC030_ATS.TIF","N22_05",5,"N",22,5,10,-54,-48
"450","G:\BerkeleyEarthFunctions\Data\GlobeLand30_ATS2010_2/GlobeLand30_ATS2010_2/N22_45_2010LC030/N22_45_2010LC030_ATS.TIF","N22_45_2010LC030_ATS.TIF","N22_45",45,"N",22,45,50,-54,-48
"451","G:\BerkeleyEarthFunctions\Data\GlobeLand30_ATS2010_2/GlobeLand30_ATS2010_2/N59_50_2010LC030/N59_50_2010LC030_ATS.TIF","N59_50_2010LC030_ATS.TIF","N59_50",50,"N",59,50,55,168,174
"452","G:\BerkeleyEarthFunctions\Data\GlobeLand30_ATS2010_2/GlobeLand30_ATS2010_2/N60_50_2010LC030/N60_50_2010LC030_ATS.TIF","N60_50_2010LC030_ATS.TIF","N60_50",50,"N",60,50,55,174,180
"453","G:\BerkeleyEarthFunctions\Data\GlobeLand30_ATS2010_2/GlobeLand30_ATS2010_2/S12_25_2010LC030/S12_25_2010LC030_ATS.TIF","S12_25_2010LC030_ATS.TIF","S12_25",-25,"S",12,-30,-25,-114,-108
"454","G:\BerkeleyEarthFunctions\Data\GlobeLand30_ATS2010_2/GlobeLand30_ATS2010_2/S15_00_2010LC030/S15_00_2010LC030_ATS.TIF","S15_00_2010LC030_ATS.TIF","S15_00",0,"S",15,-5,0,-96,-90
"455","G:\BerkeleyEarthFunctions\Data\GlobeLand30_ATS2010_2/GlobeLand30_ATS2010_2/S16_00_2010LC030/S16_00_2010LC030_ATS.TIF","S16_00_2010LC030_ATS.TIF","S16_00",0,"S",16,-5,0,-90,-84
"456","G:\BerkeleyEarthFunctions\Data\GlobeLand30_ATS2010_2/GlobeLand30_ATS2010_2/S17_00_2010LC030/S17_00_2010LC030_ATS.TIF","S17_00_2010LC030_ATS.TIF","S17_00",0,"S",17,-5,0,-84,-78
"457","G:\BerkeleyEarthFunctions\Data\GlobeLand30_ATS2010_2/GlobeLand30_ATS2010_2/S17_05_2010LC030/S17_05_2010LC030_ATS.TIF","S17_05_2010LC030_ATS.TIF","S17_05",-5,"S",17,-10,-5,-84,-78
"458","G:\BerkeleyEarthFunctions\Data\GlobeLand30_ATS2010_2/GlobeLand30_ATS2010_2/S17_10_2010LC030/S17_10_2010LC030_ATS.TIF","S17_10_2010LC030_ATS.TIF","S17_10",-10,"S",17,-15,-10,-84,-78
"459","G:\BerkeleyEarthFunctions\Data\GlobeLand30_ATS2010_2/GlobeLand30_ATS2010_2/S17_30_2010LC030/S17_30_2010LC030_ATS.TIF","S17_30_2010LC030_ATS.TIF","S17_30",-30,"S",17,-35,-30,-84,-78
"460","G:\BerkeleyEarthFunctions\Data\GlobeLand30_ATS2010_2/GlobeLand30_ATS2010_2/S18_00_2010LC030/S18_00_2010LC030_ATS.TIF","S18_00_2010LC030_ATS.TIF","S18_00",0,"S",18,-5,0,-78,-72
"461","G:\BerkeleyEarthFunctions\Data\GlobeLand30_ATS2010_2/GlobeLand30_ATS2010_2/S18_05_2010LC030/S18_05_2010LC030_ATS.TIF","S18_05_2010LC030_ATS.TIF","S18_05",-5,"S",18,-10,-5,-78,-72
"462","G:\BerkeleyEarthFunctions\Data\GlobeLand30_ATS2010_2/GlobeLand30_ATS2010_2/S18_10_2010LC030/S18_10_2010LC030_ATS.TIF","S18_10_2010LC030_ATS.TIF","S18_10",-10,"S",18,-15,-10,-78,-72
"463","G:\BerkeleyEarthFunctions\Data\GlobeLand30_ATS2010_2/GlobeLand30_ATS2010_2/S18_15_2010LC030/S18_15_2010LC030_ATS.TIF","S18_15_2010LC030_ATS.TIF","S18_15",-15,"S",18,-20,-15,-78,-72
"464","G:\BerkeleyEarthFunctions\Data\GlobeLand30_ATS2010_2/GlobeLand30_ATS2010_2/S18_30_2010LC030/S18_30_2010LC030_ATS.TIF","S18_30_2010LC030_ATS.TIF","S18_30",-30,"S",18,-35,-30,-78,-72
"465","G:\BerkeleyEarthFunctions\Data\GlobeLand30_ATS2010_2/GlobeLand30_ATS2010_2/S18_35_2010LC030/S18_35_2010LC030_ATS.TIF","S18_35_2010LC030_ATS.TIF","S18_35",-35,"S",18,-40,-35,-78,-72
"466","G:\BerkeleyEarthFunctions\Data\GlobeLand30_ATS2010_2/GlobeLand30_ATS2010_2/S18_40_2010LC030/S18_40_2010LC030_ATS.TIF","S18_40_2010LC030_ATS.TIF","S18_40",-40,"S",18,-45,-40,-78,-72
"467","G:\BerkeleyEarthFunctions\Data\GlobeLand30_ATS2010_2/GlobeLand30_ATS2010_2/S18_45_2010LC030/S18_45_2010LC030_ATS.TIF","S18_45_2010LC030_ATS.TIF","S18_45",-45,"S",18,-50,-45,-78,-72
"468","G:\BerkeleyEarthFunctions\Data\GlobeLand30_ATS2010_2/GlobeLand30_ATS2010_2/S18_50_2010LC030/S18_50_2010LC030_ATS.TIF","S18_50_2010LC030_ATS.TIF","S18_50",-50,"S",18,-55,-50,-78,-72
"469","G:\BerkeleyEarthFunctions\Data\GlobeLand30_ATS2010_2/GlobeLand30_ATS2010_2/S19_00_2010LC030/S19_00_2010LC030_ATS.TIF","S19_00_2010LC030_ATS.TIF","S19_00",0,"S",19,-5,0,-72,-66
"470","G:\BerkeleyEarthFunctions\Data\GlobeLand30_ATS2010_2/GlobeLand30_ATS2010_2/S19_05_2010LC030/S19_05_2010LC030_ATS.TIF","S19_05_2010LC030_ATS.TIF","S19_05",-5,"S",19,-10,-5,-72,-66
"471","G:\BerkeleyEarthFunctions\Data\GlobeLand30_ATS2010_2/GlobeLand30_ATS2010_2/S19_10_2010LC030/S19_10_2010LC030_ATS.TIF","S19_10_2010LC030_ATS.TIF","S19_10",-10,"S",19,-15,-10,-72,-66
"472","G:\BerkeleyEarthFunctions\Data\GlobeLand30_ATS2010_2/GlobeLand30_ATS2010_2/S19_15_2010LC030/S19_15_2010LC030_ATS.TIF","S19_15_2010LC030_ATS.TIF","S19_15",-15,"S",19,-20,-15,-72,-66
"473","G:\BerkeleyEarthFunctions\Data\GlobeLand30_ATS2010_2/GlobeLand30_ATS2010_2/S19_20_2010LC030/S19_20_2010LC030_ATS.TIF","S19_20_2010LC030_ATS.TIF","S19_20",-20,"S",19,-25,-20,-72,-66
"474","G:\BerkeleyEarthFunctions\Data\GlobeLand30_ATS2010_2/GlobeLand30_ATS2010_2/S19_25_2010LC030/S19_25_2010LC030_ATS.TIF","S19_25_2010LC030_ATS.TIF","S19_25",-25,"S",19,-30,-25,-72,-66
"475","G:\BerkeleyEarthFunctions\Data\GlobeLand30_ATS2010_2/GlobeLand30_ATS2010_2/S19_30_2010LC030/S19_30_2010LC030_ATS.TIF","S19_30_2010LC030_ATS.TIF","S19_30",-30,"S",19,-35,-30,-72,-66
"476","G:\BerkeleyEarthFunctions\Data\GlobeLand30_ATS2010_2/GlobeLand30_ATS2010_2/S19_35_2010LC030/S19_35_2010LC030_ATS.TIF","S19_35_2010LC030_ATS.TIF","S19_35",-35,"S",19,-40,-35,-72,-66
"477","G:\BerkeleyEarthFunctions\Data\GlobeLand30_ATS2010_2/GlobeLand30_ATS2010_2/S19_40_2010LC030/S19_40_2010LC030_ATS.TIF","S19_40_2010LC030_ATS.TIF","S19_40",-40,"S",19,-45,-40,-72,-66
"478","G:\BerkeleyEarthFunctions\Data\GlobeLand30_ATS2010_2/GlobeLand30_ATS2010_2/S19_45_2010LC030/S19_45_2010LC030_ATS.TIF","S19_45_2010LC030_ATS.TIF","S19_45",-45,"S",19,-50,-45,-72,-66
"479","G:\BerkeleyEarthFunctions\Data\GlobeLand30_ATS2010_2/GlobeLand30_ATS2010_2/S19_50_2010LC030/S19_50_2010LC030_ATS.TIF","S19_50_2010LC030_ATS.TIF","S19_50",-50,"S",19,-55,-50,-72,-66
"480","G:\BerkeleyEarthFunctions\Data\GlobeLand30_ATS2010_2/GlobeLand30_ATS2010_2/S20_00_2010LC030/S20_00_2010LC030_ATS.TIF","S20_00_2010LC030_ATS.TIF","S20_00",0,"S",20,-5,0,-66,-60
"481","G:\BerkeleyEarthFunctions\Data\GlobeLand30_ATS2010_2/GlobeLand30_ATS2010_2/S20_05_2010LC030/S20_05_2010LC030_ATS.TIF","S20_05_2010LC030_ATS.TIF","S20_05",-5,"S",20,-10,-5,-66,-60
"482","G:\BerkeleyEarthFunctions\Data\GlobeLand30_ATS2010_2/GlobeLand30_ATS2010_2/S20_10_2010LC030/S20_10_2010LC030_ATS.TIF","S20_10_2010LC030_ATS.TIF","S20_10",-10,"S",20,-15,-10,-66,-60
"483","G:\BerkeleyEarthFunctions\Data\GlobeLand30_ATS2010_2/GlobeLand30_ATS2010_2/S20_15_2010LC030/S20_15_2010LC030_ATS.TIF","S20_15_2010LC030_ATS.TIF","S20_15",-15,"S",20,-20,-15,-66,-60
"484","G:\BerkeleyEarthFunctions\Data\GlobeLand30_ATS2010_2/GlobeLand30_ATS2010_2/S20_20_2010LC030/S20_20_2010LC030_ATS.TIF","S20_20_2010LC030_ATS.TIF","S20_20",-20,"S",20,-25,-20,-66,-60
"485","G:\BerkeleyEarthFunctions\Data\GlobeLand30_ATS2010_2/GlobeLand30_ATS2010_2/S20_25_2010LC030/S20_25_2010LC030_ATS.TIF","S20_25_2010LC030_ATS.TIF","S20_25",-25,"S",20,-30,-25,-66,-60
"486","G:\BerkeleyEarthFunctions\Data\GlobeLand30_ATS2010_2/GlobeLand30_ATS2010_2/S20_30_2010LC030/S20_30_2010LC030_ATS.TIF","S20_30_2010LC030_ATS.TIF","S20_30",-30,"S",20,-35,-30,-66,-60
"487","G:\BerkeleyEarthFunctions\Data\GlobeLand30_ATS2010_2/GlobeLand30_ATS2010_2/S20_35_2010LC030/S20_35_2010LC030_ATS.TIF","S20_35_2010LC030_ATS.TIF","S20_35",-35,"S",20,-40,-35,-66,-60
"488","G:\BerkeleyEarthFunctions\Data\GlobeLand30_ATS2010_2/GlobeLand30_ATS2010_2/S20_40_2010LC030/S20_40_2010LC030_ATS.TIF","S20_40_2010LC030_ATS.TIF","S20_40",-40,"S",20,-45,-40,-66,-60
"489","G:\BerkeleyEarthFunctions\Data\GlobeLand30_ATS2010_2/GlobeLand30_ATS2010_2/S20_45_2010LC030/S20_45_2010LC030_ATS.TIF","S20_45_2010LC030_ATS.TIF","S20_45",-45,"S",20,-50,-45,-66,-60
"490","G:\BerkeleyEarthFunctions\Data\GlobeLand30_ATS2010_2/GlobeLand30_ATS2010_2/S20_50_2010LC030/S20_50_2010LC030_ATS.TIF","S20_50_2010LC030_ATS.TIF","S20_50",-50,"S",20,-55,-50,-66,-60
"491","G:\BerkeleyEarthFunctions\Data\GlobeLand30_ATS2010_2/GlobeLand30_ATS2010_2/S21_00_2010LC030/S21_00_2010LC030_ATS.TIF","S21_00_2010LC030_ATS.TIF","S21_00",0,"S",21,-5,0,-60,-54
"492","G:\BerkeleyEarthFunctions\Data\GlobeLand30_ATS2010_2/GlobeLand30_ATS2010_2/S21_05_2010LC030/S21_05_2010LC030_ATS.TIF","S21_05_2010LC030_ATS.TIF","S21_05",-5,"S",21,-10,-5,-60,-54
"493","G:\BerkeleyEarthFunctions\Data\GlobeLand30_ATS2010_2/GlobeLand30_ATS2010_2/S21_10_2010LC030/S21_10_2010LC030_ATS.TIF","S21_10_2010LC030_ATS.TIF","S21_10",-10,"S",21,-15,-10,-60,-54
"494","G:\BerkeleyEarthFunctions\Data\GlobeLand30_ATS2010_2/GlobeLand30_ATS2010_2/S21_15_2010LC030/S21_15_2010LC030_ATS.TIF","S21_15_2010LC030_ATS.TIF","S21_15",-15,"S",21,-20,-15,-60,-54
"495","G:\BerkeleyEarthFunctions\Data\GlobeLand30_ATS2010_2/GlobeLand30_ATS2010_2/S21_20_2010LC030/S21_20_2010LC030_ATS.TIF","S21_20_2010LC030_ATS.TIF","S21_20",-20,"S",21,-25,-20,-60,-54
"496","G:\BerkeleyEarthFunctions\Data\GlobeLand30_ATS2010_2/GlobeLand30_ATS2010_2/S21_25_2010LC030/S21_25_2010LC030_ATS.TIF","S21_25_2010LC030_ATS.TIF","S21_25",-25,"S",21,-30,-25,-60,-54
"497","G:\BerkeleyEarthFunctions\Data\GlobeLand30_ATS2010_2/GlobeLand30_ATS2010_2/S21_30_2010LC030/S21_30_2010LC030_ATS.TIF","S21_30_2010LC030_ATS.TIF","S21_30",-30,"S",21,-35,-30,-60,-54
"498","G:\BerkeleyEarthFunctions\Data\GlobeLand30_ATS2010_2/GlobeLand30_ATS2010_2/S21_35_2010LC030/S21_35_2010LC030_ATS.TIF","S21_35_2010LC030_ATS.TIF","S21_35",-35,"S",21,-40,-35,-60,-54
"499","G:\BerkeleyEarthFunctions\Data\GlobeLand30_ATS2010_2/GlobeLand30_ATS2010_2/S21_50_2010LC030/S21_50_2010LC030_ATS.TIF","S21_50_2010LC030_ATS.TIF","S21_50",-50,"S",21,-55,-50,-60,-54
"500","G:\BerkeleyEarthFunctions\Data\GlobeLand30_ATS2010_2/GlobeLand30_ATS2010_2/S22_00_2010LC030/S22_00_2010LC030_ATS.TIF","S22_00_2010LC030_ATS.TIF","S22_00",0,"S",22,-5,0,-54,-48
"501","G:\BerkeleyEarthFunctions\Data\GlobeLand30_ATS2010_2/GlobeLand30_ATS2010_2/S22_05_2010LC030/S22_05_2010LC030_ATS.TIF","S22_05_2010LC030_ATS.TIF","S22_05",-5,"S",22,-10,-5,-54,-48
"502","G:\BerkeleyEarthFunctions\Data\GlobeLand30_ATS2010_2/GlobeLand30_ATS2010_2/S22_10_2010LC030/S22_10_2010LC030_ATS.TIF","S22_10_2010LC030_ATS.TIF","S22_10",-10,"S",22,-15,-10,-54,-48
"503","G:\BerkeleyEarthFunctions\Data\GlobeLand30_ATS2010_2/GlobeLand30_ATS2010_2/S22_15_2010LC030/S22_15_2010LC030_ATS.TIF","S22_15_2010LC030_ATS.TIF","S22_15",-15,"S",22,-20,-15,-54,-48
"504","G:\BerkeleyEarthFunctions\Data\GlobeLand30_ATS2010_2/GlobeLand30_ATS2010_2/S22_20_2010LC030/S22_20_2010LC030_ATS.TIF","S22_20_2010LC030_ATS.TIF","S22_20",-20,"S",22,-25,-20,-54,-48
"505","G:\BerkeleyEarthFunctions\Data\GlobeLand30_ATS2010_2/GlobeLand30_ATS2010_2/S22_25_2010LC030/S22_25_2010LC030_ATS.TIF","S22_25_2010LC030_ATS.TIF","S22_25",-25,"S",22,-30,-25,-54,-48
"506","G:\BerkeleyEarthFunctions\Data\GlobeLand30_ATS2010_2/GlobeLand30_ATS2010_2/S22_30_2010LC030/S22_30_2010LC030_ATS.TIF","S22_30_2010LC030_ATS.TIF","S22_30",-30,"S",22,-35,-30,-54,-48
"507","G:\BerkeleyEarthFunctions\Data\GlobeLand30_ATS2010_2/GlobeLand30_ATS2010_2/S23_00_2010LC030/S23_00_2010LC030_ATS.TIF","S23_00_2010LC030_ATS.TIF","S23_00",0,"S",23,-5,0,-48,-42
"508","G:\BerkeleyEarthFunctions\Data\GlobeLand30_ATS2010_2/GlobeLand30_ATS2010_2/S23_05_2010LC030/S23_05_2010LC030_ATS.TIF","S23_05_2010LC030_ATS.TIF","S23_05",-5,"S",23,-10,-5,-48,-42
"509","G:\BerkeleyEarthFunctions\Data\GlobeLand30_ATS2010_2/GlobeLand30_ATS2010_2/S23_10_2010LC030/S23_10_2010LC030_ATS.TIF","S23_10_2010LC030_ATS.TIF","S23_10",-10,"S",23,-15,-10,-48,-42
"510","G:\BerkeleyEarthFunctions\Data\GlobeLand30_ATS2010_2/GlobeLand30_ATS2010_2/S23_15_2010LC030/S23_15_2010LC030_ATS.TIF","S23_15_2010LC030_ATS.TIF","S23_15",-15,"S",23,-20,-15,-48,-42
"511","G:\BerkeleyEarthFunctions\Data\GlobeLand30_ATS2010_2/GlobeLand30_ATS2010_2/S23_20_2010LC030/S23_20_2010LC030_ATS.TIF","S23_20_2010LC030_ATS.TIF","S23_20",-20,"S",23,-25,-20,-48,-42
"512","G:\BerkeleyEarthFunctions\Data\GlobeLand30_ATS2010_2/GlobeLand30_ATS2010_2/S23_25_2010LC030/S23_25_2010LC030_ATS.TIF","S23_25_2010LC030_ATS.TIF","S23_25",-25,"S",23,-30,-25,-48,-42
"513","G:\BerkeleyEarthFunctions\Data\GlobeLand30_ATS2010_2/GlobeLand30_ATS2010_2/S24_00_2010LC030/S24_00_2010LC030_ATS.TIF","S24_00_2010LC030_ATS.TIF","S24_00",0,"S",24,-5,0,-42,-36
"514","G:\BerkeleyEarthFunctions\Data\GlobeLand30_ATS2010_2/GlobeLand30_ATS2010_2/S24_05_2010LC030/S24_05_2010LC030_ATS.TIF","S24_05_2010LC030_ATS.TIF","S24_05",-5,"S",24,-10,-5,-42,-36
"515","G:\BerkeleyEarthFunctions\Data\GlobeLand30_ATS2010_2/GlobeLand30_ATS2010_2/S24_10_2010LC030/S24_10_2010LC030_ATS.TIF","S24_10_2010LC030_ATS.TIF","S24_10",-10,"S",24,-15,-10,-42,-36
"516","G:\BerkeleyEarthFunctions\Data\GlobeLand30_ATS2010_2/GlobeLand30_ATS2010_2/S24_15_2010LC030/S24_15_2010LC030_ATS.TIF","S24_15_2010LC030_ATS.TIF","S24_15",-15,"S",24,-20,-15,-42,-36
"517","G:\BerkeleyEarthFunctions\Data\GlobeLand30_ATS2010_2/GlobeLand30_ATS2010_2/S24_20_2010LC030/S24_20_2010LC030_ATS.TIF","S24_20_2010LC030_ATS.TIF","S24_20",-20,"S",24,-25,-20,-42,-36
"518","G:\BerkeleyEarthFunctions\Data\GlobeLand30_ATS2010_2/GlobeLand30_ATS2010_2/S25_00_2010LC030/S25_00_2010LC030_ATS.TIF","S25_00_2010LC030_ATS.TIF","S25_00",0,"S",25,-5,0,-36,-30
"519","G:\BerkeleyEarthFunctions\Data\GlobeLand30_ATS2010_2/GlobeLand30_ATS2010_2/S25_05_2010LC030/S25_05_2010LC030_ATS.TIF","S25_05_2010LC030_ATS.TIF","S25_05",-5,"S",25,-10,-5,-36,-30
"520","G:\BerkeleyEarthFunctions\Data\GlobeLand30_ATS2010_3/GlobeLand30_ATS2010_3/N02_15_2010LC030/N02_15_2010LC030_ATS.TIF","N02_15_2010LC030_ATS.TIF","N02_15",15,"N",2,15,20,-174,-168
"521","G:\BerkeleyEarthFunctions\Data\GlobeLand30_ATS2010_3/GlobeLand30_ATS2010_3/N03_05_2010LC030/N03_05_2010LC030_ATS.TIF","N03_05_2010LC030_ATS.TIF","N03_05",5,"N",3,5,10,-168,-162
"522","G:\BerkeleyEarthFunctions\Data\GlobeLand30_ATS2010_3/GlobeLand30_ATS2010_3/N04_00_2010LC030/N04_00_2010LC030_ATS.TIF","N04_00_2010LC030_ATS.TIF","N04_00",0,"N",4,0,5,-162,-156
"523","G:\BerkeleyEarthFunctions\Data\GlobeLand30_ATS2010_3/GlobeLand30_ATS2010_3/N26_10_2010LC030/N26_10_2010LC030_ATS.TIF","N26_10_2010LC030_ATS.TIF","N26_10",10,"N",26,10,15,-30,-24
"524","G:\BerkeleyEarthFunctions\Data\GlobeLand30_ATS2010_3/GlobeLand30_ATS2010_3/N26_15_2010LC030/N26_15_2010LC030_ATS.TIF","N26_15_2010LC030_ATS.TIF","N26_15",15,"N",26,15,20,-30,-24
"525","G:\BerkeleyEarthFunctions\Data\GlobeLand30_ATS2010_3/GlobeLand30_ATS2010_3/N27_10_2010LC030/N27_10_2010LC030_ATS.TIF","N27_10_2010LC030_ATS.TIF","N27_10",10,"N",27,10,15,-24,-18
"526","G:\BerkeleyEarthFunctions\Data\GlobeLand30_ATS2010_3/GlobeLand30_ATS2010_3/N27_15_2010LC030/N27_15_2010LC030_ATS.TIF","N27_15_2010LC030_ATS.TIF","N27_15",15,"N",27,15,20,-24,-18
"527","G:\BerkeleyEarthFunctions\Data\GlobeLand30_ATS2010_3/GlobeLand30_ATS2010_3/N27_25_2010LC030/N27_25_2010LC030_ATS.TIF","N27_25_2010LC030_ATS.TIF","N27_25",25,"N",27,25,30,-24,-18
"528","G:\BerkeleyEarthFunctions\Data\GlobeLand30_ATS2010_3/GlobeLand30_ATS2010_3/N28_05_2010LC030/N28_05_2010LC030_ATS.TIF","N28_05_2010LC030_ATS.TIF","N28_05",5,"N",28,5,10,-18,-12
"529","G:\BerkeleyEarthFunctions\Data\GlobeLand30_ATS2010_3/GlobeLand30_ATS2010_3/N28_10_2010LC030/N28_10_2010LC030_ATS.TIF","N28_10_2010LC030_ATS.TIF","N28_10",10,"N",28,10,15,-18,-12
"530","G:\BerkeleyEarthFunctions\Data\GlobeLand30_ATS2010_3/GlobeLand30_ATS2010_3/N28_15_2010LC030/N28_15_2010LC030_ATS.TIF","N28_15_2010LC030_ATS.TIF","N28_15",15,"N",28,15,20,-18,-12
"531","G:\BerkeleyEarthFunctions\Data\GlobeLand30_ATS2010_3/GlobeLand30_ATS2010_3/N28_25_2010LC030/N28_25_2010LC030_ATS.TIF","N28_25_2010LC030_ATS.TIF","N28_25",25,"N",28,25,30,-18,-12
"532","G:\BerkeleyEarthFunctions\Data\GlobeLand30_ATS2010_3/GlobeLand30_ATS2010_3/N28_30_2010LC030/N28_30_2010LC030_ATS.TIF","N28_30_2010LC030_ATS.TIF","N28_30",30,"N",28,30,35,-18,-12
"533","G:\BerkeleyEarthFunctions\Data\GlobeLand30_ATS2010_3/GlobeLand30_ATS2010_3/N29_00_2010LC030/N29_00_2010LC030_ATS.TIF","N29_00_2010LC030_ATS.TIF","N29_00",0,"N",29,0,5,-12,-6
"534","G:\BerkeleyEarthFunctions\Data\GlobeLand30_ATS2010_3/GlobeLand30_ATS2010_3/N29_05_2010LC030/N29_05_2010LC030_ATS.TIF","N29_05_2010LC030_ATS.TIF","N29_05",5,"N",29,5,10,-12,-6
"535","G:\BerkeleyEarthFunctions\Data\GlobeLand30_ATS2010_3/GlobeLand30_ATS2010_3/N29_10_2010LC030/N29_10_2010LC030_ATS.TIF","N29_10_2010LC030_ATS.TIF","N29_10",10,"N",29,10,15,-12,-6
"536","G:\BerkeleyEarthFunctions\Data\GlobeLand30_ATS2010_3/GlobeLand30_ATS2010_3/N29_15_2010LC030/N29_15_2010LC030_ATS.TIF","N29_15_2010LC030_ATS.TIF","N29_15",15,"N",29,15,20,-12,-6
"537","G:\BerkeleyEarthFunctions\Data\GlobeLand30_ATS2010_3/GlobeLand30_ATS2010_3/N29_20_2010LC030/N29_20_2010LC030_ATS.TIF","N29_20_2010LC030_ATS.TIF","N29_20",20,"N",29,20,25,-12,-6
"538","G:\BerkeleyEarthFunctions\Data\GlobeLand30_ATS2010_3/GlobeLand30_ATS2010_3/N29_25_2010LC030/N29_25_2010LC030_ATS.TIF","N29_25_2010LC030_ATS.TIF","N29_25",25,"N",29,25,30,-12,-6
"539","G:\BerkeleyEarthFunctions\Data\GlobeLand30_ATS2010_3/GlobeLand30_ATS2010_3/N29_30_2010LC030/N29_30_2010LC030_ATS.TIF","N29_30_2010LC030_ATS.TIF","N29_30",30,"N",29,30,35,-12,-6
"540","G:\BerkeleyEarthFunctions\Data\GlobeLand30_ATS2010_3/GlobeLand30_ATS2010_3/N29_35_2010LC030/N29_35_2010LC030_ATS.TIF","N29_35_2010LC030_ATS.TIF","N29_35",35,"N",29,35,40,-12,-6
"541","G:\BerkeleyEarthFunctions\Data\GlobeLand30_ATS2010_3/GlobeLand30_ATS2010_3/N30_00_2010LC030/N30_00_2010LC030_ATS.TIF","N30_00_2010LC030_ATS.TIF","N30_00",0,"N",30,0,5,-6,0
"542","G:\BerkeleyEarthFunctions\Data\GlobeLand30_ATS2010_3/GlobeLand30_ATS2010_3/N30_05_2010LC030/N30_05_2010LC030_ATS.TIF","N30_05_2010LC030_ATS.TIF","N30_05",5,"N",30,5,10,-6,0
"543","G:\BerkeleyEarthFunctions\Data\GlobeLand30_ATS2010_3/GlobeLand30_ATS2010_3/N30_10_2010LC030/N30_10_2010LC030_ATS.TIF","N30_10_2010LC030_ATS.TIF","N30_10",10,"N",30,10,15,-6,0
"544","G:\BerkeleyEarthFunctions\Data\GlobeLand30_ATS2010_3/GlobeLand30_ATS2010_3/N30_15_2010LC030/N30_15_2010LC030_ATS.TIF","N30_15_2010LC030_ATS.TIF","N30_15",15,"N",30,15,20,-6,0
"545","G:\BerkeleyEarthFunctions\Data\GlobeLand30_ATS2010_3/GlobeLand30_ATS2010_3/N30_25_2010LC030/N30_25_2010LC030_ATS.TIF","N30_25_2010LC030_ATS.TIF","N30_25",25,"N",30,25,30,-6,0
"546","G:\BerkeleyEarthFunctions\Data\GlobeLand30_ATS2010_3/GlobeLand30_ATS2010_3/N30_30_2010LC030/N30_30_2010LC030_ATS.TIF","N30_30_2010LC030_ATS.TIF","N30_30",30,"N",30,30,35,-6,0
"547","G:\BerkeleyEarthFunctions\Data\GlobeLand30_ATS2010_3/GlobeLand30_ATS2010_3/N30_35_2010LC030/N30_35_2010LC030_ATS.TIF","N30_35_2010LC030_ATS.TIF","N30_35",35,"N",30,35,40,-6,0
"548","G:\BerkeleyEarthFunctions\Data\GlobeLand30_ATS2010_3/GlobeLand30_ATS2010_3/N31_00_2010LC030/N31_00_2010LC030_ATS.TIF","N31_00_2010LC030_ATS.TIF","N31_00",0,"N",31,0,5,0,6
"549","G:\BerkeleyEarthFunctions\Data\GlobeLand30_ATS2010_3/GlobeLand30_ATS2010_3/N31_05_2010LC030/N31_05_2010LC030_ATS.TIF","N31_05_2010LC030_ATS.TIF","N31_05",5,"N",31,5,10,0,6
"550","G:\BerkeleyEarthFunctions\Data\GlobeLand30_ATS2010_3/GlobeLand30_ATS2010_3/N31_10_2010LC030/N31_10_2010LC030_ATS.TIF","N31_10_2010LC030_ATS.TIF","N31_10",10,"N",31,10,15,0,6
"551","G:\BerkeleyEarthFunctions\Data\GlobeLand30_ATS2010_3/GlobeLand30_ATS2010_3/N31_15_2010LC030/N31_15_2010LC030_ATS.TIF","N31_15_2010LC030_ATS.TIF","N31_15",15,"N",31,15,20,0,6
"552","G:\BerkeleyEarthFunctions\Data\GlobeLand30_ATS2010_3/GlobeLand30_ATS2010_3/N31_20_2010LC030/N31_20_2010LC030_ATS.TIF","N31_20_2010LC030_ATS.TIF","N31_20",20,"N",31,20,25,0,6
"553","G:\BerkeleyEarthFunctions\Data\GlobeLand30_ATS2010_3/GlobeLand30_ATS2010_3/N31_25_2010LC030/N31_25_2010LC030_ATS.TIF","N31_25_2010LC030_ATS.TIF","N31_25",25,"N",31,25,30,0,6
"554","G:\BerkeleyEarthFunctions\Data\GlobeLand30_ATS2010_3/GlobeLand30_ATS2010_3/N31_30_2010LC030/N31_30_2010LC030_ATS.TIF","N31_30_2010LC030_ATS.TIF","N31_30",30,"N",31,30,35,0,6
"555","G:\BerkeleyEarthFunctions\Data\GlobeLand30_ATS2010_3/GlobeLand30_ATS2010_3/N31_35_2010LC030/N31_35_2010LC030_ATS.TIF","N31_35_2010LC030_ATS.TIF","N31_35",35,"N",31,35,40,0,6
"556","G:\BerkeleyEarthFunctions\Data\GlobeLand30_ATS2010_3/GlobeLand30_ATS2010_3/N32_00_2010LC030/N32_00_2010LC030_ATS.TIF","N32_00_2010LC030_ATS.TIF","N32_00",0,"N",32,0,5,6,12
"557","G:\BerkeleyEarthFunctions\Data\GlobeLand30_ATS2010_3/GlobeLand30_ATS2010_3/N32_05_2010LC030/N32_05_2010LC030_ATS.TIF","N32_05_2010LC030_ATS.TIF","N32_05",5,"N",32,5,10,6,12
"558","G:\BerkeleyEarthFunctions\Data\GlobeLand30_ATS2010_3/GlobeLand30_ATS2010_3/N32_10_2010LC030/N32_10_2010LC030_ATS.TIF","N32_10_2010LC030_ATS.TIF","N32_10",10,"N",32,10,15,6,12
"559","G:\BerkeleyEarthFunctions\Data\GlobeLand30_ATS2010_3/GlobeLand30_ATS2010_3/N32_15_2010LC030/N32_15_2010LC030_ATS.TIF","N32_15_2010LC030_ATS.TIF","N32_15",15,"N",32,15,20,6,12
"560","G:\BerkeleyEarthFunctions\Data\GlobeLand30_ATS2010_3/GlobeLand30_ATS2010_3/N32_20_2010LC030/N32_20_2010LC030_ATS.TIF","N32_20_2010LC030_ATS.TIF","N32_20",20,"N",32,20,25,6,12
"561","G:\BerkeleyEarthFunctions\Data\GlobeLand30_ATS2010_3/GlobeLand30_ATS2010_3/N32_25_2010LC030/N32_25_2010LC030_ATS.TIF","N32_25_2010LC030_ATS.TIF","N32_25",25,"N",32,25,30,6,12
"562","G:\BerkeleyEarthFunctions\Data\GlobeLand30_ATS2010_3/GlobeLand30_ATS2010_3/N32_30_2010LC030/N32_30_2010LC030_ATS.TIF","N32_30_2010LC030_ATS.TIF","N32_30",30,"N",32,30,35,6,12
"563","G:\BerkeleyEarthFunctions\Data\GlobeLand30_ATS2010_3/GlobeLand30_ATS2010_3/N33_00_2010LC030/N33_00_2010LC030_ATS.TIF","N33_00_2010LC030_ATS.TIF","N33_00",0,"N",33,0,5,12,18
"564","G:\BerkeleyEarthFunctions\Data\GlobeLand30_ATS2010_3/GlobeLand30_ATS2010_3/N33_05_2010LC030/N33_05_2010LC030_ATS.TIF","N33_05_2010LC030_ATS.TIF","N33_05",5,"N",33,5,10,12,18
"565","G:\BerkeleyEarthFunctions\Data\GlobeLand30_ATS2010_3/GlobeLand30_ATS2010_3/N33_10_2010LC030/N33_10_2010LC030_ATS.TIF","N33_10_2010LC030_ATS.TIF","N33_10",10,"N",33,10,15,12,18
"566","G:\BerkeleyEarthFunctions\Data\GlobeLand30_ATS2010_3/GlobeLand30_ATS2010_3/N33_15_2010LC030/N33_15_2010LC030_ATS.TIF","N33_15_2010LC030_ATS.TIF","N33_15",15,"N",33,15,20,12,18
"567","G:\BerkeleyEarthFunctions\Data\GlobeLand30_ATS2010_3/GlobeLand30_ATS2010_3/N33_20_2010LC030/N33_20_2010LC030_ATS.TIF","N33_20_2010LC030_ATS.TIF","N33_20",20,"N",33,20,25,12,18
"568","G:\BerkeleyEarthFunctions\Data\GlobeLand30_ATS2010_3/GlobeLand30_ATS2010_3/N33_25_2010LC030/N33_25_2010LC030_ATS.TIF","N33_25_2010LC030_ATS.TIF","N33_25",25,"N",33,25,30,12,18
"569","G:\BerkeleyEarthFunctions\Data\GlobeLand30_ATS2010_3/GlobeLand30_ATS2010_3/N33_30_2010LC030/N33_30_2010LC030_ATS.TIF","N33_30_2010LC030_ATS.TIF","N33_30",30,"N",33,30,35,12,18
"570","G:\BerkeleyEarthFunctions\Data\GlobeLand30_ATS2010_3/GlobeLand30_ATS2010_3/N34_00_2010LC030/N34_00_2010LC030_ATS.TIF","N34_00_2010LC030_ATS.TIF","N34_00",0,"N",34,0,5,18,24
"571","G:\BerkeleyEarthFunctions\Data\GlobeLand30_ATS2010_3/GlobeLand30_ATS2010_3/N34_05_2010LC030/N34_05_2010LC030_ATS.TIF","N34_05_2010LC030_ATS.TIF","N34_05",5,"N",34,5,10,18,24
"572","G:\BerkeleyEarthFunctions\Data\GlobeLand30_ATS2010_3/GlobeLand30_ATS2010_3/N34_10_2010LC030/N34_10_2010LC030_ATS.TIF","N34_10_2010LC030_ATS.TIF","N34_10",10,"N",34,10,15,18,24
"573","G:\BerkeleyEarthFunctions\Data\GlobeLand30_ATS2010_3/GlobeLand30_ATS2010_3/N34_15_2010LC030/N34_15_2010LC030_ATS.TIF","N34_15_2010LC030_ATS.TIF","N34_15",15,"N",34,15,20,18,24
"574","G:\BerkeleyEarthFunctions\Data\GlobeLand30_ATS2010_3/GlobeLand30_ATS2010_3/N34_20_2010LC030/N34_20_2010LC030_ATS.TIF","N34_20_2010LC030_ATS.TIF","N34_20",20,"N",34,20,25,18,24
"575","G:\BerkeleyEarthFunctions\Data\GlobeLand30_ATS2010_3/GlobeLand30_ATS2010_3/N34_25_2010LC030/N34_25_2010LC030_ATS.TIF","N34_25_2010LC030_ATS.TIF","N34_25",25,"N",34,25,30,18,24
"576","G:\BerkeleyEarthFunctions\Data\GlobeLand30_ATS2010_3/GlobeLand30_ATS2010_3/N35_00_2010LC030/N35_00_2010LC030_ATS.TIF","N35_00_2010LC030_ATS.TIF","N35_00",0,"N",35,0,5,24,30
"577","G:\BerkeleyEarthFunctions\Data\GlobeLand30_ATS2010_3/GlobeLand30_ATS2010_3/N35_05_2010LC030/N35_05_2010LC030_ATS.TIF","N35_05_2010LC030_ATS.TIF","N35_05",5,"N",35,5,10,24,30
"578","G:\BerkeleyEarthFunctions\Data\GlobeLand30_ATS2010_3/GlobeLand30_ATS2010_3/N35_10_2010LC030/N35_10_2010LC030_ATS.TIF","N35_10_2010LC030_ATS.TIF","N35_10",10,"N",35,10,15,24,30
"579","G:\BerkeleyEarthFunctions\Data\GlobeLand30_ATS2010_3/GlobeLand30_ATS2010_3/N35_15_2010LC030/N35_15_2010LC030_ATS.TIF","N35_15_2010LC030_ATS.TIF","N35_15",15,"N",35,15,20,24,30
"580","G:\BerkeleyEarthFunctions\Data\GlobeLand30_ATS2010_3/GlobeLand30_ATS2010_3/N35_20_2010LC030/N35_20_2010LC030_ATS.TIF","N35_20_2010LC030_ATS.TIF","N35_20",20,"N",35,20,25,24,30
"581","G:\BerkeleyEarthFunctions\Data\GlobeLand30_ATS2010_3/GlobeLand30_ATS2010_3/N35_25_2010LC030/N35_25_2010LC030_ATS.TIF","N35_25_2010LC030_ATS.TIF","N35_25",25,"N",35,25,30,24,30
"582","G:\BerkeleyEarthFunctions\Data\GlobeLand30_ATS2010_3/GlobeLand30_ATS2010_3/N36_00_2010LC030/N36_00_2010LC030_ATS.TIF","N36_00_2010LC030_ATS.TIF","N36_00",0,"N",36,0,5,30,36
"583","G:\BerkeleyEarthFunctions\Data\GlobeLand30_ATS2010_3/GlobeLand30_ATS2010_3/N36_05_2010LC030/N36_05_2010LC030_ATS.TIF","N36_05_2010LC030_ATS.TIF","N36_05",5,"N",36,5,10,30,36
"584","G:\BerkeleyEarthFunctions\Data\GlobeLand30_ATS2010_3/GlobeLand30_ATS2010_3/N36_10_2010LC030/N36_10_2010LC030_ATS.TIF","N36_10_2010LC030_ATS.TIF","N36_10",10,"N",36,10,15,30,36
"585","G:\BerkeleyEarthFunctions\Data\GlobeLand30_ATS2010_3/GlobeLand30_ATS2010_3/N36_15_2010LC030/N36_15_2010LC030_ATS.TIF","N36_15_2010LC030_ATS.TIF","N36_15",15,"N",36,15,20,30,36
"586","G:\BerkeleyEarthFunctions\Data\GlobeLand30_ATS2010_3/GlobeLand30_ATS2010_3/N36_20_2010LC030/N36_20_2010LC030_ATS.TIF","N36_20_2010LC030_ATS.TIF","N36_20",20,"N",36,20,25,30,36
"587","G:\BerkeleyEarthFunctions\Data\GlobeLand30_ATS2010_3/GlobeLand30_ATS2010_3/N36_25_2010LC030/N36_25_2010LC030_ATS.TIF","N36_25_2010LC030_ATS.TIF","N36_25",25,"N",36,25,30,30,36
"588","G:\BerkeleyEarthFunctions\Data\GlobeLand30_ATS2010_3/GlobeLand30_ATS2010_3/N36_30_2010LC030/N36_30_2010LC030_ATS.TIF","N36_30_2010LC030_ATS.TIF","N36_30",30,"N",36,30,35,30,36
"589","G:\BerkeleyEarthFunctions\Data\GlobeLand30_ATS2010_3/GlobeLand30_ATS2010_3/N37_00_2010LC030/N37_00_2010LC030_ATS.TIF","N37_00_2010LC030_ATS.TIF","N37_00",0,"N",37,0,5,36,42
"590","G:\BerkeleyEarthFunctions\Data\GlobeLand30_ATS2010_3/GlobeLand30_ATS2010_3/N37_05_2010LC030/N37_05_2010LC030_ATS.TIF","N37_05_2010LC030_ATS.TIF","N37_05",5,"N",37,5,10,36,42
"591","G:\BerkeleyEarthFunctions\Data\GlobeLand30_ATS2010_3/GlobeLand30_ATS2010_3/N37_10_2010LC030/N37_10_2010LC030_ATS.TIF","N37_10_2010LC030_ATS.TIF","N37_10",10,"N",37,10,15,36,42
"592","G:\BerkeleyEarthFunctions\Data\GlobeLand30_ATS2010_3/GlobeLand30_ATS2010_3/N37_15_2010LC030/N37_15_2010LC030_ATS.TIF","N37_15_2010LC030_ATS.TIF","N37_15",15,"N",37,15,20,36,42
"593","G:\BerkeleyEarthFunctions\Data\GlobeLand30_ATS2010_3/GlobeLand30_ATS2010_3/N38_00_2010LC030/N38_00_2010LC030_ATS.TIF","N38_00_2010LC030_ATS.TIF","N38_00",0,"N",38,0,5,42,48
"594","G:\BerkeleyEarthFunctions\Data\GlobeLand30_ATS2010_3/GlobeLand30_ATS2010_3/N38_05_2010LC030/N38_05_2010LC030_ATS.TIF","N38_05_2010LC030_ATS.TIF","N38_05",5,"N",38,5,10,42,48
"595","G:\BerkeleyEarthFunctions\Data\GlobeLand30_ATS2010_3/GlobeLand30_ATS2010_3/N39_00_2010LC030/N39_00_2010LC030_ATS.TIF","N39_00_2010LC030_ATS.TIF","N39_00",0,"N",39,0,5,48,54
"596","G:\BerkeleyEarthFunctions\Data\GlobeLand30_ATS2010_3/GlobeLand30_ATS2010_3/N39_05_2010LC030/N39_05_2010LC030_ATS.TIF","N39_05_2010LC030_ATS.TIF","N39_05",5,"N",39,5,10,48,54
"597","G:\BerkeleyEarthFunctions\Data\GlobeLand30_ATS2010_3/GlobeLand30_ATS2010_3/N53_05_2010LC030/N53_05_2010LC030_ATS.TIF","N53_05_2010LC030_ATS.TIF","N53_05",5,"N",53,5,10,132,138
"598","G:\BerkeleyEarthFunctions\Data\GlobeLand30_ATS2010_3/GlobeLand30_ATS2010_3/N54_05_2010LC030/N54_05_2010LC030_ATS.TIF","N54_05_2010LC030_ATS.TIF","N54_05",5,"N",54,5,10,138,144
"599","G:\BerkeleyEarthFunctions\Data\GlobeLand30_ATS2010_3/GlobeLand30_ATS2010_3/N54_10_2010LC030/N54_10_2010LC030_ATS.TIF","N54_10_2010LC030_ATS.TIF","N54_10",10,"N",54,10,15,138,144
"600","G:\BerkeleyEarthFunctions\Data\GlobeLand30_ATS2010_3/GlobeLand30_ATS2010_3/N55_05_2010LC030/N55_05_2010LC030_ATS.TIF","N55_05_2010LC030_ATS.TIF","N55_05",5,"N",55,5,10,144,150
"601","G:\BerkeleyEarthFunctions\Data\GlobeLand30_ATS2010_3/GlobeLand30_ATS2010_3/N55_10_2010LC030/N55_10_2010LC030_ATS.TIF","N55_10_2010LC030_ATS.TIF","N55_10",10,"N",55,10,15,144,150
"602","G:\BerkeleyEarthFunctions\Data\GlobeLand30_ATS2010_3/GlobeLand30_ATS2010_3/N55_15_2010LC030/N55_15_2010LC030_ATS.TIF","N55_15_2010LC030_ATS.TIF","N55_15",15,"N",55,15,20,144,150
"603","G:\BerkeleyEarthFunctions\Data\GlobeLand30_ATS2010_3/GlobeLand30_ATS2010_3/N56_05_2010LC030/N56_05_2010LC030_ATS.TIF","N56_05_2010LC030_ATS.TIF","N56_05",5,"N",56,5,10,150,156
"604","G:\BerkeleyEarthFunctions\Data\GlobeLand30_ATS2010_3/GlobeLand30_ATS2010_3/N57_05_2010LC030/N57_05_2010LC030_ATS.TIF","N57_05_2010LC030_ATS.TIF","N57_05",5,"N",57,5,10,156,162
"605","G:\BerkeleyEarthFunctions\Data\GlobeLand30_ATS2010_3/GlobeLand30_ATS2010_3/N58_05_2010LC030/N58_05_2010LC030_ATS.TIF","N58_05_2010LC030_ATS.TIF","N58_05",5,"N",58,5,10,162,168
"606","G:\BerkeleyEarthFunctions\Data\GlobeLand30_ATS2010_3/GlobeLand30_ATS2010_3/N58_10_2010LC030/N58_10_2010LC030_ATS.TIF","N58_10_2010LC030_ATS.TIF","N58_10",10,"N",58,10,15,162,168
"607","G:\BerkeleyEarthFunctions\Data\GlobeLand30_ATS2010_3/GlobeLand30_ATS2010_3/N58_15_2010LC030/N58_15_2010LC030_ATS.TIF","N58_15_2010LC030_ATS.TIF","N58_15",15,"N",58,15,20,162,168
"608","G:\BerkeleyEarthFunctions\Data\GlobeLand30_ATS2010_3/GlobeLand30_ATS2010_3/N59_00_2010LC030/N59_00_2010LC030_ATS.TIF","N59_00_2010LC030_ATS.TIF","N59_00",0,"N",59,0,5,168,174
"609","G:\BerkeleyEarthFunctions\Data\GlobeLand30_ATS2010_3/GlobeLand30_ATS2010_3/N59_05_2010LC030/N59_05_2010LC030_ATS.TIF","N59_05_2010LC030_ATS.TIF","N59_05",5,"N",59,5,10,168,174
"610","G:\BerkeleyEarthFunctions\Data\GlobeLand30_ATS2010_3/GlobeLand30_ATS2010_3/N59_10_2010LC030/N59_10_2010LC030_ATS.TIF","N59_10_2010LC030_ATS.TIF","N59_10",10,"N",59,10,15,168,174
"611","G:\BerkeleyEarthFunctions\Data\GlobeLand30_ATS2010_3/GlobeLand30_ATS2010_3/S01_10_2010LC030/S01_10_2010LC030_ATS.TIF","S01_10_2010LC030_ATS.TIF","S01_10",-10,"S",1,-15,-10,-180,-174
"612","G:\BerkeleyEarthFunctions\Data\GlobeLand30_ATS2010_3/GlobeLand30_ATS2010_3/S01_15_2010LC030/S01_15_2010LC030_ATS.TIF","S01_15_2010LC030_ATS.TIF","S01_15",-15,"S",1,-20,-15,-180,-174
"613","G:\BerkeleyEarthFunctions\Data\GlobeLand30_ATS2010_3/GlobeLand30_ATS2010_3/S01_20_2010LC030/S01_20_2010LC030_ATS.TIF","S01_20_2010LC030_ATS.TIF","S01_20",-20,"S",1,-25,-20,-180,-174
"614","G:\BerkeleyEarthFunctions\Data\GlobeLand30_ATS2010_3/GlobeLand30_ATS2010_3/S01_40_2010LC030/S01_40_2010LC030_ATS.TIF","S01_40_2010LC030_ATS.TIF","S01_40",-40,"S",1,-45,-40,-180,-174
"615","G:\BerkeleyEarthFunctions\Data\GlobeLand30_ATS2010_3/GlobeLand30_ATS2010_3/S02_00_2010LC030/S02_00_2010LC030_ATS.TIF","S02_00_2010LC030_ATS.TIF","S02_00",0,"S",2,-5,0,-174,-168
"616","G:\BerkeleyEarthFunctions\Data\GlobeLand30_ATS2010_3/GlobeLand30_ATS2010_3/S02_10_2010LC030/S02_10_2010LC030_ATS.TIF","S02_10_2010LC030_ATS.TIF","S02_10",-10,"S",2,-15,-10,-174,-168
"617","G:\BerkeleyEarthFunctions\Data\GlobeLand30_ATS2010_3/GlobeLand30_ATS2010_3/S02_15_2010LC030/S02_15_2010LC030_ATS.TIF","S02_15_2010LC030_ATS.TIF","S02_15",-15,"S",2,-20,-15,-174,-168
"618","G:\BerkeleyEarthFunctions\Data\GlobeLand30_ATS2010_3/GlobeLand30_ATS2010_3/S03_10_2010LC030/S03_10_2010LC030_ATS.TIF","S03_10_2010LC030_ATS.TIF","S03_10",-10,"S",3,-15,-10,-168,-162
"619","G:\BerkeleyEarthFunctions\Data\GlobeLand30_ATS2010_3/GlobeLand30_ATS2010_3/S03_15_2010LC030/S03_15_2010LC030_ATS.TIF","S03_15_2010LC030_ATS.TIF","S03_15",-15,"S",3,-20,-15,-168,-162
"620","G:\BerkeleyEarthFunctions\Data\GlobeLand30_ATS2010_3/GlobeLand30_ATS2010_3/S04_10_2010LC030/S04_10_2010LC030_ATS.TIF","S04_10_2010LC030_ATS.TIF","S04_10",-10,"S",4,-15,-10,-162,-156
"621","G:\BerkeleyEarthFunctions\Data\GlobeLand30_ATS2010_3/GlobeLand30_ATS2010_3/S04_15_2010LC030/S04_15_2010LC030_ATS.TIF","S04_15_2010LC030_ATS.TIF","S04_15",-15,"S",4,-20,-15,-162,-156
"622","G:\BerkeleyEarthFunctions\Data\GlobeLand30_ATS2010_3/GlobeLand30_ATS2010_3/S04_20_2010LC030/S04_20_2010LC030_ATS.TIF","S04_20_2010LC030_ATS.TIF","S04_20",-20,"S",4,-25,-20,-162,-156
"623","G:\BerkeleyEarthFunctions\Data\GlobeLand30_ATS2010_3/GlobeLand30_ATS2010_3/S05_15_2010LC030/S05_15_2010LC030_ATS.TIF","S05_15_2010LC030_ATS.TIF","S05_15",-15,"S",5,-20,-15,-156,-150
"624","G:\BerkeleyEarthFunctions\Data\GlobeLand30_ATS2010_3/GlobeLand30_ATS2010_3/S05_20_2010LC030/S05_20_2010LC030_ATS.TIF","S05_20_2010LC030_ATS.TIF","S05_20",-20,"S",5,-25,-20,-156,-150
"625","G:\BerkeleyEarthFunctions\Data\GlobeLand30_ATS2010_3/GlobeLand30_ATS2010_3/S06_10_2010LC030/S06_10_2010LC030_ATS.TIF","S06_10_2010LC030_ATS.TIF","S06_10",-10,"S",6,-15,-10,-150,-144
"626","G:\BerkeleyEarthFunctions\Data\GlobeLand30_ATS2010_3/GlobeLand30_ATS2010_3/S06_15_2010LC030/S06_15_2010LC030_ATS.TIF","S06_15_2010LC030_ATS.TIF","S06_15",-15,"S",6,-20,-15,-150,-144
"627","G:\BerkeleyEarthFunctions\Data\GlobeLand30_ATS2010_3/GlobeLand30_ATS2010_3/S06_20_2010LC030/S06_20_2010LC030_ATS.TIF","S06_20_2010LC030_ATS.TIF","S06_20",-20,"S",6,-25,-20,-150,-144
"628","G:\BerkeleyEarthFunctions\Data\GlobeLand30_ATS2010_3/GlobeLand30_ATS2010_3/S06_25_2010LC030/S06_25_2010LC030_ATS.TIF","S06_25_2010LC030_ATS.TIF","S06_25",-25,"S",6,-30,-25,-150,-144
"629","G:\BerkeleyEarthFunctions\Data\GlobeLand30_ATS2010_3/GlobeLand30_ATS2010_3/S07_05_2010LC030/S07_05_2010LC030_ATS.TIF","S07_05_2010LC030_ATS.TIF","S07_05",-5,"S",7,-10,-5,-144,-138
"630","G:\BerkeleyEarthFunctions\Data\GlobeLand30_ATS2010_3/GlobeLand30_ATS2010_3/S07_10_2010LC030/S07_10_2010LC030_ATS.TIF","S07_10_2010LC030_ATS.TIF","S07_10",-10,"S",7,-15,-10,-144,-138
"631","G:\BerkeleyEarthFunctions\Data\GlobeLand30_ATS2010_3/GlobeLand30_ATS2010_3/S07_15_2010LC030/S07_15_2010LC030_ATS.TIF","S07_15_2010LC030_ATS.TIF","S07_15",-15,"S",7,-20,-15,-144,-138
"632","G:\BerkeleyEarthFunctions\Data\GlobeLand30_ATS2010_3/GlobeLand30_ATS2010_3/S07_20_2010LC030/S07_20_2010LC030_ATS.TIF","S07_20_2010LC030_ATS.TIF","S07_20",-20,"S",7,-25,-20,-144,-138
"633","G:\BerkeleyEarthFunctions\Data\GlobeLand30_ATS2010_3/GlobeLand30_ATS2010_3/S08_20_2010LC030/S08_20_2010LC030_ATS.TIF","S08_20_2010LC030_ATS.TIF","S08_20",-20,"S",8,-25,-20,-138,-132
"634","G:\BerkeleyEarthFunctions\Data\GlobeLand30_ATS2010_3/GlobeLand30_ATS2010_3/S28_35_2010LC030/S28_35_2010LC030_ATS.TIF","S28_35_2010LC030_ATS.TIF","S28_35",-35,"S",28,-40,-35,-18,-12
"635","G:\BerkeleyEarthFunctions\Data\GlobeLand30_ATS2010_3/GlobeLand30_ATS2010_3/S32_00_2010LC030/S32_00_2010LC030_ATS.TIF","S32_00_2010LC030_ATS.TIF","S32_00",0,"S",32,-5,0,6,12
"636","G:\BerkeleyEarthFunctions\Data\GlobeLand30_ATS2010_3/GlobeLand30_ATS2010_3/S32_15_2010LC030/S32_15_2010LC030_ATS.TIF","S32_15_2010LC030_ATS.TIF","S32_15",-15,"S",32,-20,-15,6,12
"637","G:\BerkeleyEarthFunctions\Data\GlobeLand30_ATS2010_3/GlobeLand30_ATS2010_3/S33_00_2010LC030/S33_00_2010LC030_ATS.TIF","S33_00_2010LC030_ATS.TIF","S33_00",0,"S",33,-5,0,12,18
"638","G:\BerkeleyEarthFunctions\Data\GlobeLand30_ATS2010_3/GlobeLand30_ATS2010_3/S33_05_2010LC030/S33_05_2010LC030_ATS.TIF","S33_05_2010LC030_ATS.TIF","S33_05",-5,"S",33,-10,-5,12,18
"639","G:\BerkeleyEarthFunctions\Data\GlobeLand30_ATS2010_3/GlobeLand30_ATS2010_3/S33_10_2010LC030/S33_10_2010LC030_ATS.TIF","S33_10_2010LC030_ATS.TIF","S33_10",-10,"S",33,-15,-10,12,18
"640","G:\BerkeleyEarthFunctions\Data\GlobeLand30_ATS2010_3/GlobeLand30_ATS2010_3/S33_15_2010LC030/S33_15_2010LC030_ATS.TIF","S33_15_2010LC030_ATS.TIF","S33_15",-15,"S",33,-20,-15,12,18
"641","G:\BerkeleyEarthFunctions\Data\GlobeLand30_ATS2010_3/GlobeLand30_ATS2010_3/S33_20_2010LC030/S33_20_2010LC030_ATS.TIF","S33_20_2010LC030_ATS.TIF","S33_20",-20,"S",33,-25,-20,12,18
"642","G:\BerkeleyEarthFunctions\Data\GlobeLand30_ATS2010_3/GlobeLand30_ATS2010_3/S33_25_2010LC030/S33_25_2010LC030_ATS.TIF","S33_25_2010LC030_ATS.TIF","S33_25",-25,"S",33,-30,-25,12,18
"643","G:\BerkeleyEarthFunctions\Data\GlobeLand30_ATS2010_3/GlobeLand30_ATS2010_3/S33_30_2010LC030/S33_30_2010LC030_ATS.TIF","S33_30_2010LC030_ATS.TIF","S33_30",-30,"S",33,-35,-30,12,18
"644","G:\BerkeleyEarthFunctions\Data\GlobeLand30_ATS2010_3/GlobeLand30_ATS2010_3/S34_00_2010LC030/S34_00_2010LC030_ATS.TIF","S34_00_2010LC030_ATS.TIF","S34_00",0,"S",34,-5,0,18,24
"645","G:\BerkeleyEarthFunctions\Data\GlobeLand30_ATS2010_3/GlobeLand30_ATS2010_3/S34_05_2010LC030/S34_05_2010LC030_ATS.TIF","S34_05_2010LC030_ATS.TIF","S34_05",-5,"S",34,-10,-5,18,24
"646","G:\BerkeleyEarthFunctions\Data\GlobeLand30_ATS2010_3/GlobeLand30_ATS2010_3/S34_10_2010LC030/S34_10_2010LC030_ATS.TIF","S34_10_2010LC030_ATS.TIF","S34_10",-10,"S",34,-15,-10,18,24
"647","G:\BerkeleyEarthFunctions\Data\GlobeLand30_ATS2010_3/GlobeLand30_ATS2010_3/S34_15_2010LC030/S34_15_2010LC030_ATS.TIF","S34_15_2010LC030_ATS.TIF","S34_15",-15,"S",34,-20,-15,18,24
"648","G:\BerkeleyEarthFunctions\Data\GlobeLand30_ATS2010_3/GlobeLand30_ATS2010_3/S34_20_2010LC030/S34_20_2010LC030_ATS.TIF","S34_20_2010LC030_ATS.TIF","S34_20",-20,"S",34,-25,-20,18,24
"649","G:\BerkeleyEarthFunctions\Data\GlobeLand30_ATS2010_3/GlobeLand30_ATS2010_3/S34_25_2010LC030/S34_25_2010LC030_ATS.TIF","S34_25_2010LC030_ATS.TIF","S34_25",-25,"S",34,-30,-25,18,24
"650","G:\BerkeleyEarthFunctions\Data\GlobeLand30_ATS2010_3/GlobeLand30_ATS2010_3/S34_30_2010LC030/S34_30_2010LC030_ATS.TIF","S34_30_2010LC030_ATS.TIF","S34_30",-30,"S",34,-35,-30,18,24
"651","G:\BerkeleyEarthFunctions\Data\GlobeLand30_ATS2010_3/GlobeLand30_ATS2010_3/S35_00_2010LC030/S35_00_2010LC030_ATS.TIF","S35_00_2010LC030_ATS.TIF","S35_00",0,"S",35,-5,0,24,30
"652","G:\BerkeleyEarthFunctions\Data\GlobeLand30_ATS2010_3/GlobeLand30_ATS2010_3/S35_05_2010LC030/S35_05_2010LC030_ATS.TIF","S35_05_2010LC030_ATS.TIF","S35_05",-5,"S",35,-10,-5,24,30
"653","G:\BerkeleyEarthFunctions\Data\GlobeLand30_ATS2010_3/GlobeLand30_ATS2010_3/S35_10_2010LC030/S35_10_2010LC030_ATS.TIF","S35_10_2010LC030_ATS.TIF","S35_10",-10,"S",35,-15,-10,24,30
"654","G:\BerkeleyEarthFunctions\Data\GlobeLand30_ATS2010_3/GlobeLand30_ATS2010_3/S35_15_2010LC030/S35_15_2010LC030_ATS.TIF","S35_15_2010LC030_ATS.TIF","S35_15",-15,"S",35,-20,-15,24,30
"655","G:\BerkeleyEarthFunctions\Data\GlobeLand30_ATS2010_3/GlobeLand30_ATS2010_3/S35_20_2010LC030/S35_20_2010LC030_ATS.TIF","S35_20_2010LC030_ATS.TIF","S35_20",-20,"S",35,-25,-20,24,30
"656","G:\BerkeleyEarthFunctions\Data\GlobeLand30_ATS2010_3/GlobeLand30_ATS2010_3/S35_25_2010LC030/S35_25_2010LC030_ATS.TIF","S35_25_2010LC030_ATS.TIF","S35_25",-25,"S",35,-30,-25,24,30
"657","G:\BerkeleyEarthFunctions\Data\GlobeLand30_ATS2010_3/GlobeLand30_ATS2010_3/S35_30_2010LC030/S35_30_2010LC030_ATS.TIF","S35_30_2010LC030_ATS.TIF","S35_30",-30,"S",35,-35,-30,24,30
"658","G:\BerkeleyEarthFunctions\Data\GlobeLand30_ATS2010_3/GlobeLand30_ATS2010_3/S36_00_2010LC030/S36_00_2010LC030_ATS.TIF","S36_00_2010LC030_ATS.TIF","S36_00",0,"S",36,-5,0,30,36
"659","G:\BerkeleyEarthFunctions\Data\GlobeLand30_ATS2010_3/GlobeLand30_ATS2010_3/S36_05_2010LC030/S36_05_2010LC030_ATS.TIF","S36_05_2010LC030_ATS.TIF","S36_05",-5,"S",36,-10,-5,30,36
"660","G:\BerkeleyEarthFunctions\Data\GlobeLand30_ATS2010_3/GlobeLand30_ATS2010_3/S36_10_2010LC030/S36_10_2010LC030_ATS.TIF","S36_10_2010LC030_ATS.TIF","S36_10",-10,"S",36,-15,-10,30,36
"661","G:\BerkeleyEarthFunctions\Data\GlobeLand30_ATS2010_3/GlobeLand30_ATS2010_3/S36_15_2010LC030/S36_15_2010LC030_ATS.TIF","S36_15_2010LC030_ATS.TIF","S36_15",-15,"S",36,-20,-15,30,36
"662","G:\BerkeleyEarthFunctions\Data\GlobeLand30_ATS2010_3/GlobeLand30_ATS2010_3/S36_20_2010LC030/S36_20_2010LC030_ATS.TIF","S36_20_2010LC030_ATS.TIF","S36_20",-20,"S",36,-25,-20,30,36
"663","G:\BerkeleyEarthFunctions\Data\GlobeLand30_ATS2010_3/GlobeLand30_ATS2010_3/S36_25_2010LC030/S36_25_2010LC030_ATS.TIF","S36_25_2010LC030_ATS.TIF","S36_25",-25,"S",36,-30,-25,30,36
"664","G:\BerkeleyEarthFunctions\Data\GlobeLand30_ATS2010_3/GlobeLand30_ATS2010_3/S36_30_2010LC030/S36_30_2010LC030_ATS.TIF","S36_30_2010LC030_ATS.TIF","S36_30",-30,"S",36,-35,-30,30,36
"665","G:\BerkeleyEarthFunctions\Data\GlobeLand30_ATS2010_3/GlobeLand30_ATS2010_3/S37_00_2010LC030/S37_00_2010LC030_ATS.TIF","S37_00_2010LC030_ATS.TIF","S37_00",0,"S",37,-5,0,36,42
"666","G:\BerkeleyEarthFunctions\Data\GlobeLand30_ATS2010_3/GlobeLand30_ATS2010_3/S37_05_2010LC030/S37_05_2010LC030_ATS.TIF","S37_05_2010LC030_ATS.TIF","S37_05",-5,"S",37,-10,-5,36,42
"667","G:\BerkeleyEarthFunctions\Data\GlobeLand30_ATS2010_3/GlobeLand30_ATS2010_3/S37_10_2010LC030/S37_10_2010LC030_ATS.TIF","S37_10_2010LC030_ATS.TIF","S37_10",-10,"S",37,-15,-10,36,42
"668","G:\BerkeleyEarthFunctions\Data\GlobeLand30_ATS2010_3/GlobeLand30_ATS2010_3/S37_15_2010LC030/S37_15_2010LC030_ATS.TIF","S37_15_2010LC030_ATS.TIF","S37_15",-15,"S",37,-20,-15,36,42
"669","G:\BerkeleyEarthFunctions\Data\GlobeLand30_ATS2010_3/GlobeLand30_ATS2010_3/S38_00_2010LC030/S38_00_2010LC030_ATS.TIF","S38_00_2010LC030_ATS.TIF","S38_00",0,"S",38,-5,0,42,48
"670","G:\BerkeleyEarthFunctions\Data\GlobeLand30_ATS2010_3/GlobeLand30_ATS2010_3/S38_05_2010LC030/S38_05_2010LC030_ATS.TIF","S38_05_2010LC030_ATS.TIF","S38_05",-5,"S",38,-10,-5,42,48
"671","G:\BerkeleyEarthFunctions\Data\GlobeLand30_ATS2010_3/GlobeLand30_ATS2010_3/S38_10_2010LC030/S38_10_2010LC030_ATS.TIF","S38_10_2010LC030_ATS.TIF","S38_10",-10,"S",38,-15,-10,42,48
"672","G:\BerkeleyEarthFunctions\Data\GlobeLand30_ATS2010_3/GlobeLand30_ATS2010_3/S38_15_2010LC030/S38_15_2010LC030_ATS.TIF","S38_15_2010LC030_ATS.TIF","S38_15",-15,"S",38,-20,-15,42,48
"673","G:\BerkeleyEarthFunctions\Data\GlobeLand30_ATS2010_3/GlobeLand30_ATS2010_3/S38_20_2010LC030/S38_20_2010LC030_ATS.TIF","S38_20_2010LC030_ATS.TIF","S38_20",-20,"S",38,-25,-20,42,48
"674","G:\BerkeleyEarthFunctions\Data\GlobeLand30_ATS2010_3/GlobeLand30_ATS2010_3/S38_25_2010LC030/S38_25_2010LC030_ATS.TIF","S38_25_2010LC030_ATS.TIF","S38_25",-25,"S",38,-30,-25,42,48
"675","G:\BerkeleyEarthFunctions\Data\GlobeLand30_ATS2010_3/GlobeLand30_ATS2010_3/S39_05_2010LC030/S39_05_2010LC030_ATS.TIF","S39_05_2010LC030_ATS.TIF","S39_05",-5,"S",39,-10,-5,48,54
"676","G:\BerkeleyEarthFunctions\Data\GlobeLand30_ATS2010_3/GlobeLand30_ATS2010_3/S39_10_2010LC030/S39_10_2010LC030_ATS.TIF","S39_10_2010LC030_ATS.TIF","S39_10",-10,"S",39,-15,-10,48,54
"677","G:\BerkeleyEarthFunctions\Data\GlobeLand30_ATS2010_3/GlobeLand30_ATS2010_3/S39_15_2010LC030/S39_15_2010LC030_ATS.TIF","S39_15_2010LC030_ATS.TIF","S39_15",-15,"S",39,-20,-15,48,54
"678","G:\BerkeleyEarthFunctions\Data\GlobeLand30_ATS2010_3/GlobeLand30_ATS2010_3/S39_20_2010LC030/S39_20_2010LC030_ATS.TIF","S39_20_2010LC030_ATS.TIF","S39_20",-20,"S",39,-25,-20,48,54
"679","G:\BerkeleyEarthFunctions\Data\GlobeLand30_ATS2010_3/GlobeLand30_ATS2010_3/S40_00_2010LC030/S40_00_2010LC030_ATS.TIF","S40_00_2010LC030_ATS.TIF","S40_00",0,"S",40,-5,0,54,60
"680","G:\BerkeleyEarthFunctions\Data\GlobeLand30_ATS2010_3/GlobeLand30_ATS2010_3/S40_05_2010LC030/S40_05_2010LC030_ATS.TIF","S40_05_2010LC030_ATS.TIF","S40_05",-5,"S",40,-10,-5,54,60
"681","G:\BerkeleyEarthFunctions\Data\GlobeLand30_ATS2010_3/GlobeLand30_ATS2010_3/S40_10_2010LC030/S40_10_2010LC030_ATS.TIF","S40_10_2010LC030_ATS.TIF","S40_10",-10,"S",40,-15,-10,54,60
"682","G:\BerkeleyEarthFunctions\Data\GlobeLand30_ATS2010_3/GlobeLand30_ATS2010_3/S40_15_2010LC030/S40_15_2010LC030_ATS.TIF","S40_15_2010LC030_ATS.TIF","S40_15",-15,"S",40,-20,-15,54,60
"683","G:\BerkeleyEarthFunctions\Data\GlobeLand30_ATS2010_3/GlobeLand30_ATS2010_3/S40_20_2010LC030/S40_20_2010LC030_ATS.TIF","S40_20_2010LC030_ATS.TIF","S40_20",-20,"S",40,-25,-20,54,60
"684","G:\BerkeleyEarthFunctions\Data\GlobeLand30_ATS2010_3/GlobeLand30_ATS2010_3/S47_10_2010LC030/S47_10_2010LC030_ATS.TIF","S47_10_2010LC030_ATS.TIF","S47_10",-10,"S",47,-15,-10,96,102
"685","G:\BerkeleyEarthFunctions\Data\GlobeLand30_ATS2010_3/GlobeLand30_ATS2010_3/S49_20_2010LC030/S49_20_2010LC030_ATS.TIF","S49_20_2010LC030_ATS.TIF","S49_20",-20,"S",49,-25,-20,108,114
"686","G:\BerkeleyEarthFunctions\Data\GlobeLand30_ATS2010_3/GlobeLand30_ATS2010_3/S49_25_2010LC030/S49_25_2010LC030_ATS.TIF","S49_25_2010LC030_ATS.TIF","S49_25",-25,"S",49,-30,-25,108,114
"687","G:\BerkeleyEarthFunctions\Data\GlobeLand30_ATS2010_3/GlobeLand30_ATS2010_3/S50_20_2010LC030/S50_20_2010LC030_ATS.TIF","S50_20_2010LC030_ATS.TIF","S50_20",-20,"S",50,-25,-20,114,120
"688","G:\BerkeleyEarthFunctions\Data\GlobeLand30_ATS2010_3/GlobeLand30_ATS2010_3/S50_25_2010LC030/S50_25_2010LC030_ATS.TIF","S50_25_2010LC030_ATS.TIF","S50_25",-25,"S",50,-30,-25,114,120
"689","G:\BerkeleyEarthFunctions\Data\GlobeLand30_ATS2010_3/GlobeLand30_ATS2010_3/S50_30_2010LC030/S50_30_2010LC030_ATS.TIF","S50_30_2010LC030_ATS.TIF","S50_30",-30,"S",50,-35,-30,114,120
"690","G:\BerkeleyEarthFunctions\Data\GlobeLand30_ATS2010_3/GlobeLand30_ATS2010_3/S50_35_2010LC030/S50_35_2010LC030_ATS.TIF","S50_35_2010LC030_ATS.TIF","S50_35",-35,"S",50,-40,-35,114,120
"691","G:\BerkeleyEarthFunctions\Data\GlobeLand30_ATS2010_3/GlobeLand30_ATS2010_3/S51_10_2010LC030/S51_10_2010LC030_ATS.TIF","S51_10_2010LC030_ATS.TIF","S51_10",-10,"S",51,-15,-10,120,126
"692","G:\BerkeleyEarthFunctions\Data\GlobeLand30_ATS2010_3/GlobeLand30_ATS2010_3/S51_15_2010LC030/S51_15_2010LC030_ATS.TIF","S51_15_2010LC030_ATS.TIF","S51_15",-15,"S",51,-20,-15,120,126
"693","G:\BerkeleyEarthFunctions\Data\GlobeLand30_ATS2010_3/GlobeLand30_ATS2010_3/S51_20_2010LC030/S51_20_2010LC030_ATS.TIF","S51_20_2010LC030_ATS.TIF","S51_20",-20,"S",51,-25,-20,120,126
"694","G:\BerkeleyEarthFunctions\Data\GlobeLand30_ATS2010_3/GlobeLand30_ATS2010_3/S51_25_2010LC030/S51_25_2010LC030_ATS.TIF","S51_25_2010LC030_ATS.TIF","S51_25",-25,"S",51,-30,-25,120,126
"695","G:\BerkeleyEarthFunctions\Data\GlobeLand30_ATS2010_3/GlobeLand30_ATS2010_3/S51_30_2010LC030/S51_30_2010LC030_ATS.TIF","S51_30_2010LC030_ATS.TIF","S51_30",-30,"S",51,-35,-30,120,126
"696","G:\BerkeleyEarthFunctions\Data\GlobeLand30_ATS2010_3/GlobeLand30_ATS2010_3/S52_10_2010LC030/S52_10_2010LC030_ATS.TIF","S52_10_2010LC030_ATS.TIF","S52_10",-10,"S",52,-15,-10,126,132
"697","G:\BerkeleyEarthFunctions\Data\GlobeLand30_ATS2010_3/GlobeLand30_ATS2010_3/S52_15_2010LC030/S52_15_2010LC030_ATS.TIF","S52_15_2010LC030_ATS.TIF","S52_15",-15,"S",52,-20,-15,126,132
"698","G:\BerkeleyEarthFunctions\Data\GlobeLand30_ATS2010_3/GlobeLand30_ATS2010_3/S52_20_2010LC030/S52_20_2010LC030_ATS.TIF","S52_20_2010LC030_ATS.TIF","S52_20",-20,"S",52,-25,-20,126,132
"699","G:\BerkeleyEarthFunctions\Data\GlobeLand30_ATS2010_3/GlobeLand30_ATS2010_3/S52_25_2010LC030/S52_25_2010LC030_ATS.TIF","S52_25_2010LC030_ATS.TIF","S52_25",-25,"S",52,-30,-25,126,132
"700","G:\BerkeleyEarthFunctions\Data\GlobeLand30_ATS2010_3/GlobeLand30_ATS2010_3/S52_30_2010LC030/S52_30_2010LC030_ATS.TIF","S52_30_2010LC030_ATS.TIF","S52_30",-30,"S",52,-35,-30,126,132
"701","G:\BerkeleyEarthFunctions\Data\GlobeLand30_ATS2010_3/GlobeLand30_ATS2010_3/S53_10_2010LC030/S53_10_2010LC030_ATS.TIF","S53_10_2010LC030_ATS.TIF","S53_10",-10,"S",53,-15,-10,132,138
"702","G:\BerkeleyEarthFunctions\Data\GlobeLand30_ATS2010_3/GlobeLand30_ATS2010_3/S53_15_2010LC030/S53_15_2010LC030_ATS.TIF","S53_15_2010LC030_ATS.TIF","S53_15",-15,"S",53,-20,-15,132,138
"703","G:\BerkeleyEarthFunctions\Data\GlobeLand30_ATS2010_3/GlobeLand30_ATS2010_3/S53_20_2010LC030/S53_20_2010LC030_ATS.TIF","S53_20_2010LC030_ATS.TIF","S53_20",-20,"S",53,-25,-20,132,138
"704","G:\BerkeleyEarthFunctions\Data\GlobeLand30_ATS2010_3/GlobeLand30_ATS2010_3/S53_25_2010LC030/S53_25_2010LC030_ATS.TIF","S53_25_2010LC030_ATS.TIF","S53_25",-25,"S",53,-30,-25,132,138
"705","G:\BerkeleyEarthFunctions\Data\GlobeLand30_ATS2010_3/GlobeLand30_ATS2010_3/S53_30_2010LC030/S53_30_2010LC030_ATS.TIF","S53_30_2010LC030_ATS.TIF","S53_30",-30,"S",53,-35,-30,132,138
"706","G:\BerkeleyEarthFunctions\Data\GlobeLand30_ATS2010_3/GlobeLand30_ATS2010_3/S53_35_2010LC030/S53_35_2010LC030_ATS.TIF","S53_35_2010LC030_ATS.TIF","S53_35",-35,"S",53,-40,-35,132,138
"707","G:\BerkeleyEarthFunctions\Data\GlobeLand30_ATS2010_3/GlobeLand30_ATS2010_3/S54_00_2010LC030/S54_00_2010LC030_ATS.TIF","S54_00_2010LC030_ATS.TIF","S54_00",0,"S",54,-5,0,138,144
"708","G:\BerkeleyEarthFunctions\Data\GlobeLand30_ATS2010_3/GlobeLand30_ATS2010_3/S54_05_2010LC030/S54_05_2010LC030_ATS.TIF","S54_05_2010LC030_ATS.TIF","S54_05",-5,"S",54,-10,-5,138,144
"709","G:\BerkeleyEarthFunctions\Data\GlobeLand30_ATS2010_3/GlobeLand30_ATS2010_3/S54_10_2010LC030/S54_10_2010LC030_ATS.TIF","S54_10_2010LC030_ATS.TIF","S54_10",-10,"S",54,-15,-10,138,144
"710","G:\BerkeleyEarthFunctions\Data\GlobeLand30_ATS2010_3/GlobeLand30_ATS2010_3/S54_15_2010LC030/S54_15_2010LC030_ATS.TIF","S54_15_2010LC030_ATS.TIF","S54_15",-15,"S",54,-20,-15,138,144
"711","G:\BerkeleyEarthFunctions\Data\GlobeLand30_ATS2010_3/GlobeLand30_ATS2010_3/S54_20_2010LC030/S54_20_2010LC030_ATS.TIF","S54_20_2010LC030_ATS.TIF","S54_20",-20,"S",54,-25,-20,138,144
"712","G:\BerkeleyEarthFunctions\Data\GlobeLand30_ATS2010_3/GlobeLand30_ATS2010_3/S54_25_2010LC030/S54_25_2010LC030_ATS.TIF","S54_25_2010LC030_ATS.TIF","S54_25",-25,"S",54,-30,-25,138,144
"713","G:\BerkeleyEarthFunctions\Data\GlobeLand30_ATS2010_3/GlobeLand30_ATS2010_3/S54_30_2010LC030/S54_30_2010LC030_ATS.TIF","S54_30_2010LC030_ATS.TIF","S54_30",-30,"S",54,-35,-30,138,144
"714","G:\BerkeleyEarthFunctions\Data\GlobeLand30_ATS2010_3/GlobeLand30_ATS2010_3/S54_35_2010LC030/S54_35_2010LC030_ATS.TIF","S54_35_2010LC030_ATS.TIF","S54_35",-35,"S",54,-40,-35,138,144
"715","G:\BerkeleyEarthFunctions\Data\GlobeLand30_ATS2010_3/GlobeLand30_ATS2010_3/S55_00_2010LC030/S55_00_2010LC030_ATS.TIF","S55_00_2010LC030_ATS.TIF","S55_00",0,"S",55,-5,0,144,150
"716","G:\BerkeleyEarthFunctions\Data\GlobeLand30_ATS2010_3/GlobeLand30_ATS2010_3/S55_05_2010LC030/S55_05_2010LC030_ATS.TIF","S55_05_2010LC030_ATS.TIF","S55_05",-5,"S",55,-10,-5,144,150
"717","G:\BerkeleyEarthFunctions\Data\GlobeLand30_ATS2010_3/GlobeLand30_ATS2010_3/S55_15_2010LC030/S55_15_2010LC030_ATS.TIF","S55_15_2010LC030_ATS.TIF","S55_15",-15,"S",55,-20,-15,144,150
"718","G:\BerkeleyEarthFunctions\Data\GlobeLand30_ATS2010_3/GlobeLand30_ATS2010_3/S55_20_2010LC030/S55_20_2010LC030_ATS.TIF","S55_20_2010LC030_ATS.TIF","S55_20",-20,"S",55,-25,-20,144,150
"719","G:\BerkeleyEarthFunctions\Data\GlobeLand30_ATS2010_3/GlobeLand30_ATS2010_3/S55_25_2010LC030/S55_25_2010LC030_ATS.TIF","S55_25_2010LC030_ATS.TIF","S55_25",-25,"S",55,-30,-25,144,150
"720","G:\BerkeleyEarthFunctions\Data\GlobeLand30_ATS2010_3/GlobeLand30_ATS2010_3/S55_30_2010LC030/S55_30_2010LC030_ATS.TIF","S55_30_2010LC030_ATS.TIF","S55_30",-30,"S",55,-35,-30,144,150
"721","G:\BerkeleyEarthFunctions\Data\GlobeLand30_ATS2010_3/GlobeLand30_ATS2010_3/S55_35_2010LC030/S55_35_2010LC030_ATS.TIF","S55_35_2010LC030_ATS.TIF","S55_35",-35,"S",55,-40,-35,144,150
"722","G:\BerkeleyEarthFunctions\Data\GlobeLand30_ATS2010_3/GlobeLand30_ATS2010_3/S55_40_2010LC030/S55_40_2010LC030_ATS.TIF","S55_40_2010LC030_ATS.TIF","S55_40",-40,"S",55,-45,-40,144,150
"723","G:\BerkeleyEarthFunctions\Data\GlobeLand30_ATS2010_3/GlobeLand30_ATS2010_3/S56_00_2010LC030/S56_00_2010LC030_ATS.TIF","S56_00_2010LC030_ATS.TIF","S56_00",0,"S",56,-5,0,150,156
"724","G:\BerkeleyEarthFunctions\Data\GlobeLand30_ATS2010_3/GlobeLand30_ATS2010_3/S56_05_2010LC030/S56_05_2010LC030_ATS.TIF","S56_05_2010LC030_ATS.TIF","S56_05",-5,"S",56,-10,-5,150,156
"725","G:\BerkeleyEarthFunctions\Data\GlobeLand30_ATS2010_3/GlobeLand30_ATS2010_3/S56_10_2010LC030/S56_10_2010LC030_ATS.TIF","S56_10_2010LC030_ATS.TIF","S56_10",-10,"S",56,-15,-10,150,156
"726","G:\BerkeleyEarthFunctions\Data\GlobeLand30_ATS2010_3/GlobeLand30_ATS2010_3/S56_20_2010LC030/S56_20_2010LC030_ATS.TIF","S56_20_2010LC030_ATS.TIF","S56_20",-20,"S",56,-25,-20,150,156
"727","G:\BerkeleyEarthFunctions\Data\GlobeLand30_ATS2010_3/GlobeLand30_ATS2010_3/S56_25_2010LC030/S56_25_2010LC030_ATS.TIF","S56_25_2010LC030_ATS.TIF","S56_25",-25,"S",56,-30,-25,150,156
"728","G:\BerkeleyEarthFunctions\Data\GlobeLand30_ATS2010_3/GlobeLand30_ATS2010_3/S56_30_2010LC030/S56_30_2010LC030_ATS.TIF","S56_30_2010LC030_ATS.TIF","S56_30",-30,"S",56,-35,-30,150,156
"729","G:\BerkeleyEarthFunctions\Data\GlobeLand30_ATS2010_3/GlobeLand30_ATS2010_3/S56_35_2010LC030/S56_35_2010LC030_ATS.TIF","S56_35_2010LC030_ATS.TIF","S56_35",-35,"S",56,-40,-35,150,156
"730","G:\BerkeleyEarthFunctions\Data\GlobeLand30_ATS2010_3/GlobeLand30_ATS2010_3/S57_05_2010LC030/S57_05_2010LC030_ATS.TIF","S57_05_2010LC030_ATS.TIF","S57_05",-5,"S",57,-10,-5,156,162
"731","G:\BerkeleyEarthFunctions\Data\GlobeLand30_ATS2010_3/GlobeLand30_ATS2010_3/S57_10_2010LC030/S57_10_2010LC030_ATS.TIF","S57_10_2010LC030_ATS.TIF","S57_10",-10,"S",57,-15,-10,156,162
"732","G:\BerkeleyEarthFunctions\Data\GlobeLand30_ATS2010_3/GlobeLand30_ATS2010_3/S58_00_2010LC030/S58_00_2010LC030_ATS.TIF","S58_00_2010LC030_ATS.TIF","S58_00",0,"S",58,-5,0,162,168
"733","G:\BerkeleyEarthFunctions\Data\GlobeLand30_ATS2010_3/GlobeLand30_ATS2010_3/S58_10_2010LC030/S58_10_2010LC030_ATS.TIF","S58_10_2010LC030_ATS.TIF","S58_10",-10,"S",58,-15,-10,162,168
"734","G:\BerkeleyEarthFunctions\Data\GlobeLand30_ATS2010_3/GlobeLand30_ATS2010_3/S58_15_2010LC030/S58_15_2010LC030_ATS.TIF","S58_15_2010LC030_ATS.TIF","S58_15",-15,"S",58,-20,-15,162,168
"735","G:\BerkeleyEarthFunctions\Data\GlobeLand30_ATS2010_3/GlobeLand30_ATS2010_3/S58_20_2010LC030/S58_20_2010LC030_ATS.TIF","S58_20_2010LC030_ATS.TIF","S58_20",-20,"S",58,-25,-20,162,168
"736","G:\BerkeleyEarthFunctions\Data\GlobeLand30_ATS2010_3/GlobeLand30_ATS2010_3/S58_25_2010LC030/S58_25_2010LC030_ATS.TIF","S58_25_2010LC030_ATS.TIF","S58_25",-25,"S",58,-30,-25,162,168
"737","G:\BerkeleyEarthFunctions\Data\GlobeLand30_ATS2010_3/GlobeLand30_ATS2010_3/S58_45_2010LC030/S58_45_2010LC030_ATS.TIF","S58_45_2010LC030_ATS.TIF","S58_45",-45,"S",58,-50,-45,162,168
"738","G:\BerkeleyEarthFunctions\Data\GlobeLand30_ATS2010_3/GlobeLand30_ATS2010_3/S59_00_2010LC030/S59_00_2010LC030_ATS.TIF","S59_00_2010LC030_ATS.TIF","S59_00",0,"S",59,-5,0,168,174
"739","G:\BerkeleyEarthFunctions\Data\GlobeLand30_ATS2010_3/GlobeLand30_ATS2010_3/S59_15_2010LC030/S59_15_2010LC030_ATS.TIF","S59_15_2010LC030_ATS.TIF","S59_15",-15,"S",59,-20,-15,168,174
"740","G:\BerkeleyEarthFunctions\Data\GlobeLand30_ATS2010_3/GlobeLand30_ATS2010_3/S59_20_2010LC030/S59_20_2010LC030_ATS.TIF","S59_20_2010LC030_ATS.TIF","S59_20",-20,"S",59,-25,-20,168,174
"741","G:\BerkeleyEarthFunctions\Data\GlobeLand30_ATS2010_3/GlobeLand30_ATS2010_3/S59_30_2010LC030/S59_30_2010LC030_ATS.TIF","S59_30_2010LC030_ATS.TIF","S59_30",-30,"S",59,-35,-30,168,174
"742","G:\BerkeleyEarthFunctions\Data\GlobeLand30_ATS2010_3/GlobeLand30_ATS2010_3/S59_35_2010LC030/S59_35_2010LC030_ATS.TIF","S59_35_2010LC030_ATS.TIF","S59_35",-35,"S",59,-40,-35,168,174
"743","G:\BerkeleyEarthFunctions\Data\GlobeLand30_ATS2010_3/GlobeLand30_ATS2010_3/S59_40_2010LC030/S59_40_2010LC030_ATS.TIF","S59_40_2010LC030_ATS.TIF","S59_40",-40,"S",59,-45,-40,168,174
"744","G:\BerkeleyEarthFunctions\Data\GlobeLand30_ATS2010_3/GlobeLand30_ATS2010_3/S59_45_2010LC030/S59_45_2010LC030_ATS.TIF","S59_45_2010LC030_ATS.TIF","S59_45",-45,"S",59,-50,-45,168,174
"745","G:\BerkeleyEarthFunctions\Data\GlobeLand30_ATS2010_3/GlobeLand30_ATS2010_3/S60_00_2010LC030/S60_00_2010LC030_ATS.TIF","S60_00_2010LC030_ATS.TIF","S60_00",0,"S",60,-5,0,174,180
"746","G:\BerkeleyEarthFunctions\Data\GlobeLand30_ATS2010_3/GlobeLand30_ATS2010_3/S60_05_2010LC030/S60_05_2010LC030_ATS.TIF","S60_05_2010LC030_ATS.TIF","S60_05",-5,"S",60,-10,-5,174,180
"747","G:\BerkeleyEarthFunctions\Data\GlobeLand30_ATS2010_3/GlobeLand30_ATS2010_3/S60_10_2010LC030/S60_10_2010LC030_ATS.TIF","S60_10_2010LC030_ATS.TIF","S60_10",-10,"S",60,-15,-10,174,180
"748","G:\BerkeleyEarthFunctions\Data\GlobeLand30_ATS2010_3/GlobeLand30_ATS2010_3/S60_15_2010LC030/S60_15_2010LC030_ATS.TIF","S60_15_2010LC030_ATS.TIF","S60_15",-15,"S",60,-20,-15,174,180
"749","G:\BerkeleyEarthFunctions\Data\GlobeLand30_ATS2010_3/GlobeLand30_ATS2010_3/S60_35_2010LC030/S60_35_2010LC030_ATS.TIF","S60_35_2010LC030_ATS.TIF","S60_35",-35,"S",60,-40,-35,174,180
"750","G:\BerkeleyEarthFunctions\Data\GlobeLand30_ATS2010_3/GlobeLand30_ATS2010_3/S60_40_2010LC030/S60_40_2010LC030_ATS.TIF","S60_40_2010LC030_ATS.TIF","S60_40",-40,"S",60,-45,-40,174,180
